{
  "type": "Feature",
  "properties": {
    "id": "monterey-carmel",
    "name": "Monterey–Carmel build boundary",
    "boundaryVersion": "monterey-carmel-boundary-v1"
  },
  "geometry": {
    "type": "Polygon",
    "coordinates": [
      [
        [-121.9850, 36.7000],
        [-121.9850, 36.5300],
        [-121.9850, 36.3900],
        [-121.9300, 36.3300],
        [-121.8400, 36.3200],
        [-121.7600, 36.3700],
        [-121.6900, 36.4200],
        [-121.6600, 36.4900],
        [-121.6700, 36.5800],
        [-121.6750, 36.6550],
        [-121.7400, 36.7000],
        [-121.9000, 36.7150],
        [-121.9850, 36.7000]
      ]
    ]
  }
}
