{
  "type": "Feature",
  "properties": {
    "id": "southern-east-bay",
    "name": "Southern East Bay build boundary",
    "boundaryVersion": "southern-east-bay-boundary-v1"
  },
  "geometry": {
    "type": "Polygon",
    "coordinates": [
      [
        [-122.0800, 37.7350],
        [-122.0800, 37.6000],
        [-122.0350, 37.4850],
        [-121.9400, 37.4050],
        [-121.7900, 37.3650],
        [-121.6500, 37.3750],
        [-121.5550, 37.4550],
        [-121.5150, 37.5850],
        [-121.5750, 37.6750],
        [-121.7100, 37.6900],
        [-121.8400, 37.7200],
        [-121.9500, 37.7500],
        [-122.0800, 37.7350]
      ]
    ]
  }
}
