{
  "type": "Feature",
  "properties": {
    "id": "blue-mountains",
    "name": "Blue Mountains and Walla Walla",
    "boundaryVersion": "mountain-led-v1",
    "derivation": "Selected GMBA broad basic ranges, plus retained historical footprint/approach neighborhoods where present, clipped to the existing complete statewide start footprint; remaining locations allocated by EPA ecoregions and the documented shoreline/state-edge repair. No mountain, elevation or terrain threshold determines eligibility.",
    "sources": {
      "gmba": {
        "authority": "Global Mountain Biodiversity Assessment (GMBA) / EarthEnv",
        "dataset": "GMBA Mountain Inventory v2.0, broad extent, basic non-overlapping ranges",
        "url": "https://data.earthenv.org/mountains/broad/GMBA_Inventory_v2.0_broad_basic.zip",
        "sha256": "sha256:638bae59339fb45ffe190079aa2fabdcd1d05fd00353863e9509bd7b16004ae0",
        "byteLength": 42672594,
        "reviewedAt": "2026-09-29T16:56:01Z",
        "coordinateReferenceSystem": "WGS84 (EPSG:4326)",
        "license": "Creative Commons Attribution 4.0 International",
        "datasetCitation": "Snethlage et al. (2022), GMBA Mountain Inventory v2, https://doi.org/10.48601/earthenv-t9k2-1407",
        "publicationCitation": "Snethlage et al. (2022), A hierarchical inventory of the world’s mountains for global comparative mountain science, Scientific Data, https://doi.org/10.1038/s41597-022-01256-y",
        "limitation": "Broad extent includes surrounding landscape and support polygons. Used to organize eligible starts, not to classify every included location as mountainous."
      },
      "epa": {
        "authority": "U.S. Environmental Protection Agency",
        "dataset": "Washington Level III Ecoregions",
        "url": "https://dmap-prod-oms-edc.s3.us-east-1.amazonaws.com/ORD/Ecoregions/wa/wa_eco_l3.zip",
        "metadataUrl": "https://dmap-prod-oms-edc.s3.us-east-1.amazonaws.com/ORD/Ecoregions/wa/wa_eco_l3.htm",
        "sha256": "sha256:e665f5a691b006feaf0c2d0ec8394c4e6d03de127267a21e054ae5bec4e6dae3",
        "byteLength": 1175130,
        "metadataDate": "2012-05-08",
        "reviewedAt": "2026-09-29T16:56:01Z",
        "license": "U.S. federal government public domain",
        "derivation": "Source NAD83 Albers Equal Area polygons transformed to WGS84 EPSG:4326 with pyshp 3.1.6 and pyproj 3.8.0; used only to allocate residual statewide coverage after the selected GMBA ranges and historical footprints."
      }
    },
    "statewideCoverage": {
      "path": "data/fixtures/coverage/washington-start-coverage.geojson",
      "sha256": "sha256:6f5274416c8dcf9bf05d2daff212a7344cdd4a73ffb461fec16d6a00084e4f3d",
      "properties": {
        "name": "Washington eligible-start coverage obligation",
        "basis": "Union of all twelve Washington effective start footprints at 8e95bc3, including the pinned Census 2025 statewide county inventory and retained historical footprints and approach neighborhoods. Used only as a gap-regression baseline; county assignments are superseded.",
        "sourceCommit": "8e95bc3",
        "license": "U.S. Census Bureau public domain; retained OpenStreetMap-derived boundaries ODbL 1.0; USDA Forest Service public domain. Original attribution retained in Git history."
      }
    },
    "gmbaSelection": [
      {
        "id": "16211",
        "name": "Northern Blue Mountains",
        "path": "North America > American Cordillera (North America) > Intermountain West > Columbia Plateau > Blue Mountains (Pacific Northwest) > Northern Blue Mountains",
        "pathIds": "12159 > 12218 > 12543 > 12544 > 12545 > 16211"
      },
      {
        "id": "19566",
        "name": "Southern Blue Mountains (nn)",
        "path": "North America > American Cordillera (North America) > Intermountain West > Columbia Plateau > Blue Mountains (Pacific Northwest) > Southern Blue Mountains > Southern Blue Mountains (nn)",
        "pathIds": "12159 > 12218 > 12543 > 12544 > 12545 > 16213 > 19566"
      }
    ],
    "epaResiduals": [
      "EPA Blue Mountains residual"
    ],
    "edgeRepair": {
      "parts": 20,
      "areaSquareDegrees": 2.4687230553350526e-05,
      "method": "For each connected remaining part outside the EPA polygons, assign its representative point to the nearest post-EPA group by GEOS distance in EPSG:5070; tie-break by ascending region ID."
    },
    "limitation": "The source boundaries are geographic groupings with scale and vintage limitations, not legal access boundaries or proof that all trails are mapped. US-only limits and explicit exclusions still apply. Build costs and representative routes require a real-data build.",
    "authoringPrecision": {
      "method": "GEOS buffer of valid raw derived geometry by 3e-7 degrees with mitre joins and mitre_limit=2, then topology-preserving valid-output set_precision on a shared 1e-7-degree grid. No runtime normalization.",
      "implementation": "Shapely 2.1.2 / GEOS",
      "gridDegrees": 1e-07,
      "outwardBufferDegrees": 3e-07,
      "mitreLimit": 2,
      "verifiedMaximumOutwardDistanceDegrees": 8e-07,
      "maximumMeasuredOutputVertexDistanceDegrees": 7.030134392474859e-07,
      "missingRawAreaSquareDegrees": 0.0,
      "extraAreaSquareDegrees": 2.3995599851747284e-06,
      "rawGeometryHash": "sha256:0f284e1d1abe646127f5789aacd9950cd4882b427f03496614b83ddbf4968b31",
      "finalGeometryHash": "sha256:55ebd61eea97a6928fa7e9116e601e63686a39dca361474c77153d3e983ad2bb",
      "hashEncoding": "UTF-8 JSON geometry, compact comma/colon separators; numeric serialization from Python 3 json.dumps.",
      "reference": "https://libgeos.org/doxygen/classgeos_1_1precision_1_1GeometryPrecisionReducer.html"
    }
  },
  "geometry": {"type":"MultiPolygon","coordinates":[[[[-116.985882,45.9969737],[-116.986548,45.9969724],[-117.0511744,45.9968489],[-117.051304,45.9968487],[-117.070047,45.9975097],[-117.0901868,45.9976243],[-117.212616,45.9983207],[-117.214534,45.9983197],[-117.216731,45.9983557],[-117.2174293,45.9983575],[-117.2473279,45.9984331],[-117.2805133,45.9985171],[-117.3368562,45.9986596],[-117.337668,45.9986617],[-117.3439731,45.9977648],[-117.353928,45.9963487],[-117.3740503,45.9975781],[-117.3813643,45.998025],[-117.3821312,45.9980718],[-117.390738,45.9985977],[-117.439943,45.9986327],[-117.475148,45.9978927],[-117.47536,45.9978547],[-117.4799351,45.9978692],[-117.480103,45.9978697],[-117.504833,45.9983167],[-117.603163,45.9988867],[-117.6034245,45.9988889],[-117.6235956,45.9990611],[-117.717852,45.9998657],[-117.9776633,46.0007232],[-117.996911,46.0007867],[-117.9969497,46.0007865],[-118.126197,46.0002817],[-118.131019,46.0002797],[-118.146028,46.0007007],[-118.228941,46.0004207],[-118.236584,46.0004177],[-118.2366675,46.0004179],[-118.25253,46.0004587],[-118.256368,46.0004387],[-118.283526,46.0007867],[-118.314982,46.0004527],[-118.3404941,46.0005343],[-118.3671683,46.0006197],[-118.36779,46.0006217],[-118.37836,46.0005737],[-118.3872931,46.0005793],[-118.3873018,46.0005793],[-118.4038171,46.0005897],[-118.4153267,46.0005969],[-118.4240272,46.0006024],[-118.470756,46.0006317],[-118.497027,46.0006197],[-118.537119,46.0008397],[-118.5549023,46.0008028],[-118.569392,46.0007727],[-118.57571,46.0007177],[-118.579906,46.0008177],[-118.5904974,46.0008455],[-118.6067893,46.0008884],[-118.637725,46.0009697],[-118.639332,46.0009937],[-118.658717,46.0009547],[-118.67787,46.0009347],[-118.7252422,46.0008698],[-118.7857656,46.0007868],[-118.7886947,46.0007828],[-118.868128,46.0006739],[-118.941242,46.0005737],[-118.9777871,46.0000011],[-118.985,45.9998881],[-118.985,45.9998882],[-118.967789,46.015558],[-118.9635084,46.0175274],[-118.9493158,46.0296],[-118.9469558,46.0447245],[-118.9447586,46.0487772],[-118.9427892,46.0655578],[-118.9405919,46.0696105],[-118.9386225,46.0926411],[-118.9364252,46.1008605],[-118.9344558,46.142641],[-118.9333572,46.1602927],[-118.9281077,46.1592917],[-118.9261057,46.1571269],[-118.9072743,46.1467916],[-118.9052724,46.1425436],[-118.8951855,46.1377829],[-118.8591097,46.1392152],[-118.795096,46.1344544],[-118.7740226,46.1300436],[-118.7582755,46.1270407],[-118.7412548,46.1234763],[-118.7234203,46.1172262],[-118.7190868,46.1125469],[-118.6909943,46.09929],[-118.6886058,46.0967102],[-118.6864411,46.0947083],[-118.6844391,46.0925436],[-118.6822744,46.0905416],[-118.6802725,46.0883769],[-118.6781078,46.086375],[-118.6756054,46.0836691],[-118.6434603,46.0750469],[-118.6302726,46.069627],[-118.6239412,46.067625],[-118.6177726,46.0654603],[-118.5900545,46.0588604],[-118.5865225,46.0550436],[-118.5519849,46.0390565],[-118.4842115,46.0349916],[-118.4624381,46.0311993],[-118.4594393,46.0279603],[-118.4362177,46.0217918],[-118.4323563,46.0259583],[-118.4301916,46.0279602],[-118.4281897,46.0322083],[-118.4260249,46.0342103],[-118.424023,46.036375],[-118.4218583,46.0383769],[-118.4198563,46.0405416],[-118.4176916,46.0425436],[-118.4156896,46.0447083],[-118.4114416,46.0467103],[-118.4094401,46.0479266],[-118.4156897,46.0508765],[-118.4176918,46.0562602],[-118.4114417,46.0592102],[-118.4094397,46.0697082],[-118.407275,46.0717102],[-118.405273,46.073875],[-118.4031083,46.0758769],[-118.4011063,46.0780416],[-118.3989417,46.0800435],[-118.3969397,46.0863749],[-118.394775,46.0883769],[-118.392773,46.0905416],[-118.3906083,46.0925435],[-118.3886064,46.0988749],[-118.3864417,46.1008769],[-118.3844398,46.1053485],[-118.3886063,46.1092098],[-118.3906083,46.1113745],[-118.3927731,46.1133765],[-118.394775,46.1197079],[-118.3969397,46.1217099],[-118.3989417,46.1301246],[-118.4011064,46.1321265],[-118.4031084,46.1447079],[-118.405273,46.1467098],[-118.4072751,46.1511819],[-118.4031084,46.1550435],[-118.4011064,46.1655415],[-118.3989417,46.1675435],[-118.3969397,46.1780415],[-118.394775,46.1800435],[-118.392773,46.1822083],[-118.3906083,46.1842102],[-118.3886063,46.1863749],[-118.3864416,46.1883769],[-118.3844396,46.1905416],[-118.3801916,46.1925436],[-118.3781897,46.1947083],[-118.3718583,46.1987935],[-118.3696407,46.2034932],[-118.3531083,46.2112936],[-118.3511064,46.2134582],[-118.3489416,46.2154602],[-118.3469397,46.2176249],[-118.344775,46.2196269],[-118.342773,46.2217916],[-118.3364417,46.2258768],[-118.3344397,46.2301249],[-118.332275,46.2321269],[-118.330273,46.2342916],[-118.3083461,46.2446386],[-118.3532302,46.2477106],[-118.3968988,46.251503],[-118.423026,46.2560521],[-118.4261429,46.2594172],[-118.4590204,46.26725],[-118.4890417,46.2803482],[-118.4926916,46.2842911],[-118.4948563,46.2862931],[-118.4968583,46.2905411],[-118.509053,46.2962947],[-118.5114416,46.2988744],[-118.5136063,46.3008764],[-118.5156082,46.3030411],[-118.517773,46.3050431],[-118.5197749,46.3072078],[-118.5219396,46.3092097],[-118.5239415,46.3113744],[-118.5281896,46.3133764],[-118.5301916,46.3176245],[-118.5323564,46.3196265],[-118.5343583,46.3301244],[-118.5388298,46.3321262],[-118.5426911,46.3279597],[-118.5448559,46.3259578],[-118.5472444,46.323378],[-118.5594392,46.3176244],[-118.5614412,46.3154597],[-118.5739209,46.3081232],[-118.6039218,46.300978],[-118.6371534,46.298325],[-118.6707268,46.2996556],[-118.6947747,46.3051244],[-118.7156894,46.3071263],[-118.7451573,46.3135391],[-118.7489415,46.3176244],[-118.7514479,46.3199437],[-118.7604408,46.3227921],[-118.7572586,46.3279438],[-118.7550207,46.3470356],[-118.7344557,46.3655579],[-118.6990432,46.3676412],[-118.6905919,46.3779438],[-118.6869258,46.3859232],[-118.6802891,46.3905578],[-118.6718418,46.3925272],[-118.6552891,46.4072245],[-118.647436,46.4108337],[-118.6350053,46.4254453],[-118.6399939,46.434625],[-118.6322586,46.4446105],[-118.6282059,46.4509744],[-118.6177893,46.4636737],[-118.6197587,46.4780574],[-118.6219885,46.4821672],[-118.6197587,46.486277],[-118.6177893,46.4947243],[-118.615592,46.4987771],[-118.6120194,46.506553],[-118.5844558,46.5322245],[-118.5760085,46.5341939],[-118.5719558,46.5363911],[-118.5676752,46.5383605],[-118.5636225,46.5405578],[-118.5557002,46.5441954],[-118.5489253,46.5529437],[-118.5456457,46.5600808],[-118.5385086,46.5633605],[-118.5219558,46.5780578],[-118.5093419,46.5800272],[-118.5052891,46.5822245],[-118.4885086,46.5841938],[-118.4697423,46.6008605],[-118.448925,46.5988911],[-118.4448723,46.5966938],[-118.4405916,46.5947244],[-118.4323723,46.5883605],[-118.423925,46.5863911],[-118.416255,46.5822245],[-118.3926752,46.5841939],[-118.3886225,46.5863911],[-118.3801753,46.5883605],[-118.3677892,46.5988911],[-118.3635086,46.6008605],[-118.3594558,46.6030578],[-118.3426753,46.6050272],[-118.3350051,46.6091939],[-118.3114251,46.6072244],[-118.3073723,46.6050272],[-118.3030917,46.6030578],[-118.2980706,46.6003315],[-118.2705276,46.5986917],[-118.2635086,46.6008605],[-118.2558385,46.6050272],[-118.2489251,46.6030578],[-118.2448723,46.6008605],[-118.2405917,46.5988911],[-118.236539,46.5966938],[-118.2280918,46.5947244],[-118.224039,46.5925272],[-118.2208571,46.5915425],[-118.2156284,46.5905211],[-118.203169,46.5800638],[-118.1989617,46.5780211],[-118.1759433,46.557017],[-118.1510453,46.5592305],[-118.1469193,46.5613545],[-118.1093787,46.5633972],[-118.0927527,46.5780212],[-118.0510453,46.5800638],[-118.0427527,46.5863545],[-118.0260453,46.5883971],[-118.0187739,46.5921407],[-118.0104406,46.5878479],[-118.0041906,46.5910705],[-117.9958573,46.5867777],[-117.9854406,46.5921407],[-117.9771073,46.5878479],[-117.9696163,46.5917093],[-117.9077266,46.5904439],[-117.8968787,46.5925638],[-117.8927528,46.5946878],[-117.8843788,46.5967305],[-117.8760861,46.6030211],[-117.8678383,46.607025],[-117.8656289,46.6113136],[-117.8616657,46.6194843],[-117.8510861,46.6280212],[-117.8010454,46.6300638],[-117.7969195,46.6321878],[-117.7927121,46.6342304],[-117.7885862,46.6363545],[-117.7804523,46.6403014],[-117.7614623,46.6613136],[-117.7590005,46.6764219],[-117.7344195,46.6988544],[-117.7302122,46.7008971],[-117.7221229,46.7050638],[-117.7031286,46.7030211],[-117.6958574,46.6992777],[-117.6846229,46.7050638],[-117.6572953,46.7030211],[-117.6531693,46.7008971],[-117.6489619,46.6988544],[-117.6406693,46.6925637],[-117.6364619,46.6905211],[-117.6215694,46.6780211],[-117.5718788,46.6800638],[-117.5677528,46.6821878],[-117.5177122,46.6842304],[-117.5135862,46.6863544],[-117.5052122,46.6883971],[-117.5010863,46.6905211],[-117.4968789,46.6925637],[-117.4858966,46.7008971],[-117.4656287,46.6988545],[-117.457336,46.6925637],[-117.4495559,46.6887876],[-117.4462031,46.6750344],[-117.432336,46.6633971],[-117.423962,46.6613545],[-117.4156694,46.6550638],[-117.3989621,46.6530211],[-117.394836,46.6508971],[-117.3866288,46.6469135],[-117.3801874,46.6374163],[-117.3805862,46.6179298],[-117.3656693,46.6050638],[-117.361462,46.6030211],[-117.344836,46.5883971],[-117.3406287,46.5863545],[-117.3323361,46.5800638],[-117.3031288,46.5780212],[-117.2990027,46.5758971],[-117.2947953,46.5738545],[-117.2740027,46.5550638],[-117.2697954,46.5530212],[-117.2656694,46.5508971],[-117.2575191,46.546942],[-117.2447953,46.5321877],[-117.2427526,46.5238136],[-117.2406286,46.5196877],[-117.238586,46.5154803],[-117.2364619,46.5113543],[-117.2344193,46.4738137],[-117.2114619,46.4488544],[-117.2090287,46.4239766],[-117.199772,46.4237854],[-117.1760457,46.4258972],[-117.1679564,46.4300639],[-117.1281288,46.4280212],[-117.1240028,46.4258972],[-117.1197955,46.4238545],[-117.1117185,46.419692],[-117.1081053,46.4196187],[-117.084379,46.4217305],[-117.0802531,46.4238545],[-117.0760457,46.4258972],[-117.0708862,46.4285543],[-117.0427528,46.4279805],[-117.0416907,46.4269591],[-117.034772,46.4175711],[-117.0349597,46.4157354],[-117.0363847,46.4112361],[-117.0386633,46.4072648],[-117.0404211,46.3993244],[-117.0406552,46.3985898],[-117.0406799,46.3985121],[-117.04283,46.3947648],[-117.044718,46.3862361],[-117.0597042,46.3695329],[-117.0596673,46.3691711],[-117.0610448,46.3677468],[-117.061276,46.3674199],[-117.0627847,46.3652869],[-117.0627477,46.353624],[-117.0626297,46.3525221],[-117.0607028,46.3490152],[-117.0599826,46.3484836],[-117.0594652,46.3481017],[-117.0559829,46.3455313],[-117.0536853,46.3446129],[-117.0517349,46.3438333],[-117.045469,46.3424903],[-117.0436173,46.3422937],[-117.0311148,46.3404331],[-117.0306719,46.3403153],[-117.0290589,46.3394537],[-117.0238847,46.3322651],[-117.0231577,46.3273766],[-117.0234237,46.326427],[-117.0229387,46.320175],[-117.0222927,46.3174701],[-117.0206628,46.3147932],[-117.0164128,46.3112362],[-117.0074859,46.3053023],[-117.0006581,46.3038661],[-116.9988849,46.3030986],[-116.9949135,46.3008199],[-116.9880116,46.2978271],[-116.9866878,46.2966622],[-116.9865526,46.2964022],[-116.985741,46.2884368],[-116.9908937,46.2803719],[-116.9914217,46.278467],[-116.9911337,46.2763421],[-116.9873908,46.2728652],[-116.9760538,46.2660102],[-116.9725908,46.2632712],[-116.9702978,46.2612332],[-116.9667418,46.2569232],[-116.9643787,46.2532822],[-116.9588007,46.2423201],[-116.9556961,46.2322786],[-116.9571956,46.2238621],[-116.9573726,46.223541],[-116.9655513,46.2132097],[-116.9651423,46.2109792],[-116.9661297,46.2094529],[-116.9665687,46.207501],[-116.9658407,46.2034171],[-116.9629658,46.1996802],[-116.9548147,46.1949163],[-116.9524158,46.1935142],[-116.9470703,46.1892746],[-116.9405525,46.1832914],[-116.9396107,46.1818901],[-116.9397337,46.1795361],[-116.9335709,46.1736183],[-116.9276209,46.1731803],[-116.9240069,46.1709505],[-116.9232825,46.1638241],[-116.9342566,46.1547055],[-116.9343216,46.1542687],[-116.9343797,46.1542288],[-116.9344661,46.1532977],[-116.9363847,46.1404029],[-116.9469967,46.1280982],[-116.9478121,46.1262143],[-116.9483358,46.1258848],[-116.9502757,46.1234639],[-116.9507234,46.1205317],[-116.9511634,46.1197649],[-116.9530514,46.1112363],[-116.95533,46.1072649],[-116.9580645,46.1009578],[-116.9799475,46.0985042],[-116.9803859,46.0942072],[-116.9817468,46.0928808],[-116.9824977,46.0913469],[-116.9824787,46.089389],[-116.9819617,46.0849151],[-116.9802855,46.0821945],[-116.9789646,46.0800507],[-116.9789378,46.0800072],[-116.9789058,46.0799956],[-116.9707976,46.0770553],[-116.9700089,46.0767693],[-116.969814,46.0767446],[-116.9632589,46.075914],[-116.96319,46.0759053],[-116.9604207,46.0763456],[-116.960416,46.0763463],[-116.9604017,46.0763421],[-116.9574328,46.0754672],[-116.9573719,46.0754493],[-116.950185,46.0693166],[-116.9485638,46.0679332],[-116.9441084,46.0627048],[-116.9430041,46.0581778],[-116.9431607,46.0569093],[-116.9434687,46.054415],[-116.9390512,46.0449371],[-116.9390508,46.0449362],[-116.9390502,46.044936],[-116.9361365,46.0437057],[-116.9358608,46.0435893],[-116.9335536,46.0414025],[-116.9335256,46.0413759],[-116.9322354,46.0401532],[-116.9306284,46.030287],[-116.9302527,46.0279805],[-116.9300912,46.0277881],[-116.9298502,46.0236097],[-116.9298487,46.0235831],[-116.9298396,46.0235702],[-116.9275924,46.0204019],[-116.9275898,46.0203982],[-116.923029,46.0183043],[-116.9230048,46.0182932],[-116.9229965,46.0182718],[-116.9211643,46.0135403],[-116.9211607,46.0135311],[-116.9194962,46.0043694],[-116.9186819,45.999887],[-116.9186797,45.9998751],[-116.917895,45.9981487],[-116.9178988,45.9979624],[-116.9179195,45.9969381],[-116.9160315,45.9954144],[-116.9160316,45.9954142],[-116.9160329,45.9954142],[-116.9349089,45.9960724],[-116.940681,45.9962737],[-116.9651376,45.9966524],[-116.966428,45.9966724],[-116.9693515,45.9967177],[-116.9723352,45.9967639],[-116.985882,45.9969737]]],[[[-118.9921763,45.9950061],[-119.0085578,45.9792698],[-119.0270559,45.9691337],[-119.0370555,45.9660509],[-119.0370557,45.9660514],[-119.030289,45.9697247],[-119.0260084,45.9716941],[-119.0219556,45.9738913],[-119.017675,45.9758607],[-119.0136223,45.978058],[-119.0093417,45.9800274],[-118.992789,45.9947246],[-118.9921765,45.9950064],[-118.9921763,45.9950061]]],[[[-119.0844556,45.9488913],[-119.080175,45.9508607],[-119.0761223,45.953058],[-119.0718417,45.9550274],[-119.0677889,45.9572247],[-119.0593417,45.9591941],[-119.0552889,45.9613913],[-119.0468417,45.9633608],[-119.0425732,45.965676],[-119.0389625,45.9654634],[-119.0389625,45.9654631],[-119.0614619,45.9585267],[-119.0932209,45.9427447],[-119.1261199,45.9328587],[-119.1413901,45.9310084],[-119.144677,45.9306101],[-119.1446771,45.9306103],[-119.1432854,45.9321677],[-119.1260083,45.9341941],[-119.1219556,45.9363914],[-119.1093416,45.9383608],[-119.1052889,45.940558],[-119.0968416,45.9425274],[-119.0927889,45.9447247],[-119.0885083,45.9466941],[-119.0844556,45.9488913]]],[[[-120.1844389,45.7530418],[-120.1801909,45.7550437],[-120.1677723,45.7655418],[-120.1635242,45.7675438],[-120.1594389,45.7697085],[-120.1510242,45.7717104],[-120.1469389,45.7738751],[-120.1385242,45.7758771],[-120.1344389,45.7780418],[-120.1093575,45.7800438],[-120.1052722,45.7822085],[-120.0843575,45.7842104],[-120.0802722,45.7863751],[-120.0676909,45.7883771],[-120.0636056,45.7905418],[-120.0593576,45.7925437],[-120.0552723,45.7947085],[-120.0468576,45.7967104],[-120.0427723,45.7988751],[-120.0343576,45.8008771],[-120.0264839,45.8050438],[-120.0221653,45.8037541],[-120.0221652,45.8037539],[-120.055075,45.7909958],[-120.0701499,45.7851517],[-120.1413519,45.7731517],[-120.1704528,45.7619507],[-120.1911031,45.7435044],[-120.2107539,45.7259507],[-120.2114742,45.7259033],[-120.2398407,45.7240357],[-120.2398407,45.7240362],[-120.2301908,45.7258771],[-120.2261055,45.7280418],[-120.2176908,45.7300438],[-120.2136056,45.7322085],[-120.2093575,45.7342104],[-120.2052722,45.7363751],[-120.2010242,45.7383771],[-120.1844389,45.7530418]]],[[[-120.2843574,45.7217105],[-120.2777982,45.7251813],[-120.2432235,45.7238135],[-120.2432235,45.723813],[-120.282156,45.7212497],[-120.2886559,45.7201497],[-120.3290569,45.7110497],[-120.368196,45.7048833],[-120.3681961,45.7048838],[-120.3676908,45.7050438],[-120.3636055,45.7072085],[-120.3468574,45.7092105],[-120.3427721,45.7113752],[-120.3260241,45.7133771],[-120.3219388,45.7155418],[-120.3051908,45.7175438],[-120.3011055,45.7197085],[-120.2843574,45.7217105]]],[[[-120.379534,45.7030975],[-120.3795339,45.703097],[-120.40396,45.6992487],[-120.4530966,45.6962404],[-120.482362,45.6944487],[-120.4833425,45.6946823],[-120.4833424,45.6946827],[-120.4646063,45.6957095],[-120.4468574,45.6967105],[-120.4427721,45.6988752],[-120.4093574,45.7008771],[-120.4042508,45.703583],[-120.3885647,45.7029605],[-120.3823147,45.7032087],[-120.379534,45.7030975]]],[[[-120.5698552,45.7425438],[-120.5614405,45.7405418],[-120.5573552,45.7383771],[-120.5531071,45.7363751],[-120.5448551,45.7300438],[-120.5406071,45.7280418],[-120.5281885,45.7175438],[-120.5239404,45.7155418],[-120.5156885,45.7092104],[-120.5114405,45.7072085],[-120.5073552,45.7050438],[-120.5031071,45.7030418],[-120.4990219,45.7008771],[-120.4906072,45.6988752],[-120.4851386,45.6951106],[-120.4851388,45.6951102],[-120.5058631,45.7000477],[-120.5219642,45.7098478],[-120.5533176,45.7336757],[-120.5594651,45.7383477],[-120.591166,45.7465467],[-120.6349679,45.7458467],[-120.6535342,45.7372484],[-120.6554137,45.736378],[-120.6562734,45.7373759],[-120.6511054,45.7405418],[-120.6468573,45.7425438],[-120.642772,45.7447085],[-120.6301906,45.7467104],[-120.6223171,45.7508771],[-120.5906072,45.7488752],[-120.5865219,45.7467104],[-120.5739405,45.7447085],[-120.5698552,45.7425438]]]]}
}
