{
  "type": "Feature",
  "properties": {
    "id": "central-cascades",
    "name": "Central Cascades",
    "boundaryVersion": "mountain-led-v1",
    "derivation": "Selected GMBA broad basic ranges, plus retained historical footprint/approach neighborhoods where present, clipped to the existing complete statewide start footprint; remaining locations allocated by EPA ecoregions and the documented shoreline/state-edge repair. No mountain, elevation or terrain threshold determines eligibility.",
    "sources": {
      "gmba": {
        "authority": "Global Mountain Biodiversity Assessment (GMBA) / EarthEnv",
        "dataset": "GMBA Mountain Inventory v2.0, broad extent, basic non-overlapping ranges",
        "url": "https://data.earthenv.org/mountains/broad/GMBA_Inventory_v2.0_broad_basic.zip",
        "sha256": "sha256:638bae59339fb45ffe190079aa2fabdcd1d05fd00353863e9509bd7b16004ae0",
        "byteLength": 42672594,
        "reviewedAt": "2026-09-29T16:56:01Z",
        "coordinateReferenceSystem": "WGS84 (EPSG:4326)",
        "license": "Creative Commons Attribution 4.0 International",
        "datasetCitation": "Snethlage et al. (2022), GMBA Mountain Inventory v2, https://doi.org/10.48601/earthenv-t9k2-1407",
        "publicationCitation": "Snethlage et al. (2022), A hierarchical inventory of the world’s mountains for global comparative mountain science, Scientific Data, https://doi.org/10.1038/s41597-022-01256-y",
        "limitation": "Broad extent includes surrounding landscape and support polygons. Used to organize eligible starts, not to classify every included location as mountainous."
      },
      "epa": {
        "authority": "U.S. Environmental Protection Agency",
        "dataset": "Washington Level III Ecoregions",
        "url": "https://dmap-prod-oms-edc.s3.us-east-1.amazonaws.com/ORD/Ecoregions/wa/wa_eco_l3.zip",
        "metadataUrl": "https://dmap-prod-oms-edc.s3.us-east-1.amazonaws.com/ORD/Ecoregions/wa/wa_eco_l3.htm",
        "sha256": "sha256:e665f5a691b006feaf0c2d0ec8394c4e6d03de127267a21e054ae5bec4e6dae3",
        "byteLength": 1175130,
        "metadataDate": "2012-05-08",
        "reviewedAt": "2026-09-29T16:56:01Z",
        "license": "U.S. federal government public domain",
        "derivation": "Source NAD83 Albers Equal Area polygons transformed to WGS84 EPSG:4326 with pyshp 3.1.6 and pyproj 3.8.0; used only to allocate residual statewide coverage after the selected GMBA ranges and historical footprints."
      }
    },
    "statewideCoverage": {
      "path": "data/fixtures/coverage/washington-start-coverage.geojson",
      "sha256": "sha256:6f5274416c8dcf9bf05d2daff212a7344cdd4a73ffb461fec16d6a00084e4f3d",
      "properties": {
        "name": "Washington eligible-start coverage obligation",
        "basis": "Union of all twelve Washington effective start footprints at 8e95bc3, including the pinned Census 2025 statewide county inventory and retained historical footprints and approach neighborhoods. Used only as a gap-regression baseline; county assignments are superseded.",
        "sourceCommit": "8e95bc3",
        "license": "U.S. Census Bureau public domain; retained OpenStreetMap-derived boundaries ODbL 1.0; USDA Forest Service public domain. Original attribution retained in Git history."
      }
    },
    "retainedFootprint": {
      "path": "data/coverage/regions/central-cascades.geojson",
      "sha256": "sha256:48ad27fe43a760485b4159cfa9ea574dd27e90b46c619f3c30f0aa55d586e3e2",
      "properties": {
        "id": "central-cascades",
        "name": "Central Cascades start footprint",
        "boundaryVersion": "central-cascades-boundary-v3",
        "derivation": "Polygon union of the retained Central Cascades footprint and both pinned USFS pilot boundaries, without boundary simplification. The one sub-resolution interior sliver documented below is filled. Reviewed approach neighborhoods are added by the catalog loader.",
        "sources": [
          {
            "id": "central-cascades",
            "reviewedAt": "2026-09-28T00:00:00Z",
            "authority": "Alpine Loop / OpenStreetMap contributors",
            "dataset": "Reviewed Central Cascades hiking footprint retained from the Washington 2026-08-01 source",
            "url": "https://download.geofabrik.de/north-america/us/washington-260801.osm.pbf",
            "license": "Open Data Commons Open Database License (ODbL) 1.0; https://www.openstreetmap.org/copyright",
            "originalProperties": {
              "id": "central-cascades",
              "name": "Central Cascades build boundary",
              "boundaryVersion": "central-cascades-boundary-v2",
              "sourceNamedAreaIds": [
                "osm:relation/6115914",
                "osm:relation/6112652",
                "osm:relation/6437099",
                "osm:relation/6114550",
                "osm:relation/3093637"
              ]
            }
          },
          {
            "id": "glacier-peak",
            "reviewedAt": "2026-09-28T00:00:00Z",
            "authority": "USDA Forest Service",
            "license": "US federal government public-domain geographic data; boundary and recreation metadata retained with attribution",
            "dataset": "USFS Wilderness boundary; generalized trailhead-selection footprint",
            "url": "https://apps.fs.usda.gov/arcx/rest/services/EDW/EDW_Wilderness_01/MapServer/0",
            "originalProperties": {
              "wildernessname": "Glacier Peak Wilderness",
              "wid": 207,
              "gis_acres": 566327.704,
              "boundarystatus": "Final",
              "sourceUrl": "https://apps.fs.usda.gov/arcx/rest/services/EDW/EDW_Wilderness_01/MapServer/0",
              "retrievedAt": "2026-09-28T00:00:00Z",
              "query": "wid=207; outSR=4326; maxAllowableOffset=0.0001 degrees",
              "limitation": "Generalized to about 11 metres for trailhead selection; not a legal boundary survey."
            }
          },
          {
            "id": "henry-m-jackson",
            "reviewedAt": "2026-09-28T00:00:00Z",
            "authority": "USDA Forest Service",
            "license": "US federal government public-domain geographic data; boundary and recreation metadata retained with attribution",
            "dataset": "USFS Wilderness boundary; generalized trailhead-selection footprint",
            "url": "https://apps.fs.usda.gov/arcx/rest/services/EDW/EDW_Wilderness_01/MapServer/0",
            "originalProperties": {
              "wildernessname": "Henry M. Jackson Wilderness",
              "wid": 241,
              "gis_acres": 103240.071,
              "boundarystatus": "Final",
              "sourceUrl": "https://apps.fs.usda.gov/arcx/rest/services/EDW/EDW_Wilderness_01/MapServer/0",
              "retrievedAt": "2026-09-28T00:00:00Z",
              "query": "wid=241; outSR=4326; maxAllowableOffset=0.0001 degrees; geometryPrecision=5",
              "limitation": "Generalized to about 11 metres for trailhead selection; not a legal boundary survey."
            }
          }
        ],
        "limitation": "Start selection only; this mixed OSM-derived and generalized USFS footprint is not a legal boundary survey, an exhaustive trail inventory, or current access permission.",
        "filledInteriorSlivers": {
          "reason": "One union hole is below the geometry validator threshold of 1e-10 square degrees and far below the approximately 11 m USFS source generalization. Filling this 0.037 m² sliver adds coverage; no input footprint is removed. Larger holes remain intact.",
          "rings": [
            {
              "areaSquareDegrees": 4.4163355562219245e-12,
              "coordinates": [
                [
                  -121.10926965953307,
                  47.984323363326844
                ],
                [
                  -121.1092677845446,
                  47.98432282246478
                ],
                [
                  -121.10925893653564,
                  47.9843155593676
                ],
                [
                  -121.10926965953307,
                  47.984323363326844
                ]
              ]
            }
          ]
        }
      },
      "approachNeighborhoods": "Union of the existing catalog approach circles, using their unchanged explicit radius or approachRadiusMeters and the shared 32-vertex spherical neighborhood definition."
    },
    "gmbaSelection": [
      {
        "id": "16944",
        "name": "North Chelan Mountains",
        "path": "North America > American Cordillera (North America) > Pacific Coast Ranges > Cascade Range (North America) > North Cascades > Chelan Mountains > North Chelan Mountains",
        "pathIds": "12159 > 12218 > 12385 > 11202 > 15510 > 16943 > 16944"
      },
      {
        "id": "16945",
        "name": "South Chelan Mountains",
        "path": "North America > American Cordillera (North America) > Pacific Coast Ranges > Cascade Range (North America) > North Cascades > Chelan Mountains > South Chelan Mountains",
        "pathIds": "12159 > 12218 > 12385 > 11202 > 15510 > 16943 > 16945"
      },
      {
        "id": "16947",
        "name": "North Entiat Mountains",
        "path": "North America > American Cordillera (North America) > Pacific Coast Ranges > Cascade Range (North America) > North Cascades > Entiat Mountains > North Entiat Mountains",
        "pathIds": "12159 > 12218 > 12385 > 11202 > 15510 > 16946 > 16947"
      },
      {
        "id": "16948",
        "name": "South Entiat Mountains",
        "path": "North America > American Cordillera (North America) > Pacific Coast Ranges > Cascade Range (North America) > North Cascades > Entiat Mountains > South Entiat Mountains",
        "pathIds": "12159 > 12218 > 12385 > 11202 > 15510 > 16946 > 16948"
      },
      {
        "id": "16956",
        "name": "Chiwawa Ridge",
        "path": "North America > American Cordillera (North America) > Pacific Coast Ranges > Cascade Range (North America) > North Cascades > Glacier Peak-North Stevens Pass Area > Chiwawa Ridge",
        "pathIds": "12159 > 12218 > 12385 > 11202 > 15510 > 16955 > 16956"
      },
      {
        "id": "16957",
        "name": "Dakobed Range",
        "path": "North America > American Cordillera (North America) > Pacific Coast Ranges > Cascade Range (North America) > North Cascades > Glacier Peak-North Stevens Pass Area > Dakobed Range",
        "pathIds": "12159 > 12218 > 12385 > 11202 > 15510 > 16955 > 16957"
      },
      {
        "id": "16958",
        "name": "Glacier Peak Massif",
        "path": "North America > American Cordillera (North America) > Pacific Coast Ranges > Cascade Range (North America) > North Cascades > Glacier Peak-North Stevens Pass Area > Glacier Peak Massif",
        "pathIds": "12159 > 12218 > 12385 > 11202 > 15510 > 16955 > 16958"
      },
      {
        "id": "16959",
        "name": "Nason Ridge",
        "path": "North America > American Cordillera (North America) > Pacific Coast Ranges > Cascade Range (North America) > North Cascades > Glacier Peak-North Stevens Pass Area > Nason Ridge",
        "pathIds": "12159 > 12218 > 12385 > 11202 > 15510 > 16955 > 16959"
      },
      {
        "id": "16960",
        "name": "Pugh-Black",
        "path": "North America > American Cordillera (North America) > Pacific Coast Ranges > Cascade Range (North America) > North Cascades > Glacier Peak-North Stevens Pass Area > Pugh-Black",
        "pathIds": "12159 > 12218 > 12385 > 11202 > 15510 > 16955 > 16960"
      },
      {
        "id": "16961",
        "name": "Wenatchee Ridge",
        "path": "North America > American Cordillera (North America) > Pacific Coast Ranges > Cascade Range (North America) > North Cascades > Glacier Peak-North Stevens Pass Area > Wenatchee Ridge",
        "pathIds": "12159 > 12218 > 12385 > 11202 > 15510 > 16955 > 16961"
      },
      {
        "id": "16962",
        "name": "Wild Sky",
        "path": "North America > American Cordillera (North America) > Pacific Coast Ranges > Cascade Range (North America) > North Cascades > Glacier Peak-North Stevens Pass Area > Wild Sky",
        "pathIds": "12159 > 12218 > 12385 > 11202 > 15510 > 16955 > 16962"
      },
      {
        "id": "16975",
        "name": "Cultus Mountains",
        "path": "North America > American Cordillera (North America) > Pacific Coast Ranges > Cascade Range (North America) > North Cascades > Mountain Loop Area > Cultus Mountains",
        "pathIds": "12159 > 12218 > 12385 > 11202 > 15510 > 16974 > 16975"
      },
      {
        "id": "16976",
        "name": "Inner Mountain Loop",
        "path": "North America > American Cordillera (North America) > Pacific Coast Ranges > Cascade Range (North America) > North Cascades > Mountain Loop Area > Inner Mountain Loop",
        "pathIds": "12159 > 12218 > 12385 > 11202 > 15510 > 16974 > 16976"
      },
      {
        "id": "16977",
        "name": "Monte Cristo Area",
        "path": "North America > American Cordillera (North America) > Pacific Coast Ranges > Cascade Range (North America) > North Cascades > Mountain Loop Area > Monte Cristo Area",
        "pathIds": "12159 > 12218 > 12385 > 11202 > 15510 > 16974 > 16977"
      },
      {
        "id": "16978",
        "name": "Pilchuck Area",
        "path": "North America > American Cordillera (North America) > Pacific Coast Ranges > Cascade Range (North America) > North Cascades > Mountain Loop Area > Pilchuck Area",
        "pathIds": "12159 > 12218 > 12385 > 11202 > 15510 > 16974 > 16978"
      },
      {
        "id": "16979",
        "name": "Ragged Ridge",
        "path": "North America > American Cordillera (North America) > Pacific Coast Ranges > Cascade Range (North America) > North Cascades > Mountain Loop Area > Ragged Ridge (Cascades)",
        "pathIds": "12159 > 12218 > 12385 > 11202 > 15510 > 16974 > 16979"
      },
      {
        "id": "16980",
        "name": "Round-Gee-Deer",
        "path": "North America > American Cordillera (North America) > Pacific Coast Ranges > Cascade Range (North America) > North Cascades > Mountain Loop Area > Round-Gee-Deer",
        "pathIds": "12159 > 12218 > 12385 > 11202 > 15510 > 16974 > 16980"
      },
      {
        "id": "16981",
        "name": "Three Fingers-Whitehorse",
        "path": "North America > American Cordillera (North America) > Pacific Coast Ranges > Cascade Range (North America) > North Cascades > Mountain Loop Area > Three Fingers-Whitehorse",
        "pathIds": "12159 > 12218 > 12385 > 11202 > 15510 > 16974 > 16981"
      },
      {
        "id": "16982",
        "name": "White Chuck Area",
        "path": "North America > American Cordillera (North America) > Pacific Coast Ranges > Cascade Range (North America) > North Cascades > Mountain Loop Area > White Chuck Area",
        "pathIds": "12159 > 12218 > 12385 > 11202 > 15510 > 16974 > 16982"
      },
      {
        "id": "17012",
        "name": "Chikamin-Keechelus",
        "path": "North America > American Cordillera (North America) > Pacific Coast Ranges > Cascade Range (North America) > South Washington Cascades > Alpine Lakes Area > Chikamin-Keechelus",
        "pathIds": "12159 > 12218 > 12385 > 11202 > 17010 > 17011 > 17012"
      },
      {
        "id": "17013",
        "name": "Index-Tolt Area",
        "path": "North America > American Cordillera (North America) > Pacific Coast Ranges > Cascade Range (North America) > South Washington Cascades > Alpine Lakes Area > Index-Tolt Area",
        "pathIds": "12159 > 12218 > 12385 > 11202 > 17010 > 17011 > 17013"
      },
      {
        "id": "17014",
        "name": "Kachess Ridge",
        "path": "North America > American Cordillera (North America) > Pacific Coast Ranges > Cascade Range (North America) > South Washington Cascades > Alpine Lakes Area > Kachess Ridge",
        "pathIds": "12159 > 12218 > 12385 > 11202 > 17010 > 17011 > 17014"
      },
      {
        "id": "17015",
        "name": "Mount Daniel Area",
        "path": "North America > American Cordillera (North America) > Pacific Coast Ranges > Cascade Range (North America) > South Washington Cascades > Alpine Lakes Area > Mount Daniel Area",
        "pathIds": "12159 > 12218 > 12385 > 11202 > 17010 > 17011 > 17015"
      },
      {
        "id": "17016",
        "name": "North-Middle Forks Snoqualmie",
        "path": "North America > American Cordillera (North America) > Pacific Coast Ranges > Cascade Range (North America) > South Washington Cascades > Alpine Lakes Area > North-Middle Forks Snoqualmie",
        "pathIds": "12159 > 12218 > 12385 > 11202 > 17010 > 17011 > 17016"
      },
      {
        "id": "17018",
        "name": "Snoqualmie Pass North",
        "path": "North America > American Cordillera (North America) > Pacific Coast Ranges > Cascade Range (North America) > South Washington Cascades > Alpine Lakes Area > Snoqualmie Pass North",
        "pathIds": "12159 > 12218 > 12385 > 11202 > 17010 > 17011 > 17018"
      },
      {
        "id": "17032",
        "name": "Cedar River-South Snoqualmie Pass",
        "path": "North America > American Cordillera (North America) > Pacific Coast Ranges > Cascade Range (North America) > South Washington Cascades > South Cascade Crest > Cedar River-South Snoqualmie Pass",
        "pathIds": "12159 > 12218 > 12385 > 11202 > 17010 > 17031 > 17032"
      },
      {
        "id": "17036",
        "name": "Issaquah Alps",
        "path": "North America > American Cordillera (North America) > Pacific Coast Ranges > Cascade Range (North America) > South Washington Cascades > South Cascade Crest > Issaquah Alps",
        "pathIds": "12159 > 12218 > 12385 > 11202 > 17010 > 17031 > 17036"
      },
      {
        "id": "17038",
        "name": "West Manastash-Umtanum Ridges",
        "path": "North America > American Cordillera (North America) > Pacific Coast Ranges > Cascade Range (North America) > South Washington Cascades > South Cascade Crest > West Manastash-Umtanum Ridges",
        "pathIds": "12159 > 12218 > 12385 > 11202 > 17010 > 17031 > 17038"
      },
      {
        "id": "17040",
        "name": "Chiwaukum Mountains",
        "path": "North America > American Cordillera (North America) > Pacific Coast Ranges > Cascade Range (North America) > South Washington Cascades > Wenatchee Mountains > Chiwaukum Mountains",
        "pathIds": "12159 > 12218 > 12385 > 11202 > 17010 > 17039 > 17040"
      },
      {
        "id": "17041",
        "name": "Mission-Naneum Ridges",
        "path": "North America > American Cordillera (North America) > Pacific Coast Ranges > Cascade Range (North America) > South Washington Cascades > Wenatchee Mountains > Mission-Naneum Ridges",
        "pathIds": "12159 > 12218 > 12385 > 11202 > 17010 > 17039 > 17041"
      },
      {
        "id": "17042",
        "name": "North Wenatchee Mountains",
        "path": "North America > American Cordillera (North America) > Pacific Coast Ranges > Cascade Range (North America) > South Washington Cascades > Wenatchee Mountains > North Wenatchee Mountains",
        "pathIds": "12159 > 12218 > 12385 > 11202 > 17010 > 17039 > 17042"
      },
      {
        "id": "17043",
        "name": "Stuart Range",
        "path": "North America > American Cordillera (North America) > Pacific Coast Ranges > Cascade Range (North America) > South Washington Cascades > Wenatchee Mountains > Stuart Range",
        "pathIds": "12159 > 12218 > 12385 > 11202 > 17010 > 17039 > 17043"
      },
      {
        "id": "17044",
        "name": "Teanaway Area",
        "path": "North America > American Cordillera (North America) > Pacific Coast Ranges > Cascade Range (North America) > South Washington Cascades > Wenatchee Mountains > Teanaway Area",
        "pathIds": "12159 > 12218 > 12385 > 11202 > 17010 > 17039 > 17044"
      },
      {
        "id": "19110",
        "name": "White Mountains",
        "path": "North America > American Cordillera (North America) > Pacific Coast Ranges > Cascade Range (North America) > North Cascades > Glacier Peak-North Stevens Pass Area > White Mountains (North Cascades)",
        "pathIds": "12159 > 12218 > 12385 > 11202 > 15510 > 16955 > 19110"
      }
    ],
    "epaResiduals": [],
    "edgeRepair": {
      "parts": 0,
      "areaSquareDegrees": 0,
      "method": "For each connected remaining part outside the EPA polygons, assign its representative point to the nearest post-EPA group by GEOS distance in EPSG:5070; tie-break by ascending region ID."
    },
    "limitation": "The source boundaries are geographic groupings with scale and vintage limitations, not legal access boundaries or proof that all trails are mapped. US-only limits and explicit exclusions still apply. Build costs and representative routes require a real-data build.",
    "authoringPrecision": {
      "method": "GEOS buffer of valid raw derived geometry by 3e-7 degrees with mitre joins and mitre_limit=2, then topology-preserving valid-output set_precision on a shared 1e-7-degree grid. No runtime normalization.",
      "implementation": "Shapely 2.1.2 / GEOS",
      "gridDegrees": 1e-07,
      "outwardBufferDegrees": 3e-07,
      "mitreLimit": 2,
      "verifiedMaximumOutwardDistanceDegrees": 8e-07,
      "maximumMeasuredOutputVertexDistanceDegrees": 6.482367640682126e-07,
      "missingRawAreaSquareDegrees": 0.0,
      "extraAreaSquareDegrees": 3.4569037058098585e-06,
      "rawGeometryHash": "sha256:f85d2cd50eddf00f04f4f6c6739b18d4b4fbd96941ca129a86927ed523b33f79",
      "finalGeometryHash": "sha256:da40ccebe3937b912f2ec411dbb15e84b3af0c0fa04e66e721b7d7ad4431774d",
      "hashEncoding": "UTF-8 JSON geometry, compact comma/colon separators; numeric serialization from Python 3 json.dumps.",
      "reference": "https://libgeos.org/doxygen/classgeos_1_1precision_1_1GeometryPrecisionReducer.html"
    }
  },
  "geometry": {"type":"Polygon","coordinates":[[[-122.4194724,48.3422416],[-122.4180726,48.3512585],[-122.4132223,48.3526583],[-122.4118226,48.3554252],[-122.4090557,48.3568249],[-122.4083558,48.3686251],[-122.405251,48.3696871],[-122.3956605,48.3720268],[-122.3913921,48.380828],[-122.384377,48.3842297],[-122.3760844,48.3905205],[-122.3658265,48.3930229],[-122.3631329,48.4150688],[-122.3385847,48.4180676],[-122.3418723,48.4273811],[-122.3489603,48.4321865],[-122.3689026,48.4346239],[-122.3739606,48.4444428],[-122.3648783,48.4508964],[-122.3447935,48.4488538],[-122.3367043,48.4446871],[-122.3202455,48.4469535],[-122.3170188,48.4601858],[-122.3052511,48.4696871],[-122.3010437,48.4717297],[-122.2918924,48.4786715],[-122.2833556,48.474277],[-122.2760844,48.4780204],[-122.2635437,48.4800631],[-122.2594177,48.4821871],[-122.2510437,48.4842297],[-122.2469177,48.4863538],[-122.2385437,48.4883964],[-122.2304545,48.4925631],[-122.1822936,48.4905204],[-122.1701192,48.4863538],[-122.1635438,48.4883964],[-122.1527079,48.4966199],[-122.1408711,48.4905205],[-122.1302514,48.493861],[-122.1322939,48.4988533],[-122.135179,48.5044525],[-122.1235412,48.5132866],[-122.1117696,48.5072197],[-122.0969178,48.5196871],[-122.0885438,48.5217297],[-122.0804545,48.5258964],[-122.0739602,48.5238537],[-122.0687724,48.5207085],[-122.060553,48.5258395],[-122.0572365,48.5239107],[-122.0490579,48.5175061],[-122.0447366,48.5155774],[-122.0407245,48.5133394],[-122.0364033,48.5114107],[-122.029783,48.5077161],[-122.0207377,48.5069918],[-122.0094751,48.5103812],[-122.0114037,48.515577],[-122.0144922,48.5211111],[-122.0060202,48.5258394],[-121.9947366,48.5239107],[-121.9872701,48.5197441],[-121.9801535,48.5216727],[-121.9726868,48.5258394],[-121.9489033,48.5239107],[-121.9448913,48.5216728],[-121.9364033,48.519744],[-121.9304829,48.51644],[-121.9177307,48.5154146],[-121.9119486,48.5158826],[-121.9041891,48.5115532],[-121.8969748,48.5155774],[-121.8843202,48.5175061],[-121.8800274,48.5199028],[-121.8760641,48.5195813],[-121.8718974,48.519919],[-121.8665711,48.5194918],[-121.8483909,48.5249646],[-121.8428082,48.5280774],[-121.838487,48.5300061],[-121.8293763,48.5371391],[-121.8229391,48.5335502],[-121.8178082,48.5364107],[-121.8093203,48.5383394],[-121.8053082,48.5405774],[-121.8009869,48.5425061],[-121.7956686,48.5454725],[-121.7852153,48.5372856],[-121.7583804,48.5602632],[-121.7468203,48.5654227],[-121.7428082,48.5676607],[-121.7291887,48.5686251],[-121.7291886,48.568625],[-121.7386208,48.5572233],[-121.7405902,48.548776],[-121.7447569,48.541106],[-121.7427875,48.5341931],[-121.7253194,48.5318534],[-121.7197202,48.5238413],[-121.7239235,48.516106],[-121.7213927,48.5098888],[-121.7155904,48.5072237],[-121.7104392,48.5044284],[-121.7052879,48.5072237],[-121.6968406,48.5091931],[-121.6892519,48.513315],[-121.6854392,48.5135429],[-121.6812725,48.5132906],[-121.6747458,48.5136812],[-121.6661844,48.5097505],[-121.6551736,48.4968069],[-121.6523172,48.484543],[-121.6385927,48.4821017],[-121.6208559,48.4832084],[-121.6081074,48.4819063],[-121.6053079,48.4695893],[-121.5989033,48.4614106],[-121.5969746,48.4529226],[-121.5947366,48.4489106],[-121.5920104,48.4427991],[-121.5822368,48.4405774],[-121.5782247,48.4383394],[-121.5739033,48.4364107],[-121.5719746,48.4320893],[-121.5564187,48.4146617],[-121.5551451,48.3988332],[-121.5569274,48.3766612],[-121.5509459,48.3659353],[-121.5515929,48.3578949],[-121.5489033,48.3530773],[-121.5469746,48.3383394],[-121.5458557,48.3373751],[-121.5398459,48.3335869],[-121.5312726,48.3344617],[-121.5122095,48.3325208],[-121.5094955,48.3447643],[-121.5072169,48.3487356],[-121.5049016,48.3693819],[-121.4956931,48.3703219],[-121.4907451,48.3674858],[-121.4863831,48.3655978],[-121.4824118,48.3633191],[-121.4738832,48.3614311],[-121.4699118,48.3591525],[-121.4623678,48.355881],[-121.448883,48.3405977],[-121.446995,48.3362357],[-121.4405497,48.3280976],[-121.4380961,48.3170218],[-121.4261415,48.3070529],[-121.4222922,48.3074435],[-121.4207141,48.3054501],[-121.419324,48.3052647],[-121.4146595,48.3044945],[-121.4101165,48.3034517],[-121.4057308,48.3021446],[-121.4015371,48.3005834],[-121.3975686,48.2987806],[-121.3117021,48.2558384],[-121.3048606,48.2534396],[-121.292731,48.2529595],[-121.2557274,48.2544243],[-121.2479393,48.2503065],[-121.2427718,48.2530408],[-121.2385238,48.2550428],[-121.2344385,48.2572075],[-121.2296286,48.2592308],[-121.2296693,48.2595056],[-121.2295396,48.2603829],[-121.2291553,48.2612265],[-121.2285312,48.262004],[-121.2276912,48.2626855],[-121.2266677,48.2632448],[-121.226483,48.2633105],[-121.2257102,48.2642202],[-121.2235202,48.2653702],[-121.2224904,48.2663],[-121.2225153,48.2663349],[-121.2242925,48.2680497],[-121.2243399,48.2680908],[-121.2260363,48.2684717],[-121.2263901,48.2685497],[-121.2285601,48.2700497],[-121.2438941,48.2769998],[-121.2481126,48.2789107],[-121.249375,48.2792223],[-121.2495701,48.2792697],[-121.2502702,48.2795997],[-121.2516944,48.2808148],[-121.2517304,48.2808099],[-121.2522599,48.2806397],[-121.2535742,48.2805592],[-121.2537113,48.2805406],[-121.2575877,48.2814557],[-121.2587293,48.2814295],[-121.258884,48.2814049],[-121.26023,48.2810797],[-121.2613994,48.2810049],[-121.2637721,48.2806277],[-121.2646299,48.2804297],[-121.2658733,48.2802936],[-121.2659851,48.2802758],[-121.2695158,48.2802505],[-121.27029,48.2800797],[-121.2723491,48.2802301],[-121.2724657,48.2802293],[-121.2746583,48.2792203],[-121.278312,48.2785594],[-121.2806626,48.2787119],[-121.280931,48.27883],[-121.2820771,48.279334],[-121.2821412,48.279298],[-121.2828899,48.2786897],[-121.2838189,48.2783553],[-121.2838747,48.2783239],[-121.2846845,48.278198],[-121.28564,48.2780397],[-121.2857167,48.2780376],[-121.2879637,48.2776883],[-121.2910938,48.2754581],[-121.2911253,48.2754563],[-121.292,48.2752597],[-121.2936808,48.2753061],[-121.2937987,48.2752992],[-121.2953964,48.2747922],[-121.2958399,48.2745397],[-121.2968986,48.2743154],[-121.2970092,48.2742803],[-121.330272,48.2703502],[-121.3302787,48.270361],[-121.3302902,48.2703597],[-121.3443005,48.2929602],[-121.3442008,48.2929714],[-121.3397305,48.2936624],[-121.3396501,48.2936803],[-121.3359002,48.2952802],[-121.3357533,48.2955441],[-121.3353496,48.2963694],[-121.3353103,48.2968101],[-121.3344202,48.2983102],[-121.3315502,48.2998702],[-121.3302002,48.3012802],[-121.3301831,48.3013135],[-121.3301411,48.3020529],[-121.3301603,48.30212],[-121.3301103,48.3028801],[-121.3297806,48.3033541],[-121.329616,48.3036037],[-121.3292003,48.3045802],[-121.3282986,48.3056016],[-121.3277782,48.3063908],[-121.3275303,48.3070202],[-121.3266702,48.3081002],[-121.3241602,48.3103502],[-121.3227803,48.3111302],[-121.3229703,48.31221],[-121.3229833,48.3129428],[-121.3232426,48.3151042],[-121.3232703,48.3151799],[-121.323338,48.3153044],[-121.3246237,48.3171842],[-121.3251803,48.3176498],[-121.3253503,48.31824],[-121.3251903,48.3191301],[-121.3238403,48.3206401],[-121.3238603,48.3218876],[-121.3366512,48.3208055],[-121.345204,48.3219549],[-121.3452081,48.3219581],[-121.3452201,48.3219597],[-121.3469502,48.3233098],[-121.3488404,48.32557],[-121.3481003,48.3264902],[-121.3465902,48.3297102],[-121.3463156,48.3299238],[-121.3436054,48.3322066],[-121.3435503,48.3322701],[-121.3431503,48.33373],[-121.3431511,48.3337588],[-121.3434332,48.3342586],[-121.3434399,48.334263],[-121.3520083,48.3334986],[-121.3532337,48.3330929],[-121.3532736,48.3331028],[-121.3544601,48.3332597],[-121.355577,48.3336749],[-121.3556229,48.3336775],[-121.35662,48.3336097],[-121.3582449,48.3338264],[-121.3582529,48.3338268],[-121.3582555,48.3338278],[-121.3582701,48.3338297],[-121.3616102,48.3350597],[-121.3622002,48.3357098],[-121.3636202,48.3381898],[-121.3650602,48.3395398],[-121.3666513,48.3413596],[-121.3692058,48.3412066],[-121.37035,48.3409897],[-121.372068,48.3410351],[-121.373211,48.3409666],[-121.37447,48.3407897],[-121.3758421,48.340809],[-121.3758742,48.3408071],[-121.3758888,48.3408097],[-121.37589,48.3408097],[-121.3782101,48.3412197],[-121.3782824,48.3412482],[-121.3849879,48.3436231],[-121.3879971,48.3439267],[-121.3880631,48.3439245],[-121.38975,48.3437597],[-121.3916368,48.3438059],[-121.3917707,48.3438015],[-121.3980222,48.3453448],[-121.3980223,48.3453461],[-121.3980403,48.3453497],[-121.4008803,48.36808],[-121.4015403,48.37375],[-121.4014303,48.3742299],[-121.4024603,48.3750198],[-121.4028503,48.37631],[-121.4028003,48.3775701],[-121.4020103,48.3793401],[-121.4019803,48.3804101],[-121.4017703,48.3809902],[-121.4008258,48.3820295],[-121.3996893,48.3832991],[-121.4000802,48.3836998],[-121.4002226,48.3839814],[-121.4008891,48.3847834],[-121.4012902,48.3849998],[-121.4014702,48.3854698],[-121.4020469,48.3856766],[-121.402903,48.3859808],[-121.402903,48.3859836],[-121.4029203,48.3859898],[-121.4029054,48.3861193],[-121.402935,48.3878339],[-121.4029503,48.3879898],[-121.4035703,48.3884598],[-121.4036103,48.3898299],[-121.4041503,48.3903499],[-121.4041703,48.3911699],[-121.4050795,48.3919892],[-121.4054703,48.3921093],[-121.4072002,48.3926397],[-121.4078703,48.3932598],[-121.4079403,48.39347],[-121.4078318,48.3937557],[-121.4077508,48.3953371],[-121.4077603,48.3954299],[-121.4078134,48.395536],[-121.4089254,48.3973171],[-121.4093403,48.3978098],[-121.4096096,48.3983885],[-121.4096296,48.3983949],[-121.4117402,48.3989597],[-121.4118703,48.3991143],[-121.4119867,48.3991517],[-121.4120394,48.399315],[-121.4122203,48.3995299],[-121.4123503,48.40023],[-121.4118503,48.4015401],[-121.4118603,48.4024799],[-121.4139303,48.4050598],[-121.4144503,48.40633],[-121.4141303,48.4072201],[-121.4127702,48.4095003],[-121.39013,48.4072403],[-121.3783699,48.4071303],[-121.3783643,48.4071234],[-121.3783517,48.4071233],[-121.378298,48.407042],[-121.3772797,48.4057902],[-121.3769367,48.4049812],[-121.3756527,48.4030375],[-121.375661,48.4029751],[-121.3756097,48.40259],[-121.3758142,48.4018315],[-121.375832,48.4016988],[-121.3758067,48.401639],[-121.3753997,48.4010601],[-121.3749318,48.3995665],[-121.3748607,48.399398],[-121.3748007,48.3977967],[-121.3746997,48.3976],[-121.3747774,48.3971768],[-121.3747749,48.3971093],[-121.3738835,48.3961185],[-121.3720987,48.3949897],[-121.3720784,48.3949805],[-121.3703936,48.3944709],[-121.37039,48.3944703],[-121.36708,48.3948703],[-121.3670671,48.3948673],[-121.3670663,48.3948674],[-121.3630508,48.3941378],[-121.36299,48.3941303],[-121.36026,48.3940703],[-121.3588841,48.3938511],[-121.3558804,48.3936507],[-121.3559303,48.3940301],[-121.3558824,48.3940849],[-121.3551337,48.3952553],[-121.3551203,48.39531],[-121.3560202,48.3968898],[-121.3573403,48.3979799],[-121.3565006,48.4419741],[-121.3591236,48.4406044],[-121.3620316,48.4406405],[-121.36247,48.4405797],[-121.3653991,48.4406823],[-121.3655996,48.4406848],[-121.3656128,48.4406907],[-121.3676201,48.4414497],[-121.3681201,48.4417897],[-121.3696502,48.4422897],[-121.3699204,48.44262],[-121.3690902,48.4433702],[-121.3684803,48.44451],[-121.3688303,48.4460901],[-121.3665503,48.4484802],[-121.3661203,48.4500902],[-121.3659493,48.4502205],[-121.3644377,48.4515229],[-121.3644102,48.4515602],[-121.3591603,48.4599101],[-121.3587803,48.4615101],[-121.3583503,48.4625601],[-121.3584203,48.4651],[-121.3578503,48.46688],[-121.3578564,48.4668942],[-121.3590031,48.4680989],[-121.3590406,48.4681301],[-121.3590405,48.4681303],[-121.3180397,48.4680303],[-121.3180391,48.4680219],[-121.3180261,48.4680219],[-121.3176221,48.4662882],[-121.3163197,48.4652977],[-121.3161946,48.4652661],[-121.3112724,48.4642272],[-121.3111699,48.4642103],[-121.3088599,48.4633603],[-121.3080399,48.4629103],[-121.3048499,48.4621903],[-121.3039001,48.4618203],[-121.3021802,48.4632402],[-121.3021264,48.4633411],[-121.3015331,48.4650213],[-121.3014903,48.4652002],[-121.3014141,48.4652455],[-121.300347,48.4661412],[-121.3003202,48.4661803],[-121.2992102,48.4665103],[-121.2988602,48.4671102],[-121.2968902,48.4684702],[-121.2968613,48.4685087],[-121.2964178,48.4697076],[-121.2963803,48.4698701],[-121.2956302,48.4707102],[-121.2950227,48.4710092],[-121.2947626,48.4712321],[-121.2942602,48.4716802],[-121.2942423,48.471722],[-121.2941192,48.4725532],[-121.2941203,48.4726201],[-121.2937902,48.4729302],[-121.2928701,48.4735403],[-121.2922404,48.4737202],[-121.2914876,48.4741113],[-121.2914302,48.4741802],[-121.2905901,48.4745903],[-121.2866199,48.4758903],[-121.2866107,48.47588],[-121.2866026,48.4758826],[-121.2814537,48.4700715],[-121.2814196,48.4700739],[-121.2794264,48.4703661],[-121.2792901,48.4704303],[-121.2772201,48.4707003],[-121.2759301,48.4714003],[-121.2719499,48.4712303],[-121.2719325,48.4712216],[-121.2719308,48.4712215],[-121.2710865,48.4708006],[-121.26975,48.4709003],[-121.26779,48.4704903],[-121.26339,48.4706903],[-121.2622299,48.4705303],[-121.2607245,48.4698908],[-121.2606926,48.4698812],[-121.25996,48.4699703],[-121.25693,48.4693303],[-121.2545099,48.4694803],[-121.2545031,48.4694766],[-121.2544951,48.4694771],[-121.2501728,48.4671388],[-121.2491197,48.4665702],[-121.2491197,48.466569],[-121.2491067,48.466562],[-121.2491189,48.4661844],[-121.248396,48.4661789],[-121.2483803,48.4661703],[-121.2483799,48.4661703],[-121.2482269,48.4660862],[-121.2452579,48.4644581],[-121.2458331,48.4626906],[-121.2458816,48.4610457],[-121.2442275,48.45626],[-121.24382,48.4542766],[-121.2439008,48.4515204],[-121.1928104,48.4517803],[-121.1929603,48.45266],[-121.1928503,48.4535201],[-121.1926202,48.4539902],[-121.1920001,48.4544103],[-121.19072,48.4548103],[-121.18797,48.4548703],[-121.1879245,48.4548601],[-121.1857444,48.4546509],[-121.18469,48.4546603],[-121.18307,48.4544003],[-121.18009,48.4546403],[-121.1800793,48.4546379],[-121.1800782,48.454638],[-121.1785917,48.4545777],[-121.17774,48.4546403],[-121.1752901,48.4544503],[-121.1745501,48.4548303],[-121.17243,48.4552103],[-121.1674703,48.4554503],[-121.1674703,48.4570102],[-121.1666201,48.4575603],[-121.1658701,48.4578203],[-121.16456,48.4579703],[-121.1641641,48.4578965],[-121.1635416,48.4579271],[-121.16243,48.4581003],[-121.16068,48.4580703],[-121.1606683,48.4580682],[-121.1606624,48.4580685],[-121.1602686,48.4579963],[-121.1587899,48.4577303],[-121.1566097,48.4568302],[-121.1566097,48.4568229],[-121.156552,48.4567989],[-121.1565555,48.4553403],[-121.1542699,48.4553403],[-121.1542659,48.4553369],[-121.154256,48.4553369],[-121.1521579,48.4535365],[-121.1519122,48.4530957],[-121.1526099,48.4526635],[-121.1516878,48.452077],[-121.1510202,48.4518456],[-121.1491798,48.4512103],[-121.1491766,48.4512067],[-121.1491686,48.451204],[-121.1484182,48.450376],[-121.1462399,48.4495803],[-121.1462252,48.4495702],[-121.1462249,48.4495701],[-121.1434482,48.4476697],[-121.1419999,48.4475903],[-121.1417533,48.4474752],[-121.1397374,48.4465365],[-121.138568,48.4453116],[-121.1382712,48.4442716],[-121.13619,48.4445703],[-121.1348697,48.4443583],[-121.1348199,48.4443505],[-121.1345504,48.4445601],[-121.1347403,48.4448099],[-121.1347603,48.4460299],[-121.1355105,48.4472803],[-121.1262801,48.4477103],[-121.1254201,48.4482403],[-121.1249801,48.4482703],[-121.1221101,48.4492803],[-121.12089,48.4495203],[-121.1196621,48.4495966],[-121.116301,48.4500449],[-121.1162802,48.4500503],[-121.1159803,48.4503401],[-121.1159203,48.4530401],[-121.1150602,48.4547102],[-121.1118701,48.4560603],[-121.1113194,48.4561419],[-121.1096711,48.456778],[-121.1096603,48.4567902],[-121.1091103,48.45814],[-121.1096603,48.4589199],[-121.1095403,48.4597301],[-121.1085003,48.4610401],[-121.1081903,48.4623901],[-121.1078902,48.4628402],[-121.1078168,48.4628779],[-121.1065836,48.4638869],[-121.1063502,48.4641802],[-121.1056801,48.4647103],[-121.1055523,48.4647308],[-121.1054804,48.4647896],[-121.102711,48.465186],[-121.1020601,48.4652903],[-121.1007102,48.4659003],[-121.1000302,48.4665903],[-121.0986201,48.4670003],[-121.0975798,48.4671203],[-121.0975694,48.4670962],[-121.0970254,48.4666231],[-121.0968798,48.4666003],[-121.0967301,48.4663664],[-121.0958833,48.46563],[-121.0942599,48.4652191],[-121.0926699,48.4649403],[-121.0917599,48.4646203],[-121.0916736,48.4645644],[-121.0916049,48.464547],[-121.0874727,48.4622713],[-121.0860301,48.4623103],[-121.0850801,48.4629403],[-121.0850506,48.462932],[-121.0850453,48.4629356],[-121.0829357,48.4625704],[-121.08293,48.4625703],[-121.0827373,48.4626246],[-121.0814707,48.4631411],[-121.0813801,48.4632003],[-121.0802,48.4634203],[-121.0796548,48.4632588],[-121.0787271,48.4630832],[-121.0781999,48.4630603],[-121.0779482,48.4629358],[-121.0741325,48.4622138],[-121.0734392,48.4616723],[-121.0733298,48.4615902],[-121.073325,48.4615831],[-121.0729671,48.4613036],[-121.0715757,48.4607583],[-121.0707656,48.460681],[-121.0691872,48.4606416],[-121.06843,48.4607303],[-121.0675265,48.4605924],[-121.0633182,48.460004],[-121.0622832,48.4594343],[-121.0612302,48.4581976],[-121.0613125,48.457869],[-121.0612797,48.45774],[-121.0613897,48.45712],[-121.0612344,48.4563748],[-121.0603588,48.4544139],[-121.0604064,48.4540563],[-121.0602742,48.4537201],[-121.0594469,48.4529451],[-121.0593098,48.4528903],[-121.0589951,48.4525218],[-121.0588807,48.4524146],[-121.0580395,48.4523168],[-121.057533,48.451891],[-121.0571899,48.4516403],[-121.0566228,48.4516028],[-121.0561327,48.4516806],[-121.0556384,48.450903],[-121.0555899,48.4504473],[-121.0553891,48.4500297],[-121.0546454,48.4499116],[-121.0545224,48.449809],[-121.0542299,48.4497403],[-121.0534098,48.4489803],[-121.0529498,48.4488503],[-121.0528107,48.4486784],[-121.0527071,48.4486481],[-121.0524559,48.4486749],[-121.0517488,48.4490111],[-121.0514819,48.448779],[-121.0514699,48.4487803],[-121.0498699,48.4478403],[-121.0489176,48.4474579],[-121.0484873,48.4473075],[-121.0473401,48.4472557],[-121.046992,48.4474784],[-121.0467302,48.4477403],[-121.0462174,48.447974],[-121.0461518,48.448016],[-121.0461316,48.4480131],[-121.04605,48.4480503],[-121.0447399,48.4478803],[-121.044574,48.4477892],[-121.0444896,48.4477771],[-121.042818,48.4471065],[-121.042734,48.4470335],[-121.0426199,48.4470003],[-121.0412798,48.4458602],[-121.0411856,48.4456894],[-121.0409303,48.4454677],[-121.0404146,48.4443302],[-121.0408507,48.4438137],[-121.0408797,48.4437699],[-121.0408697,48.4430601],[-121.0406697,48.4425501],[-121.0396642,48.4412219],[-121.0394239,48.4409651],[-121.0394318,48.4409149],[-121.0393297,48.4407801],[-121.0393797,48.44037],[-121.0390774,48.439441],[-121.0389281,48.4391394],[-121.0381793,48.4384442],[-121.0383807,48.437941],[-121.0387774,48.4365822],[-121.0387472,48.4359729],[-121.0386697,48.4349401],[-121.0385181,48.4346555],[-121.0372086,48.4331575],[-121.0372214,48.4328943],[-121.0370797,48.4325499],[-121.0372483,48.4323438],[-121.0372492,48.4323253],[-121.0352898,48.4314203],[-121.0348999,48.4311003],[-121.0333137,48.4310423],[-121.0329115,48.4312861],[-121.0324801,48.4315903],[-121.0309701,48.4319103],[-121.0300501,48.4325903],[-121.0299283,48.4326094],[-121.0295536,48.4333725],[-121.0288453,48.4335764],[-121.0262449,48.4336783],[-121.02592,48.4337403],[-121.0250449,48.4337253],[-121.0239243,48.4337692],[-121.0230225,48.4333941],[-121.0227112,48.4330962],[-121.0226298,48.4330502],[-121.0222194,48.4326256],[-121.0220328,48.4324472],[-121.0213899,48.4323303],[-121.021086,48.4321496],[-121.0204042,48.4319416],[-121.01974,48.4320803],[-121.0188433,48.4318933],[-121.0158266,48.4318517],[-121.0152401,48.4318803],[-121.0146801,48.4321903],[-121.0133977,48.4323652],[-121.0122413,48.4327251],[-121.0107269,48.4315122],[-121.010308,48.431515],[-121.0093699,48.4316003],[-121.009253,48.4315221],[-121.0090972,48.4315232],[-121.0087563,48.43119],[-121.0076199,48.4304303],[-121.0048982,48.4304023],[-121.0039859,48.4305376],[-121.0031401,48.4307003],[-121.0024987,48.4310439],[-121.0019881,48.4316382],[-121.0017502,48.4320102],[-120.99976,48.4329903],[-120.9962518,48.4313824],[-120.9952981,48.431292],[-120.9950901,48.4312803],[-120.9945301,48.4316203],[-120.9938445,48.4317693],[-120.9935701,48.4319371],[-120.9929501,48.4323203],[-120.9913801,48.4324803],[-120.99034,48.4328203],[-120.9892601,48.4328203],[-120.9883801,48.4333603],[-120.9874203,48.4335441],[-120.9871433,48.4336019],[-120.987133,48.4335991],[-120.98697,48.4336303],[-120.9863898,48.4335803],[-120.9862187,48.4333134],[-120.9857023,48.4326345],[-120.9851199,48.4324803],[-120.984788,48.4322255],[-120.984541,48.4321491],[-120.98346,48.4321403],[-120.98233,48.4323603],[-120.9805625,48.4321394],[-120.9802607,48.4321457],[-120.9788597,48.4328759],[-120.9788094,48.4328844],[-120.9787801,48.4329003],[-120.9766101,48.4332703],[-120.9761737,48.433437],[-120.9745232,48.4341493],[-120.9742937,48.4341551],[-120.9742801,48.4341603],[-120.9740343,48.4341617],[-120.9732644,48.4341811],[-120.9726061,48.4341695],[-120.9706399,48.4341803],[-120.9699199,48.4338703],[-120.9689738,48.433773],[-120.9687753,48.433774],[-120.96776,48.4339603],[-120.9666282,48.4337848],[-120.9648656,48.4337936],[-120.96481,48.4338003],[-120.9647935,48.433794],[-120.9647072,48.4337944],[-120.9638044,48.4334133],[-120.9623313,48.4328462],[-120.961939,48.4328184],[-120.96082,48.4327803],[-120.9606301,48.4327255],[-120.9574615,48.4325006],[-120.9574299,48.4325003],[-120.9574251,48.432498],[-120.9574183,48.4324975],[-120.9574157,48.4324934],[-120.9571398,48.4323602],[-120.956848,48.4316166],[-120.9568152,48.431566],[-120.9545628,48.4217848],[-120.9557338,48.4157204],[-120.957655,48.4099333],[-120.9575419,48.4093827],[-120.9556032,48.4078547],[-120.9552323,48.4070704],[-120.9558214,48.4058572],[-120.9555838,48.4050432],[-120.9571429,48.4027333],[-120.9571232,48.4019056],[-120.9576981,48.4006435],[-120.957624,48.3990806],[-120.958371,48.3964887],[-120.9582415,48.3948952],[-120.957365,48.3936304],[-120.9570505,48.3921052],[-120.9570442,48.3921017],[-120.9561138,48.3920423],[-120.95607,48.3920503],[-120.95394,48.3919103],[-120.9538729,48.3918924],[-120.9469753,48.3905096],[-120.9367699,48.3895503],[-120.9367561,48.3895449],[-120.9367545,48.3895448],[-120.9362467,48.3893471],[-120.9336799,48.3883503],[-120.93197,48.3883203],[-120.930906,48.3880717],[-120.9270867,48.3876955],[-120.9268501,48.3876803],[-120.9260103,48.3883102],[-120.9258057,48.3894957],[-120.9255369,48.3914511],[-120.925452,48.3915465],[-120.9254203,48.3917302],[-120.9249368,48.3921252],[-120.9247822,48.3922989],[-120.9247498,48.392278],[-120.9246,48.3924003],[-120.9241298,48.3922003],[-120.9232792,48.3913301],[-120.9232467,48.3913091],[-120.9218648,48.3911849],[-120.9198349,48.3910398],[-120.9197983,48.3909991],[-120.9196999,48.3909903],[-120.9187498,48.3900303],[-120.9185281,48.3899433],[-120.9171901,48.3896424],[-120.9159089,48.3885599],[-120.9131299,48.3874403],[-120.9102595,48.3873166],[-120.9099983,48.3873084],[-120.9053331,48.3876953],[-120.9048475,48.3879136],[-120.9045673,48.3881255],[-120.9044102,48.3885102],[-120.9033601,48.3891903],[-120.9030363,48.3892833],[-120.9030206,48.3892952],[-120.8996396,48.3904339],[-120.8985658,48.3909111],[-120.8981672,48.3911746],[-120.8979102,48.3913802],[-120.8977979,48.3916517],[-120.8977916,48.3917921],[-120.8978103,48.3935901],[-120.8975102,48.3941302],[-120.8965138,48.3951543],[-120.8964249,48.3952694],[-120.8963831,48.3954947],[-120.897314,48.3966585],[-120.8977327,48.3986647],[-120.8977026,48.3987757],[-120.8977803,48.39906],[-120.8973603,48.4003702],[-120.8967054,48.4008637],[-120.8961722,48.4014067],[-120.8944059,48.4016443],[-120.8931704,48.4026022],[-120.8930602,48.4027602],[-120.8922001,48.4034003],[-120.8917099,48.4033703],[-120.890887,48.4030336],[-120.8894839,48.4026381],[-120.8894,48.4026203],[-120.889287,48.4026259],[-120.8870752,48.4029451],[-120.8869701,48.4029703],[-120.8855102,48.4035703],[-120.8831701,48.4055303],[-120.88183,48.4059703],[-120.8801,48.4059803],[-120.8746798,48.4074904],[-120.8746738,48.4074783],[-120.8746649,48.4074808],[-120.8655398,48.3891939],[-120.8630251,48.3875872],[-120.8561715,48.3832137],[-120.8547158,48.3695518],[-120.8519675,48.3607377],[-120.84385,48.3590303],[-120.831,48.3575303],[-120.82664,48.3567303],[-120.82179,48.3565603],[-120.821778,48.3565593],[-120.8217766,48.3565593],[-120.8217762,48.3565592],[-120.8211599,48.3565103],[-120.8202999,48.3561903],[-120.8202901,48.3561825],[-120.8202806,48.3561801],[-120.817009,48.3535744],[-120.8163629,48.3524528],[-120.8125415,48.3497612],[-120.8118108,48.3487402],[-120.8115545,48.3474758],[-120.8105697,48.3465986],[-120.8090278,48.3461704],[-120.80736,48.3462203],[-120.8061899,48.3459803],[-120.8061886,48.3459791],[-120.806173,48.3459781],[-120.80601,48.3458315],[-120.8065817,48.3450926],[-120.8061732,48.3439389],[-120.8034402,48.3410282],[-120.8033939,48.3409314],[-120.8029397,48.3402501],[-120.8028739,48.3398456],[-120.8028568,48.3398099],[-120.8007949,48.3387502],[-120.7978317,48.3398383],[-120.7976002,48.3400102],[-120.7972702,48.3405702],[-120.7962329,48.3412281],[-120.7958973,48.3415447],[-120.7950298,48.341942],[-120.7913236,48.3420508],[-120.7910783,48.3420725],[-120.7867203,48.3432565],[-120.7780901,48.3461803],[-120.7779271,48.3461856],[-120.7779074,48.3461924],[-120.7721763,48.346937],[-120.7703,48.3473703],[-120.7688,48.3473803],[-120.7670601,48.3476703],[-120.76486,48.3483203],[-120.7580628,48.3451413],[-120.757106,48.3446964],[-120.7562456,48.3381655],[-120.754343,48.3368539],[-120.7531,48.3360004],[-120.7494101,48.3381003],[-120.7479204,48.3382319],[-120.7454188,48.3385169],[-120.7441401,48.3392103],[-120.7439063,48.3392788],[-120.7385143,48.3418044],[-120.7331079,48.3440843],[-120.7319897,48.3447705],[-120.7319697,48.3278918],[-120.7318865,48.3277435],[-120.7291497,48.3232501],[-120.7291307,48.3228329],[-120.7291152,48.3228051],[-120.7300372,48.3205738],[-120.7300432,48.3177037],[-120.7310787,48.3165376],[-120.72594,48.3153103],[-120.7258333,48.3153103],[-120.7229814,48.3155753],[-120.72291,48.3155903],[-120.72007,48.3154303],[-120.7160601,48.3160203],[-120.7122601,48.3175003],[-120.70072,48.3188903],[-120.6979099,48.3181003],[-120.6939899,48.3166803],[-120.6939798,48.3166726],[-120.6939778,48.316672],[-120.6835608,48.3095884],[-120.6828508,48.3088811],[-120.684756,48.3073177],[-120.6850236,48.3058747],[-120.6850089,48.3056556],[-120.6847997,48.30413],[-120.684869,48.3035668],[-120.6848629,48.3034755],[-120.6855463,48.3011792],[-120.6869614,48.3006113],[-120.6873669,48.2996927],[-120.6883978,48.2986543],[-120.6899144,48.2952297],[-120.6917005,48.2929982],[-120.6916053,48.2915207],[-120.6921052,48.2906038],[-120.6940026,48.2906598],[-120.6950982,48.289683],[-120.6963371,48.2894111],[-120.6966069,48.2888473],[-120.6965822,48.288802],[-120.6961597,48.2882601],[-120.6961597,48.2880263],[-120.6961461,48.2880013],[-120.697486,48.2857877],[-120.6964869,48.2840222],[-120.6966167,48.2831996],[-120.6957869,48.2821662],[-120.6942205,48.2678555],[-120.6945701,48.2666749],[-120.6936827,48.2655957],[-120.6931498,48.2651002],[-120.693,48.2647655],[-120.6929603,48.2647172],[-120.6931764,48.2632097],[-120.6939218,48.262217],[-120.6935208,48.2612462],[-120.6936824,48.2603498],[-120.6936252,48.2602633],[-120.6922997,48.2585401],[-120.6922161,48.2581312],[-120.6921937,48.2580974],[-120.6937278,48.2563464],[-120.6937539,48.2562687],[-120.6939597,48.2550899],[-120.6945715,48.2538286],[-120.6945993,48.2537458],[-120.6945742,48.2536758],[-120.6942897,48.2530801],[-120.6942837,48.2528639],[-120.693594,48.2509365],[-120.6919769,48.2486682],[-120.69122,48.2481751],[-120.6887681,48.2469075],[-120.6869399,48.2464703],[-120.6866389,48.2464373],[-120.682552,48.2460966],[-120.68082,48.2460903],[-120.67812,48.2457303],[-120.6780652,48.2457456],[-120.6772657,48.2461842],[-120.6769202,48.2464903],[-120.6762213,48.2467571],[-120.6749877,48.2474338],[-120.6748502,48.2475202],[-120.6744002,48.2481402],[-120.6734701,48.2485703],[-120.6732509,48.2486042],[-120.6687142,48.250477],[-120.6684701,48.2505903],[-120.6674401,48.2512803],[-120.6652301,48.2522303],[-120.6624101,48.2541903],[-120.6599901,48.2549503],[-120.6575802,48.2566503],[-120.6555801,48.2576703],[-120.6544514,48.2579453],[-120.6539195,48.258168],[-120.65328,48.2584503],[-120.6422698,48.2562603],[-120.6422694,48.2562592],[-120.6422588,48.2562571],[-120.6413348,48.253407],[-120.6411097,48.2527199],[-120.6411115,48.2527182],[-120.6411085,48.2527088],[-120.6413331,48.2525147],[-120.6437707,48.2502757],[-120.6433431,48.2491545],[-120.6434718,48.2487411],[-120.6469305,48.2469091],[-120.6498898,48.2440398],[-120.6509164,48.2433402],[-120.653269,48.2415181],[-120.6533826,48.2413865],[-120.6539805,48.2403142],[-120.6540201,48.2401598],[-120.6542097,48.2386699],[-120.6545993,48.2378999],[-120.6546212,48.2378142],[-120.6550278,48.2373473],[-120.6570298,48.2349098],[-120.6575547,48.2344461],[-120.6576177,48.2343737],[-120.6576605,48.2343618],[-120.6581599,48.2340697],[-120.6587832,48.2340489],[-120.663153,48.2328311],[-120.6632048,48.2327988],[-120.6647502,48.23045],[-120.6649075,48.2257204],[-120.6652522,48.2243775],[-120.666812,48.2236712],[-120.6691237,48.2233582],[-120.6692534,48.2233157],[-120.6712799,48.2225297],[-120.6720277,48.2224061],[-120.6730524,48.2220702],[-120.6746264,48.2169733],[-120.6757274,48.2152184],[-120.6756707,48.2140924],[-120.6769563,48.2135784],[-120.6792555,48.2132694],[-120.6794724,48.213042],[-120.6811698,48.2110497],[-120.6814717,48.210946],[-120.6814786,48.2109388],[-120.6863407,48.2110907],[-120.6890375,48.2107671],[-120.690282,48.2102612],[-120.6919109,48.2105336],[-120.6920565,48.2105575],[-120.6921376,48.2105472],[-120.69478,48.2100597],[-120.6969751,48.2099351],[-120.6970572,48.2099247],[-120.6992849,48.2103067],[-120.6992863,48.2103074],[-120.6993001,48.2103097],[-120.6993274,48.210326],[-120.7011931,48.2111712],[-120.7012159,48.2111784],[-120.7042795,48.2114818],[-120.7069766,48.2126042],[-120.7092801,48.2135597],[-120.709381,48.2136264],[-120.7144756,48.2166943],[-120.7145502,48.2167344],[-120.7146684,48.2167397],[-120.71849,48.2167397],[-120.7199137,48.2169753],[-120.7199262,48.2169759],[-120.719929,48.2169779],[-120.7199401,48.2169797],[-120.7209002,48.2174698],[-120.7217902,48.2182697],[-120.7224302,48.2185197],[-120.7230702,48.2191914],[-120.7237171,48.2196472],[-120.7237901,48.2196897],[-120.7241091,48.2197621],[-120.7251874,48.2199999],[-120.7268192,48.2198657],[-120.7268263,48.21987],[-120.72683,48.2198697],[-120.7273302,48.2200097],[-120.7277494,48.2204289],[-120.728509,48.2208889],[-120.728668,48.2209062],[-120.7307901,48.2209997],[-120.7314743,48.2212117],[-120.7314871,48.2212131],[-120.7314926,48.2212174],[-120.7315001,48.2212197],[-120.7337811,48.2229927],[-120.7338548,48.2230214],[-120.7372801,48.2241697],[-120.7381602,48.2246998],[-120.7388303,48.2259199],[-120.7389603,48.22652],[-120.7386954,48.2276189],[-120.7411921,48.2255522],[-120.7436706,48.224845],[-120.7476505,48.2227141],[-120.7513474,48.2215402],[-120.754894,48.2179744],[-120.7576676,48.215815],[-120.7620672,48.2131967],[-120.7622907,48.2131016],[-120.7659899,48.2113797],[-120.7669217,48.2111306],[-120.7669803,48.2111057],[-120.7669957,48.2111108],[-120.767,48.2111097],[-120.7676801,48.2112097],[-120.7683102,48.2115497],[-120.7684528,48.2116639],[-120.7722778,48.2145414],[-120.7782427,48.2161142],[-120.7782469,48.2161169],[-120.7782601,48.2161197],[-120.7792002,48.2165597],[-120.780581,48.2175829],[-120.7806384,48.2176021],[-120.7822301,48.2180097],[-120.7837994,48.2186559],[-120.7921525,48.2214406],[-120.7922951,48.2214851],[-120.7922828,48.221405],[-120.7919497,48.2203501],[-120.7919124,48.21899],[-120.7918959,48.2188821],[-120.7919264,48.2186086],[-120.7920697,48.2162],[-120.7923699,48.2146373],[-120.7923933,48.2144274],[-120.7946115,48.2098929],[-120.7945232,48.2035307],[-120.7905704,48.2030775],[-120.7839502,48.1993828],[-120.7760645,48.1987481],[-120.7505314,48.2008029],[-120.7479394,48.1977919],[-120.7422999,48.1997694],[-120.7360783,48.1964776],[-120.7255559,48.1968926],[-120.7072738,48.1947076],[-120.7031885,48.1925428],[-120.6822738,48.1905409],[-120.677745,48.1881443],[-120.6687729,48.1884983],[-120.6636745,48.1882989],[-120.6592881,48.1906182],[-120.6550848,48.1904514],[-120.6093573,48.1925428],[-120.6052721,48.1947075],[-120.6010241,48.1967095],[-120.587523,48.2082086],[-120.5820663,48.2074151],[-120.578396,48.2048353],[-120.5737329,48.2032484],[-120.5700627,48.2006686],[-120.5612329,48.1990817],[-120.553396,48.1923353],[-120.5456241,48.1896904],[-120.5429792,48.1819185],[-120.5320661,48.1699149],[-120.5293847,48.1620415],[-120.5260646,48.161008],[-120.5229721,48.1619724],[-120.5070661,48.1449149],[-120.5054792,48.1340018],[-120.5028995,48.1282482],[-120.5013125,48.1110852],[-120.4987328,48.107415],[-120.4971459,48.1027519],[-120.4945661,48.0990816],[-120.4921451,48.0919731],[-120.4867294,48.0881687],[-120.4812728,48.0873752],[-120.4649235,48.0690769],[-120.4572575,48.0655572],[-120.4532048,48.0633599],[-120.4489242,48.0613905],[-120.4407048,48.0550266],[-120.431696,48.052927],[-120.4271062,48.047792],[-120.4214667,48.0497695],[-120.4156886,48.0467096],[-120.3989405,48.0447076],[-120.3927679,48.0404596],[-120.3828599,48.0408502],[-120.3781886,48.0383762],[-120.3656072,48.0363743],[-120.3615219,48.0342096],[-120.3489406,48.0322076],[-120.3448553,48.0300429],[-120.3364406,48.0280409],[-120.3323553,48.0258762],[-120.3239406,48.0238743],[-120.3198553,48.0217096],[-120.3114406,48.0197076],[-120.3073553,48.0175429],[-120.2947739,48.015541],[-120.2872748,48.0115696],[-120.2761059,48.0111302],[-120.2781076,48.0155405],[-120.2813753,48.0217096],[-120.2813752,48.0217097],[-120.2669866,48.0186822],[-120.2573512,48.0112929],[-120.2512314,48.011533],[-120.24892,48.0071666],[-120.2518862,48.0015598],[-120.2406073,47.9988743],[-120.236522,47.9967096],[-120.2281072,47.9947076],[-120.2198553,47.9883762],[-120.2117579,47.9845554],[-120.2072738,47.9780408],[-120.2052718,47.9737928],[-120.2010115,47.9657483],[-120.2013371,47.9575696],[-120.1984766,47.9521619],[-120.1990259,47.9383802],[-120.1760238,47.9134575],[-120.1732813,47.9019341],[-120.1611843,47.8936131],[-120.1366277,47.8867649],[-120.1333929,47.8799168],[-120.111282,47.8807917],[-120.0968574,47.878041],[-120.0886054,47.8758763],[-120.0757636,47.8738337],[-120.0244859,47.8554254],[-120.0114078,47.844679],[-120.0157331,47.8383884],[-120.0044867,47.8357111],[-119.9906072,47.8197076],[-119.9886052,47.8154595],[-119.9864405,47.8113742],[-119.9843084,47.8068536],[-119.9812728,47.8040418],[-119.9826767,47.7963511],[-120.0009874,47.7800058],[-120.038642,47.7780771],[-120.0426541,47.7758391],[-120.051142,47.7739104],[-120.0551541,47.7716725],[-120.0678087,47.7697438],[-120.0752753,47.7655771],[-120.0990588,47.7675058],[-120.1030709,47.7697438],[-120.1115589,47.7716725],[-120.1155709,47.7739104],[-120.1198922,47.7758392],[-120.1273588,47.7800058],[-120.138642,47.7780771],[-120.142654,47.7758391],[-120.151142,47.7739104],[-120.155154,47.7716725],[-120.1655625,47.7693084],[-120.1739038,47.7621227],[-120.1719751,47.7570896],[-120.1678084,47.7496228],[-120.1699528,47.7393891],[-120.1898666,47.6946178],[-120.1969751,47.6884939],[-120.1989038,47.6820893],[-120.2011418,47.6780773],[-120.2043238,47.6709443],[-120.2166895,47.6602916],[-120.2220321,47.6531342],[-120.2238469,47.648699],[-120.2261987,47.6448009],[-120.2280135,47.6403657],[-120.234532,47.632301],[-120.2363468,47.5986991],[-120.2386987,47.594801],[-120.2405135,47.5861991],[-120.2511987,47.5739676],[-120.2541895,47.5666637],[-120.2675969,47.5549489],[-120.2720322,47.5531342],[-120.2759303,47.5507823],[-120.283283,47.5477753],[-120.2928654,47.5364676],[-120.2946802,47.5320324],[-120.3011987,47.5239677],[-120.3030135,47.5111991],[-120.3053654,47.507301],[-120.3071801,47.4945325],[-120.309532,47.4906343],[-120.3113468,47.4820325],[-120.3139794,47.4776705],[-120.3133121,47.4731783],[-120.3178654,47.4656344],[-120.3187727,47.4582085],[-120.317788,47.4529433],[-120.3155908,47.4488906],[-120.3136214,47.44461],[-120.3114241,47.4405573],[-120.3094547,47.4362767],[-120.3030908,47.4280573],[-120.3011214,47.4237767],[-120.2989241,47.419724],[-120.2969547,47.4154434],[-120.2947575,47.4113906],[-120.2921248,47.4000829],[-120.2823715,47.3925269],[-120.2739243,47.3905575],[-120.2698716,47.3883602],[-120.2572576,47.3863908],[-120.2511135,47.3821021],[-120.2376695,47.3829037],[-120.2314032,47.3794979],[-120.2052314,47.3779395],[-120.1955919,47.3785132],[-120.190705,47.3758602],[-120.1739244,47.3738908],[-120.1698716,47.3716935],[-120.1614243,47.3697241],[-120.1492132,47.3560604],[-120.1426743,47.3530575],[-120.1318996,47.3442196],[-120.1122015,47.3351782],[-120.0989487,47.3267513],[-120.0844548,47.3138036],[-120.0864242,47.2987765],[-120.0905908,47.2911065],[-120.0886215,47.2716934],[-120.0875227,47.2707087],[-120.0947941,47.257704],[-120.0927515,47.2488134],[-120.0906275,47.2446874],[-120.0866562,47.2365047],[-120.0781683,47.2300635],[-120.073961,47.2280209],[-120.0698351,47.2258969],[-120.0032089,47.22372],[-120.0024724,47.1875827],[-120.0052515,47.1821872],[-120.0072942,47.1738132],[-120.0114608,47.1657241],[-120.0094182,47.1613134],[-120.0072942,47.1571874],[-120.0052515,47.1488134],[-120.0010849,47.1407242],[-120.0031275,47.1279798],[-120.0219182,47.1071872],[-120.0239609,47.1029798],[-120.0271063,47.0977918],[-120.0302272,47.096213],[-120.0319727,47.0901584],[-120.0347396,47.0866753],[-120.0361394,47.0667049],[-120.0278061,47.057509],[-120.0264063,47.0526587],[-120.0194727,47.045009],[-120.018073,47.0401587],[-120.0111394,47.032509],[-120.0097397,47.0276587],[-120.0069727,47.0241756],[-120.005573,47.0151587],[-120.0028061,47.0116756],[-120.0014063,47.0068254],[-119.9986394,47.0033423],[-119.9972397,46.998492],[-119.9944728,46.995009],[-119.993073,46.9901587],[-119.9903061,46.9866756],[-119.9889063,46.9818254],[-119.9861394,46.9783423],[-119.9847397,46.9734921],[-119.9819727,46.970009],[-119.9812728,46.9644586],[-119.9834743,46.9624932],[-119.9864244,46.9591931],[-119.996955,46.9572237],[-120.0051744,46.9508598],[-120.0802883,46.9488904],[-120.0875231,46.9449597],[-120.0958565,46.9494885],[-120.1010077,46.9466931],[-120.1177883,46.9447237],[-120.121841,46.9425265],[-120.1295601,46.940557],[-120.1411365,46.9486462],[-120.1778592,46.9464571],[-120.2047269,46.9490491],[-120.2104397,46.9487073],[-120.2221138,46.9494031],[-120.2431995,46.9531507],[-120.2468778,46.9572684],[-120.2510076,46.9550265],[-120.2594549,46.9530571],[-120.2646064,46.9502616],[-120.2697578,46.9530571],[-120.2948718,46.9550265],[-120.2989245,46.9572237],[-120.3073718,46.9591931],[-120.3114245,46.9613904],[-120.3282051,46.9633598],[-120.3364245,46.9697237],[-120.3490384,46.9716931],[-120.356273,46.9756237],[-120.3635076,46.9716931],[-120.4011215,46.9697237],[-120.4051743,46.9675265],[-120.4177882,46.9655571],[-120.425023,46.9616263],[-120.4335475,46.9662609],[-120.4426742,46.9591932],[-120.4469548,46.9572237],[-120.4510075,46.9550265],[-120.4552881,46.9530571],[-120.4635075,46.9466932],[-120.4677881,46.9447238],[-120.4718409,46.9425265],[-120.4802882,46.9405571],[-120.4843409,46.9383598],[-120.4886214,46.9363904],[-120.4968408,46.9300265],[-120.5011215,46.9280571],[-120.5104393,46.9227919],[-120.5099104,46.9149878],[-120.4979596,46.9030045],[-120.501577,46.8993463],[-120.502106,46.8957088],[-120.4963403,46.8885069],[-120.4784854,46.8859068],[-120.4777692,46.8801772],[-120.4849347,46.87444],[-120.4822004,46.8697811],[-120.4801008,46.8553648],[-120.4672673,46.8525897],[-120.4571027,46.8405045],[-120.4637596,46.8321833],[-120.4613671,46.8281145],[-120.4584456,46.8178973],[-120.4497868,46.8142474],[-120.4435243,46.8056736],[-120.4590966,46.8023044],[-120.459536,46.7987484],[-120.4515444,46.7887549],[-120.4566388,46.7800838],[-120.4517398,46.7717505],[-120.455345,46.7656143],[-120.4572005,46.7612197],[-120.4646466,46.751906],[-120.4574284,46.7466368],[-120.4491804,46.7431618],[-120.4488427,46.7404272],[-120.4511783,46.7364476],[-120.4535465,46.7255101],[-120.4676172,46.713303],[-120.4720118,46.7114475],[-120.4759506,46.7091363],[-120.4835921,46.7059136],[-120.490253,46.6967952],[-120.4883365,46.681394],[-120.4914168,46.6706232],[-120.4967839,46.6674696],[-120.5041121,46.6643813],[-120.5072004,46.6570531],[-120.523867,46.6385596],[-120.5211165,46.6350849],[-120.5187725,46.6332089],[-120.5214624,46.6300876],[-120.5303085,46.6280775],[-120.5372258,46.6242201],[-120.5604396,46.6260837],[-120.5654446,46.6256809],[-120.5697374,46.6280775],[-120.5782254,46.6300063],[-120.5864041,46.6364109],[-120.594892,46.6383396],[-120.598904,46.6405775],[-120.6137478,46.6428399],[-120.6553088,46.6862564],[-120.6577461,46.7022475],[-120.669892,46.7050062],[-120.6739041,46.7072442],[-120.6782254,46.7091729],[-120.6905707,46.7197442],[-120.694892,46.7216729],[-120.698904,46.7239108],[-120.707392,46.7258395],[-120.711404,46.7280775],[-120.7157253,46.7300062],[-120.723904,46.7364108],[-120.7407253,46.7383395],[-120.7447373,46.7405775],[-120.7532253,46.7425062],[-120.7633571,46.7504407],[-120.7843204,46.7487562],[-120.7854396,46.7477917],[-120.7863837,46.7489312],[-120.8157456,46.7508192],[-120.8238837,46.7572645],[-120.8296984,46.7597833],[-120.8337755,46.7691827],[-120.8449123,46.7716525],[-120.8488836,46.7739312],[-120.8532456,46.7758192],[-120.857217,46.7780978],[-120.861579,46.7799859],[-120.8780503,46.7947645],[-120.8824123,46.7966525],[-120.8863836,46.7989311],[-120.9074122,46.8008192],[-120.9113836,46.8030978],[-120.9157456,46.8049859],[-120.924726,46.8120945],[-120.9293118,46.8226698],[-120.9380316,46.8264499],[-120.9405504,46.8322646],[-120.9511624,46.8445693],[-120.9530504,46.853098],[-120.955329,46.8570693],[-120.9572171,46.8614313],[-120.9621568,46.8682915],[-120.9699122,46.8716525],[-120.9738836,46.8739311],[-120.9796983,46.8764499],[-120.982217,46.8822646],[-120.9877712,46.8899793],[-120.9990789,46.8924858],[-121.0072169,46.8989311],[-121.0115789,46.9008191],[-121.0155502,46.9030978],[-121.0199122,46.9049858],[-121.0238835,46.9072644],[-121.0324122,46.9091525],[-121.0405503,46.9155978],[-121.0449122,46.9174858],[-121.0519519,46.9225519],[-121.0488227,46.9280126],[-121.0538234,46.9349582],[-121.0615789,46.9383191],[-121.0662868,46.9410169],[-121.069717,46.9489312],[-121.0832016,46.9642143],[-121.0921983,46.9681165],[-121.094717,46.9739312],[-121.0970486,46.9780004],[-121.0928901,46.9852635],[-121.0979396,46.9894585],[-121.1023544,46.9945813],[-121.1115585,46.9966728],[-121.1155705,46.9989107],[-121.1198919,47.0008395],[-121.1489039,47.0280774],[-121.1573918,47.0300061],[-121.1655705,47.0364107],[-121.1698918,47.0383394],[-121.1739039,47.0405774],[-121.1782252,47.0425061],[-121.1845483,47.0469901],[-121.1942977,47.0462048],[-121.2030705,47.0530774],[-121.2073918,47.0550061],[-121.2147285,47.0602106],[-121.1965033,47.0803605],[-121.1979478,47.0983495],[-121.1947373,47.1070898],[-121.1908799,47.1240657],[-121.1854478,47.1388605],[-121.188642,47.1445896],[-121.1905707,47.1530775],[-121.1978584,47.1623835],[-121.1822373,47.1758399],[-121.172028,47.187689],[-121.1657249,47.1841733],[-121.1562361,47.1822446],[-121.1479396,47.1852922],[-121.144253,47.1900652],[-121.1384302,47.1924496],[-121.1345321,47.1948015],[-121.1259302,47.1966163],[-121.1147244,47.2061173],[-121.1159003,47.2140881],[-121.1241155,47.2174491],[-121.1280135,47.2198009],[-121.1491154,47.2216157],[-121.1530136,47.2239676],[-121.1574488,47.2257824],[-121.1631251,47.2292085],[-121.168545,47.2362275],[-121.1782821,47.2382824],[-121.1821802,47.2406343],[-121.1866155,47.2424491],[-121.201439,47.2556735],[-121.2007066,47.2606377],[-121.2083559,47.2665414],[-121.209902,47.2614106],[-121.2250797,47.2634777],[-121.2516015,47.2695039],[-121.2657251,47.273756],[-121.2705225,47.2764334],[-121.2882308,47.2817638],[-121.2979393,47.2894582],[-121.3072002,47.2820527],[-121.332831,47.2747285],[-121.3530336,47.2653861],[-121.3636781,47.2614473],[-121.3676169,47.259136],[-121.3803448,47.2572806],[-121.3842836,47.2549694],[-121.4011781,47.2531139],[-121.4092835,47.2466361],[-121.4136781,47.2447806],[-121.4217835,47.2383027],[-121.4261781,47.2364473],[-121.4301169,47.2341361],[-121.4374451,47.2310477],[-121.4405334,47.2237195],[-121.4458558,47.2165417],[-121.4635845,47.2155203],[-121.4687726,47.212847],[-121.4750226,47.2160696],[-121.4802105,47.2133963],[-121.4927512,47.2113537],[-121.4968772,47.2092296],[-121.5376731,47.207126],[-121.5427309,47.2072318],[-121.5468976,47.2071463],[-121.5633649,47.20748],[-121.578107,47.2186657],[-121.590668,47.2217297],[-121.5947939,47.2238537],[-121.6115013,47.2258963],[-121.6156273,47.2280203],[-121.6177309,47.2279796],[-121.6417422,47.2284679],[-121.6489606,47.232187],[-121.6637879,47.2342296],[-121.671877,47.230063],[-121.6796205,47.2275483],[-121.6864606,47.232187],[-121.7156679,47.2342296],[-121.724156,47.240671],[-121.7294864,47.2516613],[-121.7365013,47.255063],[-121.7406273,47.257187],[-121.7448346,47.2592297],[-121.7489606,47.2613537],[-121.7615013,47.2633963],[-121.7739606,47.2738537],[-121.7823346,47.2758963],[-121.7907371,47.2822724],[-121.7969179,47.2821463],[-121.8072939,47.2905203],[-121.8115013,47.292563],[-121.8156272,47.294687],[-121.8281679,47.2967296],[-121.8322939,47.2988537],[-121.8365013,47.3008963],[-121.8406272,47.3030203],[-121.8448346,47.305063],[-121.8531273,47.3113537],[-121.8573346,47.3133963],[-121.8614605,47.3155203],[-121.8865012,47.3175629],[-121.8906272,47.319687],[-121.8990012,47.3217296],[-121.9041891,47.3244029],[-121.9104391,47.3211802],[-121.9187724,47.325473],[-121.9260436,47.3217296],[-121.9409158,47.3193086],[-121.9447935,47.3113131],[-121.9554259,47.2986462],[-121.9635843,47.294687],[-121.9677102,47.292563],[-121.9719176,47.2905203],[-121.9867696,47.2780528],[-121.9958557,47.2827362],[-122.0046163,47.2782196],[-122.0159484,47.2859018],[-122.0203387,47.2768526],[-122.0251567,47.2738536],[-122.0344381,47.2801443],[-122.0445944,47.2799409],[-122.0491191,47.2822683],[-122.0552511,47.2821463],[-122.0614605,47.2863536],[-122.0804544,47.2883963],[-122.0885436,47.2842296],[-122.1010843,47.282187],[-122.1052102,47.280063],[-122.1296448,47.2780203],[-122.1406271,47.2863537],[-122.1531678,47.2883963],[-122.1572937,47.2905203],[-122.1656678,47.292563],[-122.1791891,47.3040416],[-122.1823712,47.3050264],[-122.1843407,47.3158869],[-122.180174,47.3196101],[-122.1782046,47.3343074],[-122.1760073,47.3362768],[-122.1740379,47.3468074],[-122.1718406,47.3487768],[-122.1698712,47.3509741],[-122.167674,47.3529434],[-122.1657046,47.3613907],[-122.1635072,47.3633601],[-122.1615378,47.3655574],[-122.1593406,47.3675268],[-122.1573711,47.3697241],[-122.1530905,47.3716935],[-122.1511211,47.3738908],[-122.1405906,47.3800268],[-122.1386212,47.3822241],[-122.1308171,47.3871881],[-122.1344545,47.390443],[-122.1364239,47.3926403],[-122.1386212,47.3946097],[-122.1405906,47.396807],[-122.1427878,47.3987764],[-122.1460104,47.4023815],[-122.1737123,47.4088268],[-122.1761699,47.4115733],[-122.1927877,47.415443],[-122.2179871,47.4268687],[-122.2282044,47.4300263],[-122.246926,47.4382661],[-122.2479393,47.4415418],[-122.2468121,47.4529921],[-122.2479393,47.466542],[-122.2344748,47.4780777],[-122.2274436,47.4824804],[-122.2202007,47.4908869],[-122.214606,47.4957086],[-122.2156069,47.5030407],[-122.2261376,47.5155002],[-122.2031069,47.5404596],[-122.2011049,47.5530409],[-122.1989402,47.5571262],[-122.1967918,47.5639133],[-122.1971865,47.5738256],[-122.18644,47.5758764],[-122.1771871,47.5791235],[-122.16144,47.5821264],[-122.1552633,47.5842911],[-122.1442198,47.5838557],[-122.1393817,47.5786352],[-122.1049175,47.5739274],[-122.100881,47.5782812],[-122.0927307,47.5779598],[-122.086623,47.5781998],[-122.0698546,47.5633764],[-122.0598692,47.5610001],[-122.040749,47.5403622],[-122.0344382,47.5447078],[-122.0293518,47.5467098],[-122.0136046,47.5383764],[-121.9989399,47.5363745],[-121.9948546,47.5342098],[-121.9798117,47.5322078],[-121.9719382,47.5363745],[-121.9643534,47.5383765],[-121.9552713,47.5321264],[-121.9434753,47.5275325],[-121.9281066,47.5238745],[-121.9132344,47.5109757],[-121.8968974,47.5116227],[-121.8854391,47.511167],[-121.8635641,47.5120337],[-121.8406514,47.5111263],[-121.821938,47.5029598],[-121.8136985,47.5009579],[-121.7896062,47.5269585],[-121.7919293,47.5296559],[-121.8136293,47.5279103],[-121.8239036,47.5364105],[-121.8282249,47.5383392],[-121.8322369,47.5405772],[-121.8365583,47.5425059],[-121.8489036,47.5530772],[-121.8532249,47.5550059],[-121.8583558,47.5578663],[-121.8646058,47.5543833],[-121.8697369,47.5572438],[-121.8782248,47.5591726],[-121.8822369,47.5614105],[-121.8865582,47.5633392],[-121.8911685,47.5659109],[-121.8960228,47.5767914],[-121.9032249,47.5800059],[-121.9114036,47.5864105],[-121.9157249,47.5883392],[-121.9197372,47.5912894],[-121.9155582,47.5987766],[-121.9157616,47.6013032],[-121.9254987,47.6056488],[-121.9280704,47.6114106],[-121.9315128,47.6175835],[-121.9280216,47.6238456],[-121.9345361,47.6321668],[-121.9280704,47.6404229],[-121.9261417,47.6489109],[-121.9226994,47.6550834],[-121.9273462,47.6634168],[-121.9238915,47.6696099],[-121.9241682,47.6730235],[-121.9365582,47.6758392],[-121.9489036,47.6864105],[-121.9532248,47.6883392],[-121.9604391,47.6923634],[-121.9676533,47.6883392],[-121.975763,47.6864104],[-121.9870913,47.6952851],[-121.9905703,47.7030772],[-121.9975611,47.7061982],[-121.9946842,47.7113497],[-122.0053083,47.723756],[-122.0072371,47.7283705],[-121.9960228,47.7333755],[-121.9928083,47.7405775],[-121.9905704,47.7445895],[-121.9880598,47.7556451],[-121.9801535,47.759173],[-121.9761415,47.761411],[-121.9718202,47.7633397],[-121.9678082,47.7655777],[-121.9631655,47.7676488],[-121.9594751,47.7717135],[-121.9747052,47.7890757],[-121.9823915,47.7925058],[-121.9864035,47.7947438],[-121.9961774,47.7969655],[-121.9989037,47.8030772],[-122.0122052,47.8182423],[-122.0198915,47.8216725],[-122.0208559,47.8227915],[-122.0282818,47.8257822],[-122.0322327,47.8281666],[-122.0343974,47.8278451],[-122.039024,47.8285287],[-122.0488466,47.8364674],[-122.057538,47.8388884],[-122.0655579,47.8448332],[-122.0678244,47.8444996],[-122.0780132,47.8531341],[-122.0854436,47.8561737],[-122.0779036,47.8655],[-122.0845319,47.873699],[-122.0863467,47.8906341],[-122.0937724,47.8936247],[-122.0969382,47.8946257],[-122.0989402,47.8967905],[-122.1031883,47.8987925],[-122.1051903,47.9072072],[-122.1073549,47.9092091],[-122.1093569,47.9134572],[-122.1115216,47.9154591],[-122.1135235,47.9176238],[-122.1156883,47.9196258],[-122.1176902,47.9238739],[-122.119855,47.9258758],[-122.1218569,47.9342905],[-122.1240216,47.9362924],[-122.1260235,47.9384571],[-122.1302716,47.9404591],[-122.1322736,47.9666761],[-122.1260236,47.9696262],[-122.1240216,47.9801242],[-122.1218569,47.9821261],[-122.119855,47.9884575],[-122.1176902,47.9904595],[-122.1156882,47.9926242],[-122.1135235,47.9946262],[-122.1115216,47.9967909],[-122.1093569,47.9987928],[-122.1073549,48.0009575],[-122.1051902,48.0029595],[-122.1031882,48.0051242],[-122.0989402,48.0071262],[-122.0969385,48.0104258],[-122.1031883,48.0133757],[-122.1051903,48.0259572],[-122.107355,48.0279591],[-122.1093569,48.0384572],[-122.1115216,48.0404591],[-122.1135236,48.0467905],[-122.1156882,48.0487924],[-122.1181906,48.0514982],[-122.1573549,48.0696257],[-122.1593569,48.0738738],[-122.1615216,48.0758757],[-122.1635235,48.0780404],[-122.1656882,48.0800424],[-122.1676902,48.0822071],[-122.1698549,48.084209],[-122.1718568,48.0863738],[-122.1740216,48.0883757],[-122.1760235,48.0905404],[-122.1781882,48.0925424],[-122.1801902,48.0947071],[-122.1823549,48.096709],[-122.1843568,48.0988737],[-122.1886049,48.1008757],[-122.1906069,48.1051238],[-122.1927715,48.1071257],[-122.1947735,48.1092904],[-122.1969382,48.1112924],[-122.1989402,48.1134571],[-122.2011049,48.115459],[-122.2031068,48.1176237],[-122.2052716,48.1196257],[-122.2072735,48.1238738],[-122.2094383,48.1258757],[-122.2114402,48.1322071],[-122.2156883,48.134209],[-122.2176902,48.1447071],[-122.2198549,48.1467091],[-122.2218569,48.1678479],[-122.2176902,48.1717094],[-122.2156884,48.1788501],[-122.2469381,48.1862923],[-122.2489401,48.188457],[-122.2595113,48.1918017],[-122.2967915,48.1947802],[-122.3384216,48.2042488],[-122.3437723,48.2061246],[-122.3493225,48.2068245],[-122.3548889,48.2095914],[-122.3639058,48.2109911],[-122.3685365,48.213293],[-122.3683193,48.2146089],[-122.3712242,48.2197048],[-122.3762632,48.2241677],[-122.3795746,48.2253473],[-122.380471,48.2277883],[-122.3780133,48.232195],[-122.3803081,48.2341724],[-122.3822369,48.2405771],[-122.3867128,48.2527679],[-122.3905702,48.2655771],[-122.3916864,48.2675768],[-122.3916062,48.2677902],[-122.3872673,48.2704512],[-122.3871073,48.2737011],[-122.3675915,48.2917239],[-122.369995,48.2931097],[-122.374756,48.2916267],[-122.3781064,48.2926658],[-122.3769972,48.2956282],[-122.3734662,48.2969822],[-122.372948,48.2976635],[-122.3717405,48.2992508],[-122.376267,48.3005817],[-122.3843734,48.3008997],[-122.3834904,48.3045238],[-122.3884583,48.3065278],[-122.3882433,48.3098699],[-122.3931071,48.3135147],[-122.3986664,48.3157758],[-122.3975484,48.3185509],[-122.4049932,48.3233418],[-122.4087181,48.3264127],[-122.4146681,48.3277017],[-122.4186961,48.3288867],[-122.4226742,48.3312838],[-122.4241022,48.3343457],[-122.4325728,48.3356772],[-122.4325728,48.3356774],[-122.4194724,48.3422416]],[[-121.1883629,48.2518448],[-121.1873396,48.2512855],[-121.1865296,48.2506283],[-121.1865245,48.2530353],[-121.186696,48.2530407],[-121.1882366,48.2525286],[-121.1885199,48.2523697],[-121.1888262,48.2523327],[-121.1892954,48.2521767],[-121.1883629,48.2518448]],[[-121.1872618,48.2420577],[-121.1865478,48.2420654],[-121.1865404,48.2455748],[-121.1873402,48.2449259],[-121.1883635,48.2443667],[-121.1893998,48.2439978],[-121.1872618,48.2420577]],[[-121.2114402,48.2572075],[-121.2073549,48.2550428],[-121.2031069,48.2530408],[-121.1990216,48.2508761],[-121.197926,48.2503598],[-121.1977299,48.250604],[-121.1968901,48.2512855],[-121.1958668,48.2518448],[-121.1946993,48.2522604],[-121.194344,48.2523321],[-121.1947253,48.252652],[-121.2007759,48.2567182],[-121.2013001,48.2570597],[-121.2020701,48.2571097],[-121.2035495,48.2577855],[-121.2039975,48.2579292],[-121.2057401,48.2583797],[-121.2062381,48.2586479],[-121.2062479,48.258651],[-121.2111071,48.2590407],[-121.2112045,48.2590612],[-121.2125901,48.2592497],[-121.2162504,48.2601141],[-121.2161605,48.2595056],[-121.2162904,48.2586283],[-121.2165661,48.2580232],[-121.2114402,48.2572075]]]}
}
