{
  "type": "Feature",
  "properties": {
    "id": "columbia-basin",
    "name": "Columbia Basin",
    "boundaryVersion": "mountain-led-v1",
    "derivation": "Selected GMBA broad basic ranges, plus retained historical footprint/approach neighborhoods where present, clipped to the existing complete statewide start footprint; remaining locations allocated by EPA ecoregions and the documented shoreline/state-edge repair. No mountain, elevation or terrain threshold determines eligibility.",
    "sources": {
      "gmba": {
        "authority": "Global Mountain Biodiversity Assessment (GMBA) / EarthEnv",
        "dataset": "GMBA Mountain Inventory v2.0, broad extent, basic non-overlapping ranges",
        "url": "https://data.earthenv.org/mountains/broad/GMBA_Inventory_v2.0_broad_basic.zip",
        "sha256": "sha256:638bae59339fb45ffe190079aa2fabdcd1d05fd00353863e9509bd7b16004ae0",
        "byteLength": 42672594,
        "reviewedAt": "2026-09-29T16:56:01Z",
        "coordinateReferenceSystem": "WGS84 (EPSG:4326)",
        "license": "Creative Commons Attribution 4.0 International",
        "datasetCitation": "Snethlage et al. (2022), GMBA Mountain Inventory v2, https://doi.org/10.48601/earthenv-t9k2-1407",
        "publicationCitation": "Snethlage et al. (2022), A hierarchical inventory of the world’s mountains for global comparative mountain science, Scientific Data, https://doi.org/10.1038/s41597-022-01256-y",
        "limitation": "Broad extent includes surrounding landscape and support polygons. Used to organize eligible starts, not to classify every included location as mountainous."
      },
      "epa": {
        "authority": "U.S. Environmental Protection Agency",
        "dataset": "Washington Level III Ecoregions",
        "url": "https://dmap-prod-oms-edc.s3.us-east-1.amazonaws.com/ORD/Ecoregions/wa/wa_eco_l3.zip",
        "metadataUrl": "https://dmap-prod-oms-edc.s3.us-east-1.amazonaws.com/ORD/Ecoregions/wa/wa_eco_l3.htm",
        "sha256": "sha256:e665f5a691b006feaf0c2d0ec8394c4e6d03de127267a21e054ae5bec4e6dae3",
        "byteLength": 1175130,
        "metadataDate": "2012-05-08",
        "reviewedAt": "2026-09-29T16:56:01Z",
        "license": "U.S. federal government public domain",
        "derivation": "Source NAD83 Albers Equal Area polygons transformed to WGS84 EPSG:4326 with pyshp 3.1.6 and pyproj 3.8.0; used only to allocate residual statewide coverage after the selected GMBA ranges and historical footprints."
      }
    },
    "statewideCoverage": {
      "path": "data/fixtures/coverage/washington-start-coverage.geojson",
      "sha256": "sha256:6f5274416c8dcf9bf05d2daff212a7344cdd4a73ffb461fec16d6a00084e4f3d",
      "properties": {
        "name": "Washington eligible-start coverage obligation",
        "basis": "Union of all twelve Washington effective start footprints at 8e95bc3, including the pinned Census 2025 statewide county inventory and retained historical footprints and approach neighborhoods. Used only as a gap-regression baseline; county assignments are superseded.",
        "sourceCommit": "8e95bc3",
        "license": "U.S. Census Bureau public domain; retained OpenStreetMap-derived boundaries ODbL 1.0; USDA Forest Service public domain. Original attribution retained in Git history."
      }
    },
    "gmbaSelection": [
      {
        "id": "16217",
        "name": "Badger Mountain",
        "path": "North America > American Cordillera (North America) > Intermountain West > Columbia Plateau > North Columbia Plateau > Central Washington State > Badger Mountain",
        "pathIds": "12159 > 12218 > 12543 > 12544 > 16215 > 16216 > 16217"
      },
      {
        "id": "16218",
        "name": "Beezeley Hills",
        "path": "North America > American Cordillera (North America) > Intermountain West > Columbia Plateau > North Columbia Plateau > Central Washington State > Beezeley Hills",
        "pathIds": "12159 > 12218 > 12543 > 12544 > 16215 > 16216 > 16218"
      },
      {
        "id": "16219",
        "name": "Douglas County Plateau",
        "path": "North America > American Cordillera (North America) > Intermountain West > Columbia Plateau > North Columbia Plateau > Central Washington State > Douglas County Plateau",
        "pathIds": "12159 > 12218 > 12543 > 12544 > 16215 > 16216 > 16219"
      },
      {
        "id": "16220",
        "name": "East Yakima Ridges",
        "path": "North America > American Cordillera (North America) > Intermountain West > Columbia Plateau > North Columbia Plateau > Central Washington State > East Yakima Ridges",
        "pathIds": "12159 > 12218 > 12543 > 12544 > 16215 > 16216 > 16220"
      },
      {
        "id": "16221",
        "name": "Frenchman Hills",
        "path": "North America > American Cordillera (North America) > Intermountain West > Columbia Plateau > North Columbia Plateau > Central Washington State > Frenchman Hills",
        "pathIds": "12159 > 12218 > 12543 > 12544 > 16215 > 16216 > 16221"
      },
      {
        "id": "16222",
        "name": "Rattlesnake Hills",
        "path": "North America > American Cordillera (North America) > Intermountain West > Columbia Plateau > North Columbia Plateau > Central Washington State > Rattlesnake Hills (Columbia Plateau)",
        "pathIds": "12159 > 12218 > 12543 > 12544 > 16215 > 16216 > 16222"
      },
      {
        "id": "16223",
        "name": "Saddle Mountains",
        "path": "North America > American Cordillera (North America) > Intermountain West > Columbia Plateau > North Columbia Plateau > Central Washington State > Saddle Mountains",
        "pathIds": "12159 > 12218 > 12543 > 12544 > 16215 > 16216 > 16223"
      },
      {
        "id": "16225",
        "name": "Columbia Hills",
        "path": "North America > American Cordillera (North America) > Intermountain West > Columbia Plateau > North Columbia Plateau > Columbia-Yakima Hills > Columbia Hills",
        "pathIds": "12159 > 12218 > 12543 > 12544 > 16215 > 16224 > 16225"
      },
      {
        "id": "16226",
        "name": "Horse Heaven Hills",
        "path": "North America > American Cordillera (North America) > Intermountain West > Columbia Plateau > North Columbia Plateau > Columbia-Yakima Hills > Horse Heaven Hills",
        "pathIds": "12159 > 12218 > 12543 > 12544 > 16215 > 16224 > 16226"
      },
      {
        "id": "16227",
        "name": "Simcoe Mountains",
        "path": "North America > American Cordillera (North America) > Intermountain West > Columbia Plateau > North Columbia Plateau > Columbia-Yakima Hills > Simcoe Mountains",
        "pathIds": "12159 > 12218 > 12543 > 12544 > 16215 > 16224 > 16227"
      }
    ],
    "epaResiduals": [
      "EPA Columbia Plateau residual"
    ],
    "edgeRepair": {
      "parts": 32,
      "areaSquareDegrees": 1.564866931873443e-05,
      "method": "For each connected remaining part outside the EPA polygons, assign its representative point to the nearest post-EPA group by GEOS distance in EPSG:5070; tie-break by ascending region ID."
    },
    "limitation": "The source boundaries are geographic groupings with scale and vintage limitations, not legal access boundaries or proof that all trails are mapped. US-only limits and explicit exclusions still apply. Build costs and representative routes require a real-data build.",
    "authoringPrecision": {
      "method": "GEOS buffer of valid raw derived geometry by 3e-7 degrees with mitre joins and mitre_limit=2, then topology-preserving valid-output set_precision on a shared 1e-7-degree grid. No runtime normalization.",
      "implementation": "Shapely 2.1.2 / GEOS",
      "gridDegrees": 1e-07,
      "outwardBufferDegrees": 3e-07,
      "mitreLimit": 2,
      "verifiedMaximumOutwardDistanceDegrees": 8e-07,
      "maximumMeasuredOutputVertexDistanceDegrees": 6.615686781873116e-07,
      "missingRawAreaSquareDegrees": 0.0,
      "extraAreaSquareDegrees": 5.259271061820205e-06,
      "rawGeometryHash": "sha256:4e36f370253acc3234a5bc9599e34e23f4e719d67de4d0da8ecd2727cecc2472",
      "finalGeometryHash": "sha256:f13eecae66159026d260f98d22de5da46f459fb79e3b485c3212b8deb730f643",
      "hashEncoding": "UTF-8 JSON geometry, compact comma/colon separators; numeric serialization from Python 3 json.dumps.",
      "reference": "https://libgeos.org/doxygen/classgeos_1_1precision_1_1GeometryPrecisionReducer.html"
    }
  },
  "geometry": {"type":"MultiPolygon","coordinates":[[[[-121.2129175,45.6691058],[-121.2145114,45.6694767],[-121.2157792,45.6712377],[-121.2276026,45.6736262],[-121.2280908,45.6738909],[-121.2317104,45.674456],[-121.2419179,45.676518],[-121.2447575,45.6780576],[-121.2573714,45.680027],[-121.2614241,45.6822242],[-121.2740381,45.6841936],[-121.2780908,45.6863909],[-121.2865381,45.6883603],[-121.2905908,45.6905576],[-121.2952499,45.6926979],[-121.2979398,45.6957093],[-121.2928084,45.6989118],[-121.2884872,45.7008405],[-121.2803085,45.7072451],[-121.2759872,45.7091738],[-121.2719751,45.7114118],[-121.2676538,45.7133405],[-121.2636418,45.7155784],[-121.2593205,45.7175071],[-121.2511418,45.7239118],[-121.2468205,45.7258405],[-121.2428084,45.7280785],[-121.2330348,45.7303001],[-121.2303086,45.7364117],[-121.2207138,45.7486635],[-121.211758,45.7513613],[-121.2094753,45.7614116],[-121.2071886,45.765513],[-121.2136909,45.7738219],[-121.211404,45.7779236],[-121.2094753,45.7864116],[-121.2040308,45.79409],[-121.1926538,45.7966738],[-121.1844752,45.8030784],[-121.1801539,45.8050071],[-121.1719752,45.8114117],[-121.1676539,45.8133404],[-121.1636418,45.8155784],[-121.1509872,45.8175071],[-121.1446639,45.8219912],[-121.1188786,45.8199201],[-121.1117049,45.8282453],[-121.1041894,45.8240542],[-121.0969752,45.8280784],[-121.0926539,45.8300071],[-121.0886418,45.8322451],[-121.0801539,45.8341738],[-121.0719752,45.8405784],[-121.0631292,45.8425885],[-121.0604398,45.8457091],[-121.0634344,45.8482887],[-121.0668565,45.8559588],[-121.0740585,45.8591732],[-121.0780705,45.8614112],[-121.0865585,45.8633399],[-121.0905706,45.8655778],[-121.0963324,45.8681495],[-121.098904,45.8739113],[-121.1139594,45.8907815],[-121.1134507,45.8971375],[-121.1051539,45.9008404],[-121.0962876,45.9077861],[-121.0928086,45.9155782],[-121.0902656,45.9201355],[-121.0908189,45.9270158],[-121.1018537,45.9300065],[-121.1125227,45.9240535],[-121.1197372,45.9280778],[-121.1268377,45.9312476],[-121.1322375,45.9390401],[-121.1231916,45.9425071],[-121.1123113,45.9364363],[-121.1094753,45.9489115],[-121.1072374,45.9529236],[-121.1053087,45.9614115],[-121.1024726,45.9664937],[-121.1033637,45.9775732],[-121.1219753,45.9800065],[-121.1247056,45.9890764],[-121.1323919,45.9925065],[-121.1465236,46.0046079],[-121.1479397,46.0123757],[-121.1468126,46.0303813],[-121.1385075,46.034194],[-121.1344548,46.0363913],[-121.1301742,46.0383607],[-121.1261215,46.040558],[-121.1218409,46.0425274],[-121.1177882,46.0447246],[-121.1135076,46.046694],[-121.1089992,46.0491395],[-121.1052883,46.0572245],[-121.1019274,46.0634174],[-121.1053209,46.0696674],[-121.103091,46.0737772],[-121.1011216,46.0780578],[-121.0947577,46.0862772],[-121.0922024,46.0972514],[-121.0843409,46.1008607],[-121.0677884,46.1161071],[-121.0731188,46.1259174],[-121.0697577,46.1321105],[-121.0677883,46.1363912],[-121.0537949,46.1524394],[-121.0409817,46.1554179],[-121.0386217,46.1655578],[-121.0364244,46.1696105],[-121.0331447,46.1767477],[-121.0242174,46.1808451],[-121.021369,46.1930847],[-121.0101508,46.198232],[-121.0054063,46.2135924],[-120.9961086,46.2307027],[-120.9885076,46.234194],[-120.9844548,46.2363912],[-120.9760076,46.2383606],[-120.9719549,46.2405579],[-120.9676743,46.2425273],[-120.9552882,46.2530579],[-120.9510076,46.2550273],[-120.9469548,46.2572246],[-120.9233748,46.259194],[-120.9157047,46.2550273],[-120.8955673,46.2530579],[-120.8886218,46.2577737],[-120.8927966,46.2654518],[-120.8926501,46.2678771],[-120.884341,46.2716939],[-120.8677883,46.2863912],[-120.8635077,46.2883606],[-120.8594549,46.2905579],[-120.8507269,46.2925924],[-120.8479396,46.2957093],[-120.8385239,46.2967102],[-120.8344386,46.298875],[-120.8176906,46.3008769],[-120.8136053,46.3030416],[-120.8051906,46.3050436],[-120.8011053,46.3072083],[-120.7968573,46.3092102],[-120.792772,46.3113749],[-120.788524,46.3133769],[-120.7841255,46.3157043],[-120.7802721,46.3238748],[-120.7750475,46.3314677],[-120.7635239,46.3342102],[-120.7594386,46.3363749],[-120.7301906,46.3383769],[-120.7261053,46.3405416],[-120.7193954,46.3425436],[-120.7077744,46.3363953],[-120.6969387,46.3447082],[-120.6926907,46.3467102],[-120.6677721,46.3697082],[-120.6652288,46.3717103],[-120.6560735,46.3668682],[-120.6469388,46.3738749],[-120.6426907,46.3758769],[-120.6386053,46.3780416],[-120.6093575,46.3800435],[-120.6073556,46.3863747],[-120.6062733,46.3894587],[-120.6319612,46.3921931],[-120.6319612,46.3921934],[-120.6118639,46.3985575],[-120.6093574,46.4008768],[-120.6057929,46.4047261],[-120.5893256,46.4105001],[-120.5219387,46.4259582],[-120.5166899,46.4269592],[-120.5156971,46.4566099],[-120.4973498,46.4711324],[-120.4884671,46.4737365],[-120.4789374,46.4773173],[-120.4551337,46.4799865],[-120.4490791,46.4822652],[-120.4361926,46.4860453],[-120.432335,46.4906882],[-120.4238185,46.4839498],[-120.4178655,46.4845561],[-120.3990789,46.4674865],[-120.3822169,46.4655985],[-120.3740788,46.4591532],[-120.3697169,46.4572652],[-120.3615788,46.4508198],[-120.3572169,46.4489318],[-120.3532455,46.4466532],[-120.3488835,46.4447652],[-120.3407455,46.4383199],[-120.3363836,46.4364318],[-120.3324122,46.4341532],[-120.3280502,46.4322652],[-120.3240789,46.4299865],[-120.3197169,46.4280985],[-120.3115789,46.4216532],[-120.3062732,46.4207093],[-120.3052723,46.4238747],[-120.3030873,46.4280006],[-120.3055328,46.4326188],[-120.3093576,46.4447078],[-120.321768,46.4608902],[-120.3374133,46.4723647],[-120.3448555,46.4758763],[-120.3510242,46.4801243],[-120.3800077,46.4980158],[-120.3921497,46.5111221],[-120.4068145,46.5459611],[-120.4083566,46.5540419],[-120.4263128,46.5532485],[-120.429983,46.5506687],[-120.4471461,46.5490818],[-120.454983,46.5423354],[-120.4635201,46.5407484],[-120.4654001,46.5509864],[-120.4610626,46.5571672],[-120.4638131,46.5610855],[-120.4654001,46.5676531],[-120.4610626,46.5738339],[-120.4645171,46.5787573],[-120.461087,46.5864111],[-120.4679798,46.5944188],[-120.4695667,46.5990819],[-120.4800891,46.6109063],[-120.4882841,46.6136977],[-120.4904,46.6199152],[-120.4965482,46.6275038],[-120.5033963,46.6298354],[-120.5070665,46.6324151],[-120.5187731,46.6332085],[-120.5211169,46.6350844],[-120.5238677,46.6385596],[-120.5072009,46.6570534],[-120.5041125,46.6643817],[-120.4967842,46.6674702],[-120.4914173,46.6706236],[-120.4883371,46.6813941],[-120.4902536,46.6967953],[-120.4835925,46.7059141],[-120.4759508,46.7091368],[-120.472012,46.711448],[-120.4676175,46.7133035],[-120.453547,46.7255104],[-120.4511789,46.7364478],[-120.4488433,46.7404273],[-120.449181,46.7431614],[-120.4574287,46.7466363],[-120.4646474,46.7519058],[-120.457201,46.76122],[-120.4553455,46.7656145],[-120.4517404,46.7717505],[-120.4566395,46.7800838],[-120.4515452,46.7887548],[-120.4595366,46.7987482],[-120.4590971,46.8023049],[-120.4435253,46.805674],[-120.4497872,46.8142469],[-120.4584461,46.8178969],[-120.4613677,46.8281142],[-120.4637603,46.8321834],[-120.4571034,46.8405045],[-120.4672676,46.8525892],[-120.4801014,46.8553643],[-120.482201,46.8697809],[-120.4849355,46.8744401],[-120.4777699,46.8801775],[-120.478486,46.8859062],[-120.4963407,46.8885063],[-120.5021066,46.8957087],[-120.5015776,46.8993466],[-120.4979604,46.9030045],[-120.5099109,46.9149876],[-120.5104399,46.9227922],[-120.5011217,46.9280576],[-120.4968412,46.930027],[-120.4886218,46.9363909],[-120.4843411,46.9383604],[-120.4802884,46.9405576],[-120.4718411,46.942527],[-120.4677884,46.9447243],[-120.4635078,46.9466937],[-120.4552884,46.9530576],[-120.4510078,46.955027],[-120.4469551,46.9572243],[-120.4426745,46.9591937],[-120.4335476,46.9662616],[-120.425023,46.961627],[-120.4177884,46.9655576],[-120.4051745,46.967527],[-120.4011217,46.9697243],[-120.3635078,46.9716937],[-120.356273,46.9756244],[-120.3490382,46.9716937],[-120.3364243,46.9697243],[-120.3282049,46.9633604],[-120.3114243,46.961391],[-120.3073716,46.9591937],[-120.2989243,46.9572243],[-120.2948716,46.955027],[-120.2697577,46.9530576],[-120.2646064,46.9502623],[-120.2594551,46.9530576],[-120.2510079,46.955027],[-120.2468776,46.9572692],[-120.2431992,46.9531512],[-120.2221137,46.9494037],[-120.2104397,46.9487079],[-120.2047268,46.9490497],[-120.1778592,46.9464577],[-120.1411363,46.9486469],[-120.12956,46.9405577],[-120.1218413,46.942527],[-120.1177885,46.9447243],[-120.1010079,46.9466937],[-120.0958564,46.9494892],[-120.0875231,46.9449604],[-120.0802885,46.948891],[-120.0051746,46.9508604],[-119.9969552,46.9572243],[-119.9864247,46.9591937],[-119.9834747,46.9624936],[-119.9812735,46.9644588],[-119.9819733,46.9700087],[-119.9847402,46.9734918],[-119.98614,46.978342],[-119.9889069,46.9818251],[-119.9903066,46.9866754],[-119.9930736,46.9901584],[-119.9944733,46.9950087],[-119.9972402,46.9984918],[-119.99864,47.003342],[-120.0014069,47.0068251],[-120.0028066,47.0116754],[-120.0055736,47.0151584],[-120.0069733,47.0241754],[-120.0097402,47.0276584],[-120.01114,47.0325087],[-120.0180735,47.0401584],[-120.0194733,47.0450087],[-120.0264069,47.0526584],[-120.0278066,47.0575087],[-120.03614,47.0667047],[-120.0347402,47.0866756],[-120.0319733,47.0901587],[-120.0302277,47.0962134],[-120.0271067,47.0977922],[-120.0239614,47.1029801],[-120.0219187,47.1071875],[-120.0031281,47.1279801],[-120.0010855,47.1407241],[-120.0052521,47.1488132],[-120.0072948,47.1571872],[-120.0094188,47.1613132],[-120.0114615,47.1657241],[-120.0072948,47.1738134],[-120.0052521,47.1821874],[-120.002473,47.1875829],[-120.0032095,47.2237194],[-120.0698352,47.2258963],[-120.0739612,47.2280204],[-120.0781686,47.230063],[-120.0866567,47.2365043],[-120.090628,47.2446871],[-120.0927521,47.2488132],[-120.0947948,47.2577041],[-120.0875235,47.2707085],[-120.088622,47.2716931],[-120.0905915,47.2911066],[-120.0864248,47.2987767],[-120.0844554,47.3138034],[-120.0989491,47.3267508],[-120.1122018,47.3351777],[-120.1318999,47.3442191],[-120.1426746,47.3530569],[-120.1492135,47.3560599],[-120.1614246,47.3697236],[-120.1698718,47.371693],[-120.1739245,47.3738902],[-120.1907051,47.3758596],[-120.195592,47.3785126],[-120.2052314,47.3779389],[-120.2314034,47.3794973],[-120.2376696,47.3829031],[-120.2511136,47.3821015],[-120.2572579,47.3863902],[-120.2698718,47.3883596],[-120.2739245,47.3905569],[-120.2823718,47.3925263],[-120.2921254,47.4000826],[-120.294758,47.4113904],[-120.2969553,47.4154431],[-120.2989247,47.4197237],[-120.3011219,47.4237764],[-120.3030913,47.428057],[-120.3094553,47.4362764],[-120.3114247,47.440557],[-120.3136219,47.4446098],[-120.3155913,47.4488904],[-120.3177886,47.4529431],[-120.3187733,47.4582085],[-120.3178659,47.4656346],[-120.3133127,47.4731785],[-120.3139801,47.4776707],[-120.3113474,47.4820327],[-120.3095326,47.4906346],[-120.3071807,47.4945327],[-120.3053659,47.5073012],[-120.303014,47.5111993],[-120.3011993,47.5239679],[-120.2946807,47.5320327],[-120.2928659,47.5364679],[-120.2832833,47.5477758],[-120.2759306,47.5507828],[-120.2720325,47.5531347],[-120.2675973,47.5549495],[-120.25419,47.5666641],[-120.2511993,47.5739679],[-120.2405141,47.5861993],[-120.2386993,47.5948012],[-120.2363474,47.5986993],[-120.2345326,47.6323012],[-120.228014,47.640366],[-120.2261993,47.6448012],[-120.2238474,47.6486993],[-120.2220326,47.6531345],[-120.21669,47.660292],[-120.2043243,47.6709446],[-120.2011423,47.6780776],[-120.1989044,47.6820896],[-120.1969757,47.6884942],[-120.1898671,47.6946181],[-120.1699534,47.7393893],[-120.1678091,47.7496228],[-120.1719757,47.7570893],[-120.1739045,47.7621229],[-120.1655628,47.7693089],[-120.1551542,47.771673],[-120.1511422,47.773911],[-120.1426542,47.7758397],[-120.1386422,47.7780777],[-120.1273587,47.7800064],[-120.119892,47.7758397],[-120.1155707,47.773911],[-120.1115586,47.771673],[-120.1030707,47.7697443],[-120.0990587,47.7675064],[-120.0752755,47.7655777],[-120.0678089,47.7697443],[-120.0551543,47.771673],[-120.0511422,47.773911],[-120.0426543,47.7758397],[-120.0386422,47.7780777],[-120.0009876,47.7800064],[-119.9826772,47.7963515],[-119.9812734,47.8040419],[-119.9781525,47.8056207],[-119.9764069,47.8116753],[-119.9694733,47.8193251],[-119.9680736,47.8241753],[-119.9653067,47.8276584],[-119.9639069,47.8366754],[-119.9625234,47.8373753],[-119.9595327,47.8448011],[-119.9514881,47.8547541],[-119.9379098,47.8527481],[-119.9303659,47.8573012],[-119.9259307,47.859116],[-119.9117585,47.8714979],[-119.9095328,47.8834565],[-119.9136994,47.8903656],[-119.9155142,47.9006848],[-119.9084584,47.9102024],[-119.9009307,47.9132827],[-119.8970326,47.9156346],[-119.8925974,47.9174493],[-119.8845326,47.9239679],[-119.8800974,47.9257827],[-119.8720326,47.9323012],[-119.865982,47.9347792],[-119.8595329,47.9425549],[-119.8678661,47.9528656],[-119.8696809,47.9573008],[-119.8761994,47.9653656],[-119.8780142,47.9698008],[-119.8803661,47.9736989],[-119.8821809,47.9800549],[-119.8738475,47.9903659],[-119.8720327,47.9948011],[-119.8696809,47.9986991],[-119.8678661,48.0133881],[-119.8761994,48.0236989],[-119.8780142,48.0281341],[-119.8928661,48.0445322],[-119.8937735,48.049875],[-119.8919587,48.056056],[-119.884496,48.0614312],[-119.8759673,48.0633192],[-119.871996,48.0655979],[-119.867634,48.0674859],[-119.8636627,48.0697645],[-119.8593007,48.0716526],[-119.8553293,48.0739312],[-119.8509674,48.0758192],[-119.846996,48.0780979],[-119.8343007,48.0799859],[-119.8303293,48.0822646],[-119.817634,48.0841526],[-119.810798,48.0880711],[-119.7917672,48.0861301],[-119.7843007,48.0883192],[-119.7803294,48.0905979],[-119.7745148,48.0931165],[-119.7702953,48.1028456],[-119.7552844,48.1043756],[-119.7469063,48.0995782],[-119.7386625,48.0987359],[-119.737523,48.0977918],[-119.7301012,48.0891778],[-119.7239041,48.0864109],[-119.7164376,48.0822442],[-119.7093211,48.0841729],[-119.705309,48.0864109],[-119.6968211,48.0883396],[-119.6893544,48.0925063],[-119.6794543,48.0898248],[-119.6678086,48.0757458],[-119.6697374,48.0695892],[-119.6719753,48.0655771],[-119.673904,48.0612558],[-119.6803087,48.0530771],[-119.6822374,48.0487558],[-119.688642,48.0405771],[-119.6905707,48.0362559],[-119.6947372,48.0287894],[-119.6907254,48.0258396],[-119.6864041,48.0239109],[-119.6782254,48.0175063],[-119.6739042,48.0155776],[-119.6698921,48.0133396],[-119.6655708,48.0114109],[-119.6573921,48.0050063],[-119.6530708,48.0030776],[-119.6469592,47.9987441],[-119.6374744,47.9995091],[-119.6289376,47.9947443],[-119.6218211,47.996673],[-119.6178091,47.9989109],[-119.6134878,48.0008396],[-119.5886425,48.0239109],[-119.5843212,48.0258396],[-119.5761425,48.0322442],[-119.5718212,48.0341729],[-119.5636425,48.0405775],[-119.5593211,48.0425063],[-119.5553091,48.0447442],[-119.5509878,48.0466729],[-119.5469758,48.0489109],[-119.5426545,48.0508396],[-119.5386424,48.0530775],[-119.5343212,48.0550063],[-119.5303091,48.0572442],[-119.5223095,48.0608127],[-119.519738,48.0654228],[-119.5178093,48.0697441],[-119.5155713,48.0737561],[-119.5118684,48.082053],[-119.4893096,48.0838637],[-119.4789377,48.0780776],[-119.4718212,48.0800063],[-119.46669,48.0828668],[-119.4615589,48.0800063],[-119.4344796,48.0779311],[-119.4280708,48.0697441],[-119.4254992,48.0639824],[-119.4197376,48.0614109],[-119.4157256,48.0591729],[-119.4114043,48.0572442],[-119.4073923,48.0550063],[-119.3489043,48.0530776],[-119.3437734,48.0502171],[-119.3386425,48.0530775],[-119.3326408,48.0557549],[-119.3303093,48.063494],[-119.3280389,48.0696829],[-119.3322381,48.0772105],[-119.3300611,48.0970105],[-119.3136425,48.1114109],[-119.3051546,48.1133396],[-119.2976879,48.1175063],[-119.290571,48.1155775],[-119.2865589,48.1133396],[-119.2822377,48.1114109],[-119.2782256,48.1091729],[-119.2697377,48.1072442],[-119.2622711,48.1030776],[-119.2509879,48.1050062],[-119.2469759,48.1072442],[-119.2426546,48.1091729],[-119.2386426,48.1114109],[-119.2343213,48.1133396],[-119.2303092,48.1155775],[-119.2134879,48.1175062],[-119.2094759,48.1197442],[-119.2051546,48.1216729],[-119.1969759,48.1280775],[-119.1843213,48.1300062],[-119.1803092,48.1322442],[-119.1718213,48.1341729],[-119.1678093,48.1364108],[-119.163488,48.1383395],[-119.1553093,48.1447442],[-119.150988,48.1466729],[-119.1469759,48.1489109],[-119.138488,48.1508396],[-119.1312735,48.1548639],[-119.124059,48.1508395],[-119.1197377,48.1489108],[-119.1157257,48.1466729],[-119.1114044,48.1447442],[-119.1073924,48.1425062],[-119.0614045,48.1405775],[-119.0573924,48.1383396],[-119.053071,48.1364108],[-119.0407257,48.1258395],[-119.0335235,48.122625],[-119.0303089,48.1154228],[-119.0280709,48.1114107],[-119.0261422,48.1070894],[-119.0230335,48.1015189],[-119.0218128,48.0863333],[-119.0221342,48.0823701],[-119.0197376,48.0780774],[-119.0178089,48.0654227],[-119.015571,48.0614107],[-119.0121286,48.0537],[-118.999059,48.0425063],[-118.9905711,48.0405776],[-118.9832469,48.0364923],[-118.9802319,48.0362482],[-118.9780915,48.0364231],[-118.9740591,48.0341729],[-118.9697378,48.0322442],[-118.9657257,48.0300063],[-118.9578562,48.0264947],[-118.9514759,48.0174939],[-118.9508655,48.009905],[-118.9594756,47.9989105],[-118.9614043,47.9904225],[-118.9803089,47.9697438],[-118.9812733,47.9519582],[-118.9885081,47.9466928],[-118.9969554,47.9447234],[-119.0010082,47.9425261],[-119.0427887,47.9405567],[-119.0468415,47.9383594],[-119.0583528,47.9362069],[-119.0671621,47.9367318],[-119.0718414,47.9341928],[-119.0802887,47.9322234],[-119.0968412,47.9175222],[-119.09901,47.8806406],[-119.1089347,47.8775765],[-119.1155917,47.8822234],[-119.1198723,47.8841928],[-119.123925,47.88639],[-119.1350047,47.8883594],[-119.1426747,47.8841928],[-119.1469553,47.8822234],[-119.1619943,47.8691091],[-119.1655912,47.8612763],[-119.1677885,47.8572235],[-119.1697579,47.8529429],[-119.1719552,47.8488902],[-119.1739246,47.8446096],[-119.1761218,47.8405569],[-119.1780912,47.8362763],[-119.1802885,47.8322236],[-119.1822579,47.8237763],[-119.1927885,47.8113902],[-119.1947579,47.8071096],[-119.2015329,47.7983611],[-119.2123116,47.7934132],[-119.2155912,47.7862763],[-119.2261218,47.7738902],[-119.2280912,47.7696096],[-119.2594552,47.7363902],[-119.2614246,47.7321096],[-119.2772121,47.7143323],[-119.2733427,47.7108738],[-119.2643013,47.6911757],[-119.2405912,47.6655572],[-119.2330107,47.6473891],[-119.2120065,47.6243261],[-119.173355,47.6082047],[-119.1604402,47.5998755],[-119.1594557,47.600974],[-119.1572584,47.6029434],[-119.155289,47.6051406],[-119.1530918,47.60711],[-119.1511224,47.6197239],[-119.1469558,47.623447],[-119.1489251,47.6343069],[-119.1530918,47.6380301],[-119.1508253,47.6481379],[-119.1120679,47.6571549],[-119.0952751,47.6648615],[-119.092789,47.6676406],[-119.0905918,47.66961],[-119.0886224,47.6738906],[-119.0864251,47.67586],[-119.0844557,47.6780573],[-119.0822585,47.6800266],[-119.0802891,47.6905572],[-119.0780918,47.6925266],[-119.0761224,47.6988906],[-119.0718417,47.70086],[-119.0698724,47.7030573],[-119.0676751,47.7050267],[-119.0657057,47.7072239],[-119.0635084,47.7091933],[-119.0600457,47.713063],[-119.0490389,47.7176407],[-119.0275139,47.7226496],[-119.0239251,47.72586],[-119.0216993,47.7283503],[-119.0135084,47.73211],[-119.011539,47.7343073],[-119.0093418,47.7362767],[-119.0073724,47.7384739],[-119.0051751,47.7404433],[-119.0032057,47.7426406],[-119.0010085,47.74461],[-118.9990391,47.7468073],[-118.9968418,47.7487767],[-118.994616,47.7512669],[-118.9864251,47.7550267],[-118.9844557,47.7593072],[-118.9780918,47.76336],[-118.9761224,47.7655573],[-118.9697584,47.76961],[-118.9675327,47.7721003],[-118.9593418,47.77586],[-118.9562656,47.7792983],[-118.9385084,47.7841934],[-118.936539,47.7863906],[-118.9204542,47.7901341],[-118.9011507,47.7986303],[-118.8885082,47.794724],[-118.8782055,47.7904434],[-118.8615876,47.7865737],[-118.8580353,47.7825983],[-118.8240389,47.7800267],[-118.6468415,47.7780573],[-118.6448721,47.7737767],[-118.6405915,47.7718073],[-118.6386221,47.76961],[-118.6364248,47.7676406],[-118.6344554,47.7654433],[-118.6322582,47.7634739],[-118.6302888,47.7612767],[-118.6239248,47.7572239],[-118.6219554,47.7529433],[-118.6197582,47.7509739],[-118.6177563,47.748736],[-118.5929395,47.7374812],[-118.5647453,47.731459],[-118.5396071,47.7299576],[-118.5190869,47.7311824],[-118.5155915,47.7280573],[-118.512076,47.7241266],[-118.5051099,47.7216283],[-118.4765781,47.7150691],[-118.4118645,47.7107234],[-118.4030916,47.7051406],[-118.4011222,47.7029433],[-118.3989249,47.7009739],[-118.3969555,47.6966933],[-118.3905916,47.6926406],[-118.3886222,47.6904433],[-118.3864249,47.6884739],[-118.384423,47.686236],[-118.361539,47.6758601],[-118.3449211,47.6719904],[-118.3427889,47.66961],[-118.3405916,47.6676406],[-118.3371004,47.6637344],[-118.3163323,47.655747],[-118.2906691,47.650262],[-118.2570958,47.64826],[-118.2226557,47.6509578],[-118.1976273,47.6567805],[-118.1751663,47.666123],[-118.1366571,47.6486588],[-118.1115878,47.6428238],[-118.1090163,47.639947],[-118.0583572,47.6369278],[-118.0291906,47.6386653],[-118.0142451,47.6377742],[-117.9801754,47.6404434],[-117.9782061,47.6426407],[-117.9469967,47.6509537],[-117.9364255,47.65711],[-117.9344561,47.6593073],[-117.9322589,47.6612767],[-117.9302895,47.663474],[-117.9280922,47.6654434],[-117.9261228,47.6676407],[-117.9218422,47.66961],[-117.9189735,47.6758602],[-117.9051752,47.6718073],[-117.9027663,47.6691137],[-117.8746089,47.6674332],[-117.8468422,47.6696101],[-117.8448728,47.6718073],[-117.8190752,47.6778132],[-117.8012652,47.6859837],[-117.7977699,47.6898982],[-117.7657101,47.6879858],[-117.7330726,47.6905411],[-117.7074217,47.6965103],[-117.7037433,47.7006241],[-117.6926185,47.7046158],[-117.6760088,47.7091934],[-117.6663042,47.7126724],[-117.618595,47.7162857],[-117.5947587,47.7093073],[-117.5854325,47.7059626],[-117.5615394,47.7008601],[-117.5364253,47.6988907],[-117.5344559,47.6966933],[-117.5322586,47.6947239],[-117.5302892,47.6904433],[-117.5280919,47.6884739],[-117.5261225,47.6779433],[-117.5239253,47.675974],[-117.5219559,47.6737767],[-117.5176753,47.6718073],[-117.5157058,47.6675267],[-117.5135086,47.6655573],[-117.5115392,47.66336],[-117.5073724,47.6596367],[-117.5099726,47.6535451],[-117.5489295,47.6504933],[-117.5729325,47.6438812],[-117.5760086,47.6404429],[-117.5881058,47.6348887],[-117.5905919,47.6321096],[-117.5927892,47.6301402],[-117.5947586,47.6279429],[-117.5969558,47.6259735],[-117.5991816,47.6234833],[-117.6073725,47.6197235],[-117.6093419,47.6175263],[-117.6115391,47.6155569],[-117.6135085,47.6112763],[-117.6157058,47.6093069],[-117.6176752,47.6071096],[-117.6218418,47.6033866],[-117.6198724,47.5779433],[-117.6176752,47.575974],[-117.6157058,47.5737767],[-117.6135086,47.5718073],[-117.6115392,47.5696101],[-117.6093419,47.5676407],[-117.6073725,47.5654434],[-117.5952754,47.5598892],[-117.5927892,47.5571101],[-117.5905919,47.5551406],[-117.5886225,47.55086],[-117.5864252,47.5488907],[-117.5844558,47.5466934],[-117.5822585,47.544724],[-117.5802891,47.5383601],[-117.5760085,47.5363907],[-117.5740391,47.5237767],[-117.5718419,47.5218073],[-117.5698725,47.5196101],[-117.5676752,47.5176407],[-117.5657058,47.5154434],[-117.5635086,47.513474],[-117.5615392,47.5112767],[-117.5593419,47.5093073],[-117.5573725,47.5071101],[-117.5551753,47.5051407],[-117.5529495,47.5026505],[-117.5447586,47.4988907],[-117.5413203,47.4950496],[-117.5260128,47.4883113],[-117.4962847,47.4814754],[-117.4687741,47.4798356],[-117.4467241,47.4811499],[-117.4219561,47.4758602],[-117.3979855,47.4726538],[-117.3885087,47.4697241],[-117.3851192,47.4659318],[-117.3511228,47.4633602],[-117.3437741,47.4623755],[-117.3331011,47.46052],[-117.3095128,47.4537735],[-117.3113683,47.4466361],[-117.3136796,47.4447806],[-117.3155351,47.4424694],[-117.3199295,47.4406139],[-117.3208572,47.4248752],[-117.3198563,47.4133764],[-117.3156083,47.4113745],[-117.3136063,47.4071264],[-117.3114416,47.4051244],[-117.3094397,47.4029597],[-117.307275,47.4009578],[-117.3046952,47.3981705],[-117.2865228,47.389593],[-117.288525,47.3862926],[-117.292773,47.3842907],[-117.2947749,47.3800427],[-117.3011064,47.3759573],[-117.3031083,47.3737926],[-117.3136064,47.367624],[-117.3156083,47.3654593],[-117.3198564,47.3634573],[-117.3218583,47.3612927],[-117.324023,47.3592907],[-117.3260249,47.357126],[-117.3281896,47.3551241],[-117.3301916,47.3446261],[-117.3323563,47.3426241],[-117.3343582,47.3321261],[-117.3376906,47.3290419],[-117.3343582,47.3259577],[-117.3323563,47.311293],[-117.3301916,47.3092911],[-117.3281896,47.298793],[-117.3260249,47.2967911],[-117.324023,47.2925431],[-117.3218583,47.2905412],[-117.3198564,47.2883765],[-117.3156083,47.2863745],[-117.3136063,47.2842098],[-117.3102736,47.2811253],[-117.3150833,47.2766696],[-117.3157384,47.2601048],[-117.3136063,47.2467097],[-117.3114416,47.2447078],[-117.3094396,47.2321264],[-117.307275,47.2301245],[-117.305273,47.2279598],[-117.3031083,47.2259578],[-117.3011063,47.2237931],[-117.2989416,47.2217912],[-117.2969397,47.2196265],[-117.294775,47.2176245],[-117.292773,47.2154598],[-117.2844315,47.2115251],[-117.2823563,47.2071265],[-117.2718583,47.2009579],[-117.2698564,47.1987931],[-117.2676916,47.1967912],[-117.2656897,47.1946265],[-117.263525,47.1926245],[-117.2615231,47.1904598],[-117.2453528,47.1828305],[-117.2423865,47.1796281],[-117.2115229,47.165061],[-117.2135249,47.1571261],[-117.2156896,47.1551242],[-117.2176916,47.1425428],[-117.2198563,47.1405409],[-117.2220577,47.1267101],[-117.3124632,47.133542],[-117.3565427,47.1300223],[-117.3823564,47.1238741],[-117.3843583,47.1217094],[-117.4133501,47.1161755],[-117.4256263,47.1122896],[-117.4636063,47.0947074],[-117.4656082,47.0925428],[-117.4677729,47.0905408],[-117.4697749,47.0883761],[-117.4719396,47.0863741],[-117.4739416,47.0842094],[-117.4761063,47.0822075],[-117.4781082,47.0800428],[-117.4802729,47.0780408],[-117.4822749,47.0737928],[-117.4844396,47.0717908],[-117.4864416,47.0696261],[-117.4886062,47.0676242],[-117.4906082,47.0633761],[-117.4948562,47.0613742],[-117.4968582,47.0508762],[-117.4990229,47.0488742],[-117.5010248,47.0342095],[-117.5051913,47.0303481],[-117.5031896,47.0279599],[-117.5010248,47.0259579],[-117.4990229,47.0133765],[-117.4968581,47.0113745],[-117.4948562,46.9987932],[-117.4906082,46.9967913],[-117.4886062,46.9925432],[-117.4864416,46.9905413],[-117.4844396,46.9883766],[-117.4822749,46.9863746],[-117.4802729,46.9842099],[-117.4781082,46.9822079],[-117.4761062,46.9779599],[-117.4739416,46.9759579],[-117.4719396,46.9737932],[-117.4697749,46.9717913],[-117.4677729,46.9696266],[-117.4656082,46.9676246],[-117.4636063,46.9654599],[-117.4593583,46.963458],[-117.4573563,46.9612932],[-117.4551916,46.9592913],[-117.4531896,46.9571266],[-117.4426916,46.950958],[-117.4393917,46.9473936],[-117.4206499,46.9429299],[-117.4123694,46.9400287],[-117.3636061,46.9286883],[-117.3656082,46.9237929],[-117.3677729,46.9217909],[-117.3697749,46.9175429],[-117.3719396,46.9155409],[-117.3739416,46.9071262],[-117.3901119,46.8994967],[-117.3926916,46.8967095],[-117.3948563,46.8947076],[-117.3968582,46.8904595],[-117.399023,46.8884576],[-117.401025,46.8862928],[-117.4052729,46.8842909],[-117.4072749,46.8737929],[-117.4094396,46.8717909],[-117.4114416,46.8696262],[-117.4136063,46.8676243],[-117.4156082,46.8633762],[-117.417773,46.8613742],[-117.4197749,46.8592095],[-117.4219396,46.8572076],[-117.4239415,46.8529596],[-117.4261063,46.8509576],[-117.4299353,46.8468234],[-117.4579384,46.8439059],[-117.4885658,46.8451225],[-117.5173866,46.8439791],[-117.5583574,46.8470268],[-117.5964311,46.8441948],[-117.6198361,46.8451225],[-117.6529985,46.8424736],[-117.6780716,46.8365003],[-117.6818517,46.8324191],[-117.7114294,46.8199598],[-117.7426265,46.8174695],[-117.7697749,46.8112928],[-117.7977167,46.8086154],[-117.8010248,46.8050428],[-117.8173091,46.801165],[-117.8364415,46.7925428],[-117.8528193,46.7899346],[-117.8803339,46.7833794],[-117.8886061,46.7780409],[-117.8906081,46.7758762],[-117.8948561,46.7738742],[-117.8968581,46.7717096],[-117.8990228,46.7697076],[-117.9010247,46.7675429],[-117.9031894,46.7655409],[-117.9051914,46.7633762],[-117.907356,46.7613743],[-117.909358,46.7508763],[-117.9115228,46.7488743],[-117.9135247,46.7467095],[-117.9198561,46.7426243],[-117.9218581,46.7404595],[-117.9261061,46.7384576],[-117.9290237,46.735308],[-117.9531898,46.7467095],[-117.9569007,46.7507175],[-117.9683386,46.7547254],[-117.9959997,46.7605116],[-118.0560176,46.7628919],[-118.1011062,46.7592909],[-118.1210322,46.754758],[-118.1426916,46.7592909],[-118.1541906,46.7602918],[-118.1677729,46.7612928],[-118.2120315,46.7630465],[-118.2239415,46.7655408],[-118.2552118,46.7680392],[-118.2873814,46.7667616],[-118.3159132,46.7607964],[-118.3379264,46.7523939],[-118.3406079,46.7467096],[-118.3427726,46.7447076],[-118.3447746,46.7425429],[-118.3469393,46.7405409],[-118.3489412,46.7383762],[-118.3511059,46.7363743],[-118.3531078,46.7258762],[-118.3573559,46.7238743],[-118.3596793,46.7165338],[-118.3824008,46.7101983],[-118.4198561,46.7072075],[-118.4391554,46.7028171],[-118.4677321,46.7039483],[-118.5139153,46.7021213],[-118.552526,46.6933404],[-118.5551912,46.6904595],[-118.5720166,46.6864515],[-118.6138013,46.6755059],[-118.6281079,46.6696262],[-118.6344393,46.6676242],[-118.6441479,46.6642185],[-118.6468578,46.6612929],[-118.6531892,46.6572076],[-118.6551911,46.6550429],[-118.6573558,46.653041],[-118.6593578,46.6508763],[-118.6615225,46.6488743],[-118.6635244,46.6467096],[-118.6656891,46.6447077],[-118.668273,46.6392307],[-118.6831412,46.6356907],[-118.6864411,46.6321262],[-118.6969392,46.6259576],[-118.6993684,46.6233331],[-118.7198559,46.6176243],[-118.7369172,46.6111139],[-118.7406077,46.6071263],[-118.7427724,46.6051244],[-118.74499,46.6004246],[-118.7615225,46.5926243],[-118.7635244,46.5904596],[-118.7656891,46.5884577],[-118.7676911,46.586293],[-118.7698558,46.584291],[-118.7718577,46.5821263],[-118.7740224,46.5801244],[-118.7760243,46.567543],[-118.778189,46.5655411],[-118.780191,46.5571264],[-118.7823558,46.5551243],[-118.7843578,46.5529596],[-118.7886058,46.5509577],[-118.7906077,46.5467096],[-118.7969391,46.5426243],[-118.798941,46.5404596],[-118.8011058,46.5384577],[-118.8031077,46.536293],[-118.8052724,46.534291],[-118.8072744,46.5321263],[-118.809439,46.5301244],[-118.811441,46.517543],[-118.8136057,46.5155411],[-118.8156076,46.5110695],[-118.811441,46.5072081],[-118.8094389,46.502736],[-118.8136057,46.4988744],[-118.8156076,46.473793],[-118.8198557,46.4717911],[-118.8218576,46.4592097],[-118.8240224,46.4572078],[-118.8260243,46.4446264],[-118.8281891,46.4426244],[-118.830191,46.4404597],[-118.8323557,46.4384578],[-118.8343576,46.4258764],[-118.8365224,46.4238744],[-118.8385242,46.4194028],[-118.8343576,46.4155414],[-118.8323557,46.4050434],[-118.830191,46.4030415],[-118.828189,46.3987934],[-118.8260244,46.3967915],[-118.8240224,46.3946268],[-118.8218577,46.3926248],[-118.8198558,46.3904602],[-118.807661,46.3847066],[-118.8052724,46.3821268],[-118.7947743,46.3759582],[-118.7927724,46.3696268],[-118.7906077,46.3676248],[-118.7886058,46.3654602],[-118.7843578,46.3634582],[-118.7823558,46.3612935],[-118.780191,46.3592915],[-118.778189,46.3508768],[-118.7760243,46.3488748],[-118.7740224,46.3362934],[-118.7718577,46.3342915],[-118.7698558,46.3321268],[-118.7676911,46.3301249],[-118.7656891,46.3279601],[-118.7635244,46.3259582],[-118.7615224,46.3237935],[-118.7604401,46.3227926],[-118.7514476,46.3199443],[-118.7489411,46.3176249],[-118.7451569,46.3135396],[-118.7156893,46.3071269],[-118.6947746,46.305125],[-118.6707268,46.2996562],[-118.6371534,46.2983256],[-118.6039219,46.3009786],[-118.5739211,46.3081238],[-118.5614415,46.3154602],[-118.5594396,46.3176249],[-118.5472448,46.3233785],[-118.5448563,46.3259582],[-118.5426916,46.3279601],[-118.5388299,46.332127],[-118.5343578,46.3301249],[-118.5323558,46.3196268],[-118.5301911,46.3176248],[-118.5281892,46.3133768],[-118.5239412,46.3113749],[-118.5219392,46.3092102],[-118.5197745,46.3072082],[-118.5177725,46.3050435],[-118.5156078,46.3030415],[-118.5136059,46.3008768],[-118.5114412,46.2988749],[-118.5090527,46.2962952],[-118.4968578,46.2905416],[-118.4948558,46.2862935],[-118.4926912,46.2842915],[-118.4890413,46.2803487],[-118.4590202,46.2672506],[-118.4261426,46.2594178],[-118.4230257,46.2560527],[-118.3968987,46.2515036],[-118.3532301,46.2477112],[-118.3083444,46.2446391],[-118.3083443,46.2446388],[-118.3302726,46.2342911],[-118.3322746,46.2321264],[-118.3344392,46.2301245],[-118.3364412,46.2258764],[-118.3427726,46.2217911],[-118.3447746,46.2196264],[-118.3469393,46.2176245],[-118.3489412,46.2154598],[-118.3511059,46.2134578],[-118.3531079,46.2112931],[-118.3696403,46.2034928],[-118.3718579,46.1987931],[-118.3781893,46.1947078],[-118.3801912,46.1925431],[-118.3844393,46.1905411],[-118.3864412,46.1883764],[-118.3886059,46.1863745],[-118.3906079,46.1842098],[-118.3927726,46.1822078],[-118.3947745,46.1800431],[-118.3969392,46.1780412],[-118.3989411,46.1675432],[-118.4011059,46.1655412],[-118.4031078,46.1550432],[-118.4072744,46.1511818],[-118.4052725,46.1467102],[-118.4031078,46.1447082],[-118.4011058,46.1321268],[-118.3989411,46.1301249],[-118.3969392,46.1217102],[-118.3947745,46.1197082],[-118.3927725,46.1133769],[-118.3906079,46.1113749],[-118.3886059,46.1092102],[-118.3844391,46.1053486],[-118.3864412,46.1008765],[-118.3886059,46.0988746],[-118.3906078,46.0925432],[-118.3927726,46.0905412],[-118.3947745,46.0883765],[-118.3969392,46.0863746],[-118.3989412,46.0800432],[-118.4011059,46.0780412],[-118.4031079,46.0758765],[-118.4052726,46.0738745],[-118.4072745,46.0717098],[-118.4094392,46.0697079],[-118.4114411,46.0592098],[-118.417691,46.0562599],[-118.4156892,46.0508769],[-118.4094389,46.0479267],[-118.4114413,46.0467098],[-118.4156893,46.0447078],[-118.4176912,46.0425432],[-118.4198559,46.0405412],[-118.4218579,46.0383765],[-118.4240226,46.0363745],[-118.4260245,46.0342098],[-118.4281892,46.0322079],[-118.4301912,46.0279599],[-118.4323559,46.0259579],[-118.4362175,46.0217911],[-118.4594396,46.0279598],[-118.4624384,46.0311987],[-118.4842116,46.034991],[-118.551985,46.0390559],[-118.5865229,46.0550431],[-118.5900548,46.0588598],[-118.6177728,46.0654597],[-118.6239414,46.0676245],[-118.6302728,46.0696264],[-118.6434605,46.0750463],[-118.6756057,46.0836686],[-118.6781082,46.0863745],[-118.6802729,46.0883765],[-118.6822749,46.0905412],[-118.6844396,46.0925431],[-118.6864415,46.0947079],[-118.6886062,46.0967098],[-118.6909947,46.0992895],[-118.7190871,46.1125464],[-118.7234206,46.1172257],[-118.741255,46.1234757],[-118.7582756,46.1270401],[-118.7740227,46.1300431],[-118.7950961,46.1344539],[-118.8591097,46.1392146],[-118.8951856,46.1377823],[-118.9052728,46.1425431],[-118.9072748,46.1467912],[-118.9261061,46.1571264],[-118.928108,46.1592911],[-118.9333566,46.160292],[-118.9344552,46.142641],[-118.9364246,46.1008604],[-118.9386219,46.092641],[-118.9405913,46.0696103],[-118.9427886,46.0655576],[-118.944758,46.048777],[-118.9469552,46.0447243],[-118.9493153,46.0295997],[-118.9635081,46.0175269],[-118.9677887,46.0155575],[-118.9849993,45.9998881],[-118.9871289,45.9998547],[-118.9871959,45.9997903],[-118.9921767,45.9950057],[-118.9927887,45.9947241],[-119.0093414,45.9800269],[-119.013622,45.9780575],[-119.0176748,45.9758602],[-119.0219554,45.9738908],[-119.0260081,45.9716935],[-119.0302887,45.9697241],[-119.0370549,45.9660511],[-119.038963,45.9654629],[-119.0425731,45.9656754],[-119.0468414,45.9633602],[-119.0552887,45.9613908],[-119.0593414,45.9591935],[-119.0677887,45.9572241],[-119.0718414,45.9550269],[-119.076122,45.9530575],[-119.0801747,45.9508602],[-119.0844553,45.9488908],[-119.0885081,45.9466935],[-119.0927887,45.9447241],[-119.0968414,45.9425269],[-119.1052887,45.9405575],[-119.1093414,45.9383602],[-119.1219554,45.9363908],[-119.1260081,45.9341935],[-119.1432851,45.9321672],[-119.1446764,45.9306102],[-119.169496,45.9276027],[-119.19553,45.9278697],[-119.2043494,45.9292868],[-119.2257451,45.9327247],[-119.25715,45.9399257],[-119.2657814,45.9390352],[-119.3127796,45.9341865],[-119.3225089,45.9331827],[-119.3551608,45.9241574],[-119.3569278,45.923669],[-119.364396,45.9216047],[-119.3653023,45.9215598],[-119.4321499,45.9182501],[-119.4493093,45.9174006],[-119.4502559,45.9173537],[-119.4511506,45.9170907],[-119.4562384,45.9155948],[-119.4802811,45.9085259],[-119.487829,45.9063067],[-119.4901059,45.9064489],[-119.5190402,45.9082555],[-119.5246321,45.9086047],[-119.5342835,45.9120686],[-119.5369466,45.9130244],[-119.5551654,45.9195631],[-119.5690162,45.9245341],[-119.571584,45.9254557],[-119.5764748,45.9244637],[-119.5864177,45.922447],[-119.5972971,45.9202403],[-119.6005489,45.9195807],[-119.6123821,45.9123587],[-119.6233928,45.9056388],[-119.6271912,45.9016534],[-119.6691417,45.8576381],[-119.6698769,45.8568667],[-119.6721998,45.8566122],[-119.7299093,45.8502902],[-119.7582351,45.8471872],[-119.772927,45.8455777],[-119.802655,45.8475297],[-119.868135,45.8359617],[-119.868272,45.8359404],[-119.8761439,45.8347177],[-119.907461,45.8281347],[-119.9089172,45.8280405],[-119.9657439,45.8243647],[-119.9995011,45.8124814],[-120.0011479,45.8119017],[-120.0221658,45.8037537],[-120.0264839,45.8050431],[-120.0343573,45.8008765],[-120.0427721,45.7988746],[-120.0468573,45.7967099],[-120.055272,45.7947079],[-120.0593573,45.7925432],[-120.0636054,45.7905413],[-120.0676907,45.7883765],[-120.080272,45.7863746],[-120.0843573,45.7842099],[-120.105272,45.7822079],[-120.1093573,45.7800432],[-120.1344387,45.7780412],[-120.138524,45.7758765],[-120.1469387,45.7738746],[-120.151024,45.7717099],[-120.1594387,45.7697079],[-120.1635239,45.7675432],[-120.1677719,45.7655413],[-120.1801906,45.7550432],[-120.1844386,45.7530413],[-120.2010239,45.7383766],[-120.205272,45.7363746],[-120.2093572,45.7342099],[-120.2136053,45.7322079],[-120.2176906,45.7300432],[-120.2261053,45.7280413],[-120.2301906,45.7258765],[-120.2398401,45.7240357],[-120.2432241,45.7238129],[-120.277798,45.7251807],[-120.2843573,45.7217099],[-120.3011053,45.7197079],[-120.3051906,45.7175432],[-120.3219386,45.7155413],[-120.3260239,45.7133765],[-120.342772,45.7113746],[-120.3468572,45.7092099],[-120.3636053,45.7072079],[-120.3676905,45.7050432],[-120.3681954,45.7048834],[-120.3795345,45.7030969],[-120.3823147,45.7032081],[-120.3885647,45.7029599],[-120.4042506,45.7035824],[-120.4093572,45.7008765],[-120.4427719,45.6988746],[-120.4468572,45.6967099],[-120.4646063,45.6957089],[-120.4833419,45.6946821],[-120.4851394,45.6951104],[-120.4906074,45.6988746],[-120.4990221,45.7008766],[-120.5031074,45.7030413],[-120.5073554,45.7050432],[-120.5114407,45.707208],[-120.5156888,45.7092099],[-120.5239408,45.7155413],[-120.5281888,45.7175433],[-120.5406074,45.7280413],[-120.5448555,45.7300432],[-120.5531074,45.7363746],[-120.5573554,45.7383766],[-120.5614407,45.7405413],[-120.5698554,45.7425432],[-120.5739407,45.7447079],[-120.586522,45.7467099],[-120.5906073,45.7488746],[-120.622317,45.7508765],[-120.6301905,45.7467099],[-120.6427718,45.7447079],[-120.6468571,45.7425432],[-120.6511051,45.7405413],[-120.6562724,45.7373758],[-120.655419,45.7363851],[-120.6554131,45.7363783],[-120.6688689,45.7301467],[-120.670322,45.7291332],[-120.6878527,45.716905],[-120.6893699,45.7158467],[-120.6893708,45.7158465],[-120.6898112,45.7157275],[-120.6927602,45.7149309],[-120.7036913,45.711978],[-120.723395,45.7066553],[-120.7241709,45.7064457],[-120.7241747,45.7064445],[-120.7887256,45.6862914],[-120.7888719,45.6862457],[-120.7934715,45.6852335],[-120.8361414,45.6758432],[-120.8484589,45.6731325],[-120.8556739,45.6715447],[-120.8700418,45.6612418],[-120.8745937,45.6579799],[-120.8810994,45.6533179],[-120.8852724,45.6503275],[-120.8856159,45.6500813],[-120.8923219,45.6452758],[-120.8955747,45.6429449],[-120.8955749,45.6429447],[-120.9050957,45.6414023],[-120.9134728,45.6400452],[-120.9134761,45.6400447],[-120.9142711,45.6404753],[-120.9157953,45.641301],[-120.9158761,45.6413447],[-120.9235999,45.6454951],[-120.9386484,45.6535814],[-120.9439771,45.6564447],[-120.953077,45.6567447],[-120.9779779,45.6493447],[-120.9781848,45.6493071],[-120.9832809,45.6483796],[-120.983478,45.6483437],[-120.9885415,45.649373],[-120.9942945,45.6505426],[-121.007449,45.6532167],[-121.033582,45.6509977],[-121.0453988,45.651593],[-121.06437,45.6525487],[-121.0714533,45.6509448],[-121.0849329,45.6478927],[-121.0849356,45.6478908],[-121.1035159,45.6347961],[-121.1200636,45.6231339],[-121.1188691,45.6211442],[-121.1180273,45.6197422],[-121.1177771,45.6193253],[-121.1170516,45.6181169],[-121.1200859,45.6169085],[-121.1215339,45.6163319],[-121.1221999,45.6160667],[-121.1232395,45.6153947],[-121.1237936,45.6150364],[-121.1249964,45.6142589],[-121.1292281,45.6115232],[-121.131953,45.6097617],[-121.1380141,45.6115325],[-121.1394829,45.6119617],[-121.1405602,45.611236],[-121.1436626,45.6091463],[-121.1455339,45.6078857],[-121.1556235,45.6070774],[-121.1661171,45.6062367],[-121.167852,45.6060977],[-121.170475,45.606154],[-121.1838411,45.6064407],[-121.1918832,45.6129225],[-121.1934904,45.6142178],[-121.1965563,45.6166889],[-121.1961495,45.620632],[-121.1952515,45.6293365],[-121.1952333,45.629513],[-121.1959095,45.6321888],[-121.1966314,45.6350456],[-121.1973114,45.6377365],[-121.2001774,45.6490773],[-121.2003673,45.6498289],[-121.2048084,45.6559981],[-121.2050667,45.6563568],[-121.2113865,45.6651358],[-121.2099589,45.6657126],[-121.2129175,45.6691058]],[[-119.3197945,46.7633966],[-119.3240018,46.7571873],[-119.334089,46.7334282],[-119.3985016,46.7321139],[-119.4115022,46.7342298],[-119.4169464,46.7370333],[-119.4302112,46.7258965],[-119.4383492,46.7219496],[-119.4552639,46.7030045],[-119.4530829,46.6987727],[-119.456273,46.6957088],[-119.4529568,46.6906918],[-119.4521064,46.6852924],[-119.3974232,46.6720478],[-119.378128,46.6696878],[-119.367752,46.6675638],[-119.3414663,46.6654194],[-119.3257111,46.6657409],[-119.293395,46.6698709],[-119.2781484,46.6695617],[-119.2540884,46.670054],[-119.2044995,46.6815896],[-119.1855258,46.6892882],[-119.1823357,46.6926044],[-119.1718783,46.6988137],[-119.1697258,46.7010557],[-119.1614616,46.7050637],[-119.159419,46.7071877],[-119.1531283,46.7113137],[-119.1510857,46.7134377],[-119.1489617,46.7154803],[-119.1469191,46.7196877],[-119.144795,46.7217303],[-119.1427524,46.7238544],[-119.1406284,46.725897],[-119.1385857,46.728021],[-119.1364617,46.7300636],[-119.1344191,46.7363544],[-119.1302117,46.738397],[-119.128169,46.740521],[-119.126045,46.7425637],[-119.1240024,46.7446877],[-119.1218784,46.7467303],[-119.1198358,46.753021],[-119.1177117,46.7550637],[-119.1156691,46.7571877],[-119.1135451,46.7592303],[-119.1115025,46.7696876],[-119.1093784,46.7717303],[-119.1073359,46.7781428],[-119.1115025,46.7821466],[-119.1135451,46.792604],[-119.1156691,46.7946466],[-119.1177117,46.7988539],[-119.1198357,46.8008966],[-119.1218784,46.8030206],[-119.1240024,46.8050633],[-119.1260451,46.8092706],[-119.1281691,46.8113133],[-119.1302117,46.8196872],[-119.134419,46.8217298],[-119.1364617,46.8238539],[-119.1385857,46.8258965],[-119.1406284,46.8280206],[-119.1427524,46.8300632],[-119.144795,46.8321872],[-119.146919,46.8342299],[-119.1489617,46.8363539],[-119.1510857,46.8383965],[-119.1533521,46.8407525],[-119.1772656,46.8523532],[-119.1969189,46.8571465],[-119.2036531,46.8594495],[-119.2198356,46.8633965],[-119.2218783,46.8655206],[-119.2240759,46.8676327],[-119.2115715,46.8736956],[-119.2104405,46.8748754],[-119.2114412,46.8759575],[-119.2278106,46.8779594],[-119.2406076,46.8675428],[-119.2606801,46.8648003],[-119.3022897,46.845676],[-119.3041898,46.8436253],[-119.3052477,46.790655],[-119.3147164,46.77114],[-119.3197945,46.7633966]]],[[[-119.4305732,48.9443246],[-119.4222399,48.9351286],[-119.4236396,48.9193244],[-119.4264066,48.9158413],[-119.4271065,48.9123741],[-119.43837,48.9228115],[-119.440608,48.9322068],[-119.4493318,48.9429245],[-119.4573559,48.9467087],[-119.4614411,48.9488734],[-119.4656892,48.9508753],[-119.4697744,48.95304],[-119.4823558,48.955042],[-119.4906078,48.9613734],[-119.4948559,48.9633753],[-119.5011449,48.9686915],[-119.5026257,48.9704708],[-119.5035759,48.9707463],[-119.5076652,48.974203],[-119.5124869,48.9844161],[-119.5545888,48.9827478],[-119.5614411,48.9863733],[-119.5698558,48.9883753],[-119.5739411,48.99054],[-119.5931507,48.9925419],[-119.6010242,48.9883753],[-119.6177722,48.9863733],[-119.6218575,48.9842086],[-119.6302722,48.9822067],[-119.63544,48.9790409],[-119.6531077,48.9947067],[-119.6594392,48.9967087],[-119.6599117,49.0002588],[-119.6518985,49.0002589],[-119.5185062,49.0002606],[-119.4964194,49.0002608],[-119.4583212,49.0002613],[-119.4577,49.0002613],[-119.4500017,49.0002592],[-119.4427472,49.0002572],[-119.442747,49.0002546],[-119.4426907,48.9988329],[-119.4428494,48.9947762],[-119.4406074,48.9905404],[-119.438577,48.97778],[-119.4354397,48.9748747],[-119.4347399,48.9589079],[-119.431973,48.9533415],[-119.4305732,48.9443246]]]]}
}
