{"type":"Feature","geometry":{"type":"Polygon","coordinates":[[[-121.34287,48.16825],[-121.34346,48.16875],[-121.35764,48.16877],[-121.35765,48.16586],[-121.37519,48.1648],[-121.37624,48.16444],[-121.39442,48.15768],[-121.39465,48.15704],[-121.39455,48.15566],[-121.39349,48.15437],[-121.39379,48.15336],[-121.39319,48.15239],[-121.3935,48.1513],[-121.39339,48.15047],[-121.39221,48.14894],[-121.39178,48.14859],[-121.39098,48.14828],[-121.38898,48.14788],[-121.38682,48.14793],[-121.38447,48.14719],[-121.38257,48.14717],[-121.38063,48.14492],[-121.38021,48.14413],[-121.37974,48.14386],[-121.37767,48.14373],[-121.37643,48.14336],[-121.37618,48.14353],[-121.37534,48.14356],[-121.37452,48.14329],[-121.37389,48.14253],[-121.37361,48.14191],[-121.37384,48.141],[-121.37349,48.13955],[-121.37348,48.13883],[-121.3737,48.13846],[-121.37363,48.13813],[-121.37299,48.1377],[-121.37271,48.13708],[-121.37079,48.13596],[-121.36953,48.13436],[-121.36716,48.13303],[-121.36676,48.13237],[-121.36702,48.13162],[-121.36731,48.13153],[-121.36742,48.13129],[-121.3668,48.12997],[-121.36639,48.12952],[-121.3656,48.12932],[-121.36469,48.12813],[-121.36488,48.12572],[-121.36371,48.1229],[-121.3626,48.1217],[-121.36269,48.12102],[-121.3625,48.11971],[-121.36281,48.11914],[-121.36289,48.1186],[-121.36262,48.11776],[-121.36226,48.11741],[-121.36185,48.11649],[-121.36167,48.11571],[-121.36121,48.11524],[-121.36111,48.11451],[-121.36021,48.1135],[-121.35917,48.11277],[-121.35862,48.11213],[-121.35623,48.11094],[-121.35458,48.11051],[-121.35266,48.11056],[-121.35153,48.11092],[-121.34959,48.11062],[-121.34858,48.10981],[-121.34812,48.10868],[-121.34727,48.10839],[-121.34566,48.1092],[-121.34379,48.10941],[-121.34253,48.11009],[-121.34163,48.11036],[-121.34053,48.11048],[-121.33901,48.11031],[-121.33834,48.11088],[-121.33686,48.11146],[-121.33487,48.11261],[-121.33424,48.1128],[-121.3331,48.11283],[-121.33263,48.11303],[-121.33224,48.11326],[-121.33183,48.11384],[-121.33119,48.1141],[-121.32743,48.11464],[-121.32488,48.11456],[-121.32314,48.11495],[-121.31977,48.11531],[-121.31909,48.11648],[-121.31781,48.11734],[-121.3168,48.11781],[-121.31485,48.11744],[-121.31306,48.11733],[-121.3122,48.11745],[-121.31007,48.11717],[-121.3103,48.11567],[-121.30988,48.11322],[-121.30985,48.11163],[-121.30955,48.10948],[-121.27956,48.0884],[-121.27885,48.08729],[-121.27773,48.08635],[-121.27748,48.08504],[-121.2746,48.08427],[-121.27315,48.08365],[-121.27176,48.08145],[-121.26957,48.07985],[-121.26805,48.07814],[-121.26602,48.07642],[-121.26554,48.07578],[-121.26655,48.07492],[-121.26749,48.0745],[-121.26969,48.07404],[-121.27063,48.07396],[-121.27378,48.07483],[-121.27462,48.07455],[-121.27545,48.07394],[-121.27677,48.07236],[-121.27771,48.0716],[-121.27971,48.07081],[-121.28137,48.07086],[-121.28137,48.06678],[-121.28301,48.06666],[-121.2842,48.06606],[-121.28617,48.0654],[-121.28711,48.0656],[-121.28788,48.06637],[-121.28856,48.0665],[-121.28883,48.0664],[-121.28909,48.066],[-121.28922,48.06503],[-121.28897,48.06242],[-121.29101,48.06212],[-121.29086,48.06138],[-121.29013,48.06066],[-121.28764,48.05916],[-121.28711,48.0584],[-121.28583,48.05755],[-121.28743,48.05641],[-121.28691,48.05607],[-121.28655,48.05508],[-121.28582,48.05494],[-121.28448,48.05425],[-121.28324,48.05398],[-121.28139,48.05311],[-121.2814,48.04201],[-121.2747,48.03907],[-121.27529,48.03832],[-121.27538,48.03748],[-121.27624,48.03635],[-121.27614,48.03597],[-121.27525,48.03484],[-121.27492,48.03373],[-121.27454,48.0334],[-121.27137,48.03183],[-121.26862,48.03103],[-121.2663,48.02991],[-121.2649,48.0296],[-121.26378,48.02973],[-121.26219,48.02916],[-121.26134,48.02852],[-121.26021,48.02697],[-121.25919,48.02651],[-121.25833,48.02629],[-121.25578,48.0264],[-121.2529,48.02575],[-121.25116,48.02413],[-121.25064,48.02318],[-121.24954,48.02179],[-121.24745,48.02044],[-121.24567,48.01982],[-121.24447,48.01977],[-121.24136,48.0185],[-121.23923,48.01719],[-121.2367,48.016],[-121.23566,48.01519],[-121.23317,48.01379],[-121.23038,48.01268],[-121.22949,48.01194],[-121.2293,48.01145],[-121.22821,48.01097],[-121.22746,48.01022],[-121.22476,48.00863],[-121.22338,48.00833],[-121.22282,48.00792],[-121.22053,48.00785],[-121.21919,48.00809],[-121.21837,48.00843],[-121.21804,48.00832],[-121.2168,48.007],[-121.21576,48.00629],[-121.21053,48.0054],[-121.20929,48.00556],[-121.20826,48.00607],[-121.20675,48.00629],[-121.20479,48.00621],[-121.20225,48.00586],[-121.19631,48.00662],[-121.19234,48.00608],[-121.19258,47.97658],[-121.1909,47.97731],[-121.19046,47.97734],[-121.18992,47.97723],[-121.18755,47.97614],[-121.18505,47.97622],[-121.18411,47.97641],[-121.18127,47.97561],[-121.17774,47.97591],[-121.17732,47.97623],[-121.17667,47.97719],[-121.17645,47.97791],[-121.17575,47.97806],[-121.17465,47.97906],[-121.17463,47.97942],[-121.17493,47.97995],[-121.17489,47.98027],[-121.17443,47.98098],[-121.17301,47.98126],[-121.17182,47.98178],[-121.17092,47.98258],[-121.16907,47.98296],[-121.16855,47.98361],[-121.16848,47.98411],[-121.16806,47.98452],[-121.16695,47.98512],[-121.16592,47.98606],[-121.16385,47.98648],[-121.1626,47.98604],[-121.16058,47.986],[-121.15719,47.98546],[-121.1534,47.98439],[-121.15256,47.98436],[-121.15042,47.98225],[-121.14753,47.98099],[-121.14674,47.9816],[-121.14415,47.98188],[-121.14277,47.98286],[-121.14156,47.9833],[-121.13967,47.98322],[-121.13851,47.98337],[-121.13803,47.9833],[-121.13671,47.98268],[-121.13564,47.98283],[-121.13513,47.98393],[-121.13507,47.98513],[-121.13494,47.98535],[-121.13167,47.98625],[-121.12988,47.98746],[-121.12838,47.98673],[-121.12678,47.98636],[-121.11378,47.98465],[-121.11009,47.98456],[-121.10905,47.98426],[-121.10703,47.98264],[-121.10632,47.9819],[-121.10504,47.98176],[-121.10512,47.9813],[-121.1049,47.98071],[-121.10418,47.97968],[-121.1032,47.97893],[-121.10137,47.97817],[-121.09941,47.97781],[-121.09375,47.9773],[-121.08949,47.97509],[-121.08918,47.97485],[-121.089,47.97419],[-121.08843,47.97349],[-121.08685,47.97255],[-121.08613,47.97111],[-121.08348,47.96885],[-121.07765,47.96508],[-121.07591,47.96459],[-121.07406,47.96352],[-121.07406,47.96192],[-121.07386,47.96105],[-121.07256,47.95863],[-121.0731,47.95613],[-121.07283,47.95515],[-121.07286,47.95441],[-121.07256,47.95346],[-121.07277,47.95262],[-121.07243,47.95093],[-121.07272,47.94977],[-121.07268,47.94912],[-121.07252,47.94882],[-121.07174,47.9478],[-121.07048,47.94693],[-121.06899,47.94619],[-121.06612,47.94544],[-121.06419,47.94403],[-121.06261,47.94147],[-121.06116,47.94011],[-121.06101,47.93943],[-121.06001,47.93863],[-121.06001,47.93843],[-121.06053,47.93803],[-121.06083,47.93708],[-121.06174,47.93582],[-121.06163,47.93404],[-121.06097,47.93247],[-121.06074,47.93227],[-121.06086,47.93037],[-121.06192,47.92917],[-121.06218,47.92857],[-121.06183,47.92736],[-121.06176,47.92592],[-121.06178,47.92552],[-121.06225,47.92439],[-121.06226,47.92295],[-121.06201,47.92239],[-121.06213,47.92129],[-121.0612,47.91952],[-121.06236,47.91777],[-121.06249,47.91682],[-121.06207,47.91566],[-121.06032,47.91378],[-121.05857,47.91284],[-121.05751,47.91273],[-121.05694,47.91251],[-121.05658,47.91211],[-121.05605,47.91051],[-121.05559,47.90999],[-121.05156,47.90806],[-121.04707,47.90564],[-121.0439,47.90351],[-121.03907,47.90136],[-121.03786,47.90095],[-121.03408,47.90018],[-121.0294,47.90024],[-121.02731,47.89943],[-121.02443,47.89746],[-121.02336,47.89718],[-121.02078,47.89734],[-121.01839,47.89702],[-121.01737,47.89706],[-121.01621,47.89779],[-121.01115,47.89598],[-121.00989,47.89578],[-121.00941,47.8955],[-121.00816,47.89522],[-121.00672,47.89413],[-121.00606,47.89268],[-121.00486,47.89196],[-121.00301,47.89148],[-121.00013,47.89121],[-120.99888,47.89083],[-120.99656,47.8906],[-120.9932,47.89096],[-120.99115,47.89163],[-120.99008,47.8911],[-120.97608,47.89112],[-120.97462,47.89128],[-120.97367,47.89112],[-120.97332,47.89088],[-120.9716,47.89084],[-120.97045,47.89191],[-120.97039,47.89269],[-120.9706,47.89366],[-120.97028,47.89465],[-120.96815,47.89553],[-120.96758,47.89597],[-120.96658,47.897],[-120.9665,47.8981],[-120.96444,47.8995],[-120.96378,47.90018],[-120.963,47.90155],[-120.96244,47.90183],[-120.96014,47.9021],[-120.95929,47.9024],[-120.95623,47.90414],[-120.95477,47.90462],[-120.95434,47.90512],[-120.95347,47.90553],[-120.95325,47.90654],[-120.95328,47.90853],[-120.95386,47.90898],[-120.95422,47.90961],[-120.95436,47.91104],[-120.95367,47.91298],[-120.95362,47.91424],[-120.95303,47.91543],[-120.95296,47.91605],[-120.95149,47.91806],[-120.95147,47.91858],[-120.95107,47.91858],[-120.95091,47.91879],[-120.95087,47.91943],[-120.95129,47.92074],[-120.95122,47.92175],[-120.95087,47.92272],[-120.95086,47.92406],[-120.9503,47.92465],[-120.95011,47.92715],[-120.95044,47.92778],[-120.9475,47.93173],[-120.94682,47.93338],[-120.94576,47.93415],[-120.94458,47.93457],[-120.94439,47.93719],[-120.94282,47.93766],[-120.94171,47.93734],[-120.94074,47.93742],[-120.94021,47.93769],[-120.9395,47.93849],[-120.93769,47.93862],[-120.93641,47.93922],[-120.93527,47.94012],[-120.93398,47.94065],[-120.9318,47.94011],[-120.92937,47.94042],[-120.9316,47.94174],[-120.93174,47.9429],[-120.93141,47.94378],[-120.93158,47.94408],[-120.93229,47.94451],[-120.93363,47.94498],[-120.9358,47.94544],[-120.93655,47.94575],[-120.93692,47.94625],[-120.93664,47.94801],[-120.93801,47.94887],[-120.93933,47.94928],[-120.94014,47.95032],[-120.94127,47.95131],[-120.94136,47.95157],[-120.94106,47.95273],[-120.93966,47.95319],[-120.93955,47.9535],[-120.94044,47.95476],[-120.94049,47.95515],[-120.94016,47.95576],[-120.94018,47.95621],[-120.94173,47.95821],[-120.94182,47.95917],[-120.94222,47.95974],[-120.94291,47.96037],[-120.94382,47.96076],[-120.94554,47.96228],[-120.94556,47.96322],[-120.94507,47.96382],[-120.94508,47.96406],[-120.94614,47.96583],[-120.94536,47.96746],[-120.94399,47.9694],[-120.94381,47.97057],[-120.94362,47.97079],[-120.94189,47.97194],[-120.94165,47.97239],[-120.94092,47.97307],[-120.93978,47.97384],[-120.93888,47.97412],[-120.93815,47.97473],[-120.93767,47.97555],[-120.93616,47.97735],[-120.93532,47.97743],[-120.9334,47.97852],[-120.93244,47.97889],[-120.93099,47.97885],[-120.93044,47.97918],[-120.9293,47.97937],[-120.92768,47.98002],[-120.9238,47.98064],[-120.92205,47.97981],[-120.92148,47.97909],[-120.92172,47.97763],[-120.92143,47.97626],[-120.92118,47.97582],[-120.92083,47.97435],[-120.92052,47.97382],[-120.92034,47.97262],[-120.91909,47.97093],[-120.91968,47.97044],[-120.91992,47.96979],[-120.92004,47.96906],[-120.91986,47.96805],[-120.91902,47.96735],[-120.91844,47.96709],[-120.91778,47.9663],[-120.9177,47.96591],[-120.91686,47.96559],[-120.91546,47.9646],[-120.91475,47.96308],[-120.91403,47.96199],[-120.91373,47.96107],[-120.91298,47.96053],[-120.91219,47.96033],[-120.912,47.95956],[-120.9113,47.95837],[-120.90971,47.95701],[-120.90952,47.95668],[-120.90821,47.95657],[-120.90672,47.95588],[-120.9057,47.95583],[-120.90543,47.95566],[-120.90541,47.95532],[-120.90508,47.95501],[-120.90543,47.95403],[-120.90547,47.95347],[-120.90503,47.9513],[-120.90319,47.9502],[-120.90312,47.94955],[-120.9025,47.94795],[-120.90158,47.9473],[-120.90027,47.94687],[-120.89962,47.94681],[-120.89848,47.94634],[-120.89816,47.9457],[-120.89823,47.94371],[-120.89713,47.94235],[-120.89658,47.942],[-120.89619,47.94106],[-120.89562,47.94078],[-120.89466,47.93959],[-120.89455,47.93874],[-120.89438,47.93849],[-120.89318,47.93749],[-120.89298,47.93715],[-120.89277,47.93603],[-120.89234,47.93557],[-120.89269,47.93487],[-120.89264,47.93467],[-120.89229,47.93402],[-120.89174,47.93354],[-120.8915,47.93286],[-120.89011,47.93193],[-120.88274,47.92568],[-120.88165,47.92515],[-120.87906,47.92304],[-120.87608,47.92103],[-120.87549,47.91992],[-120.8746,47.91907],[-120.87464,47.91874],[-120.87494,47.91836],[-120.87493,47.91799],[-120.87457,47.91734],[-120.87448,47.91674],[-120.87366,47.91598],[-120.87371,47.91558],[-120.87309,47.91443],[-120.87192,47.91319],[-120.87024,47.91231],[-120.86971,47.91159],[-120.86934,47.91048],[-120.86801,47.90962],[-120.86776,47.90913],[-120.86641,47.90748],[-120.86435,47.90665],[-120.86275,47.90421],[-120.86191,47.90379],[-120.86114,47.90365],[-120.85976,47.90274],[-120.85896,47.90115],[-120.85907,47.90053],[-120.85881,47.9001],[-120.85869,47.89928],[-120.85821,47.89881],[-120.85565,47.89768],[-120.85521,47.89726],[-120.85519,47.89682],[-120.85409,47.89631],[-120.85229,47.8947],[-120.8503,47.89344],[-120.8492,47.89223],[-120.84866,47.89215],[-120.84796,47.89165],[-120.84701,47.89081],[-120.84661,47.8901],[-120.8453,47.88964],[-120.84461,47.88913],[-120.84334,47.88732],[-120.84184,47.88652],[-120.84046,47.88509],[-120.83989,47.88488],[-120.83899,47.88413],[-120.83757,47.88384],[-120.83746,47.88364],[-120.82921,47.88892],[-120.82716,47.89085],[-120.82552,47.89298],[-120.82459,47.89447],[-120.82247,47.89602],[-120.81343,47.90018],[-120.81262,47.90072],[-120.80731,47.90139],[-120.8077,47.90155],[-120.8074,47.90312],[-120.80852,47.90383],[-120.80797,47.90438],[-120.8078,47.90484],[-120.80833,47.90658],[-120.81016,47.91041],[-120.81097,47.91139],[-120.81182,47.9113],[-120.81342,47.91153],[-120.81486,47.91204],[-120.81601,47.91335],[-120.81889,47.91521],[-120.81951,47.91615],[-120.81965,47.91732],[-120.82103,47.91866],[-120.82176,47.92058],[-120.82189,47.92151],[-120.82241,47.92171],[-120.82334,47.92249],[-120.8234,47.92273],[-120.82305,47.92375],[-120.82357,47.92476],[-120.83004,47.92821],[-120.83006,47.92868],[-120.83045,47.92976],[-120.83172,47.93181],[-120.83239,47.93197],[-120.83447,47.93383],[-120.83498,47.93598],[-120.83564,47.93682],[-120.83699,47.93687],[-120.83709,47.93724],[-120.83757,47.93764],[-120.83798,47.93832],[-120.83826,47.9398],[-120.83957,47.93998],[-120.84054,47.94053],[-120.84081,47.94094],[-120.84297,47.94093],[-120.84375,47.94136],[-120.84469,47.94165],[-120.84568,47.94232],[-120.84769,47.94259],[-120.84858,47.94326],[-120.84879,47.94383],[-120.84877,47.94507],[-120.84983,47.94578],[-120.84975,47.94633],[-120.84933,47.94705],[-120.84935,47.94765],[-120.8503,47.94856],[-120.85118,47.94906],[-120.85156,47.95036],[-120.85213,47.95158],[-120.85305,47.95212],[-120.85226,47.95452],[-120.85143,47.95525],[-120.85048,47.95559],[-120.84778,47.95576],[-120.84466,47.9556],[-120.84368,47.95585],[-120.84267,47.95558],[-120.84024,47.95591],[-120.83837,47.95579],[-120.83809,47.95595],[-120.83725,47.95688],[-120.8368,47.95805],[-120.83602,47.9583],[-120.83384,47.96062],[-120.83392,47.96157],[-120.83434,47.96211],[-120.83434,47.96254],[-120.83561,47.9672],[-120.83736,47.96688],[-120.84035,47.9674],[-120.84284,47.96751],[-120.84415,47.9678],[-120.84442,47.96793],[-120.84493,47.96863],[-120.84573,47.96904],[-120.84619,47.96974],[-120.84795,47.97032],[-120.85112,47.97226],[-120.85172,47.97293],[-120.85083,47.97364],[-120.84725,47.97506],[-120.8486,47.97757],[-120.84913,47.97824],[-120.84958,47.9783],[-120.85006,47.97812],[-120.85027,47.97795],[-120.8503,47.97756],[-120.85049,47.97747],[-120.85225,47.97809],[-120.85381,47.97805],[-120.85532,47.97767],[-120.85741,47.97807],[-120.85926,47.97765],[-120.8614,47.97786],[-120.86271,47.97826],[-120.86439,47.97821],[-120.86489,47.97932],[-120.86561,47.98035],[-120.86753,47.98162],[-120.86879,47.98368],[-120.87015,47.98451],[-120.87046,47.98555],[-120.87029,47.98596],[-120.87101,47.98659],[-120.87069,47.98713],[-120.87141,47.98866],[-120.87132,47.98943],[-120.87178,47.98979],[-120.87197,47.99075],[-120.87242,47.99169],[-120.87261,47.99249],[-120.87308,47.9931],[-120.87412,47.99376],[-120.87419,47.99442],[-120.87502,47.99538],[-120.87545,47.99661],[-120.87525,47.99715],[-120.87563,47.99718],[-120.87725,47.9984],[-120.87744,47.9992],[-120.87855,47.99983],[-120.87921,48.00086],[-120.88051,48.00232],[-120.88059,48.0031],[-120.88041,48.00423],[-120.88097,48.0058],[-120.88066,48.00638],[-120.88037,48.00827],[-120.87931,48.01],[-120.87941,48.0109],[-120.87978,48.01139],[-120.87842,48.01214],[-120.87569,48.01332],[-120.8684,48.01549],[-120.86514,48.01627],[-120.86154,48.01681],[-120.86006,48.01721],[-120.85865,48.01715],[-120.85679,48.01676],[-120.85476,48.01624],[-120.85156,48.01507],[-120.84916,48.01479],[-120.84718,48.01396],[-120.84608,48.01368],[-120.84255,48.01315],[-120.83936,48.01187],[-120.83346,48.01296],[-120.82984,48.01325],[-120.82886,48.01361],[-120.82812,48.01433],[-120.82881,48.01495],[-120.82906,48.01543],[-120.82975,48.01563],[-120.83024,48.01637],[-120.83049,48.01717],[-120.83115,48.01763],[-120.83122,48.01784],[-120.82979,48.01841],[-120.82981,48.01869],[-120.83034,48.01901],[-120.83026,48.01924],[-120.82904,48.01957],[-120.82857,48.02004],[-120.82752,48.02054],[-120.82715,48.0211],[-120.82718,48.02166],[-120.82822,48.02247],[-120.82874,48.02371],[-120.82992,48.02475],[-120.82984,48.02533],[-120.82927,48.02621],[-120.82927,48.02761],[-120.83016,48.02877],[-120.83027,48.02971],[-120.83111,48.03026],[-120.83153,48.03095],[-120.83154,48.03196],[-120.83115,48.03319],[-120.8311,48.03442],[-120.83183,48.035],[-120.83183,48.03526],[-120.83146,48.03535],[-120.83145,48.03555],[-120.83243,48.03615],[-120.83337,48.03748],[-120.83351,48.03866],[-120.83317,48.03946],[-120.83449,48.04033],[-120.8345,48.04085],[-120.83366,48.04174],[-120.83341,48.04245],[-120.8334,48.04311],[-120.83453,48.04326],[-120.83511,48.04366],[-120.83625,48.04401],[-120.8366,48.04427],[-120.83645,48.04499],[-120.83556,48.04539],[-120.83553,48.04573],[-120.83592,48.04656],[-120.83529,48.04699],[-120.8353,48.04725],[-120.8356,48.04768],[-120.83728,48.04825],[-120.83857,48.0491],[-120.83901,48.04962],[-120.83915,48.05006],[-120.83867,48.05053],[-120.83901,48.05145],[-120.83825,48.05183],[-120.83927,48.05258],[-120.8395,48.05394],[-120.84013,48.05542],[-120.8401,48.05654],[-120.84065,48.05712],[-120.84086,48.05826],[-120.84136,48.05861],[-120.84216,48.05863],[-120.8424,48.05881],[-120.84232,48.05967],[-120.84295,48.06043],[-120.84297,48.06078],[-120.84262,48.0614],[-120.84186,48.06207],[-120.84189,48.06229],[-120.84234,48.06312],[-120.84349,48.06419],[-120.84378,48.06534],[-120.84487,48.06566],[-120.84581,48.06635],[-120.84681,48.0666],[-120.84733,48.06689],[-120.84781,48.06756],[-120.84794,48.06834],[-120.84951,48.06824],[-120.85062,48.06844],[-120.8513,48.0687],[-120.85193,48.0695],[-120.85316,48.06995],[-120.85397,48.07175],[-120.85488,48.07245],[-120.85442,48.07303],[-120.8544,48.07345],[-120.85574,48.07433],[-120.85535,48.07533],[-120.85615,48.07673],[-120.85676,48.0771],[-120.85865,48.07744],[-120.85909,48.07775],[-120.85923,48.07807],[-120.85898,48.07882],[-120.8592,48.07981],[-120.85803,48.08094],[-120.85248,48.08561],[-120.84573,48.09062],[-120.84435,48.08945],[-120.84291,48.08898],[-120.84213,48.08922],[-120.84151,48.09007],[-120.83995,48.0913],[-120.8398,48.09214],[-120.83914,48.09319],[-120.83886,48.09412],[-120.83799,48.09534],[-120.83797,48.09654],[-120.83866,48.098],[-120.83852,48.09927],[-120.83866,48.09996],[-120.83937,48.10105],[-120.8399,48.1015],[-120.8407,48.10186],[-120.84175,48.10315],[-120.84184,48.10364],[-120.8421,48.10398],[-120.84327,48.10668],[-120.84385,48.10755],[-120.84456,48.10938],[-120.84562,48.11252],[-120.84601,48.11425],[-120.83082,48.1172],[-120.83045,48.11683],[-120.83074,48.11619],[-120.8304,48.11535],[-120.83053,48.1148],[-120.83041,48.11362],[-120.82987,48.11289],[-120.82902,48.11281],[-120.82952,48.11224],[-120.8296,48.11174],[-120.82945,48.11069],[-120.82819,48.10912],[-120.82722,48.10842],[-120.82538,48.10801],[-120.82352,48.1077],[-120.82242,48.10805],[-120.82186,48.10785],[-120.82195,48.10679],[-120.82143,48.10641],[-120.82177,48.10594],[-120.82176,48.10553],[-120.82233,48.10509],[-120.82208,48.10371],[-120.82189,48.10344],[-120.8225,48.10291],[-120.82251,48.10239],[-120.82233,48.10197],[-120.82241,48.10129],[-120.82221,48.10081],[-120.82113,48.10006],[-120.81966,48.09934],[-120.81847,48.09939],[-120.81677,48.09917],[-120.81529,48.09863],[-120.81409,48.09842],[-120.81368,48.09816],[-120.81381,48.09777],[-120.81355,48.09749],[-120.81436,48.09674],[-120.81799,48.09591],[-120.81853,48.09551],[-120.81863,48.09479],[-120.81817,48.09397],[-120.8184,48.09338],[-120.81798,48.09308],[-120.81875,48.09289],[-120.81892,48.09271],[-120.81875,48.09182],[-120.81784,48.09103],[-120.81649,48.09049],[-120.81404,48.08904],[-120.81297,48.08805],[-120.81221,48.08705],[-120.81112,48.08664],[-120.80861,48.08625],[-120.8071,48.08647],[-120.80558,48.08698],[-120.80308,48.08837],[-120.80155,48.08665],[-120.80042,48.08286],[-120.79992,48.08227],[-120.7975,48.08023],[-120.79519,48.07916],[-120.79237,48.07623],[-120.79121,48.0754],[-120.79054,48.0745],[-120.78901,48.07369],[-120.78814,48.07203],[-120.78699,48.07109],[-120.78676,48.06928],[-120.78604,48.06811],[-120.78654,48.06667],[-120.78574,48.06266],[-120.78847,48.06145],[-120.79053,48.06013],[-120.79419,48.0582],[-120.79429,48.05802],[-120.79386,48.05734],[-120.79383,48.05691],[-120.79481,48.05574],[-120.79579,48.05296],[-120.79562,48.05213],[-120.79488,48.05108],[-120.79422,48.05062],[-120.79158,48.04963],[-120.79092,48.04907],[-120.79058,48.04822],[-120.79365,48.04477],[-120.79465,48.04246],[-120.79498,48.04115],[-120.79955,48.03927],[-120.79965,48.03878],[-120.79991,48.03853],[-120.79999,48.03762],[-120.80067,48.03641],[-120.79942,48.03417],[-120.79956,48.03305],[-120.7992,48.03128],[-120.79795,48.02978],[-120.7984,48.02893],[-120.79864,48.02776],[-120.79853,48.02724],[-120.79697,48.0253],[-120.7972,48.02318],[-120.79573,48.02196],[-120.7952,48.02123],[-120.79214,48.01881],[-120.79091,48.01887],[-120.789,48.0192],[-120.7838,48.02071],[-120.78001,48.02223],[-120.77621,48.02248],[-120.76876,48.0243],[-120.76751,48.02497],[-120.76683,48.02516],[-120.76422,48.02576],[-120.75963,48.0263],[-120.75555,48.02729],[-120.75353,48.02845],[-120.75282,48.02949],[-120.75183,48.03053],[-120.74805,48.03226],[-120.74644,48.0326],[-120.74066,48.0331],[-120.73238,48.03329],[-120.73081,48.03389],[-120.73038,48.03427],[-120.7294,48.03599],[-120.72854,48.03682],[-120.72802,48.03709],[-120.72534,48.03738],[-120.72221,48.03813],[-120.72085,48.03815],[-120.71944,48.03898],[-120.71834,48.03942],[-120.71551,48.03983],[-120.71507,48.04051],[-120.71477,48.04248],[-120.71452,48.04317],[-120.71458,48.04384],[-120.71409,48.04478],[-120.71366,48.04647],[-120.71385,48.04818],[-120.71368,48.04891],[-120.71309,48.05002],[-120.71316,48.05267],[-120.71173,48.05539],[-120.71104,48.05757],[-120.70951,48.05937],[-120.70881,48.05994],[-120.70731,48.0609],[-120.70594,48.06124],[-120.7068,48.06268],[-120.70698,48.06458],[-120.70644,48.06727],[-120.70576,48.0691],[-120.7055,48.06942],[-120.70448,48.06986],[-120.7,48.07105],[-120.6948,48.07159],[-120.69193,48.07211],[-120.691,48.07212],[-120.68746,48.07138],[-120.6858,48.07126],[-120.68349,48.07178],[-120.68178,48.07189],[-120.67902,48.07279],[-120.67586,48.07449],[-120.67545,48.07501],[-120.67198,48.07507],[-120.6708,48.07547],[-120.66768,48.07563],[-120.66707,48.07597],[-120.66664,48.0766],[-120.66513,48.07745],[-120.66368,48.07803],[-120.66313,48.07847],[-120.66246,48.07957],[-120.66236,48.08125],[-120.6627,48.08234],[-120.66266,48.08289],[-120.66158,48.08371],[-120.66107,48.08487],[-120.65851,48.0848],[-120.65482,48.08529],[-120.65453,48.08546],[-120.65453,48.08615],[-120.65403,48.08773],[-120.65504,48.08887],[-120.65513,48.08936],[-120.65364,48.09033],[-120.65352,48.09083],[-120.65392,48.09119],[-120.65582,48.0921],[-120.6565,48.09264],[-120.6567,48.093],[-120.65658,48.09473],[-120.65608,48.0965],[-120.65606,48.09718],[-120.6549,48.09789],[-120.65231,48.099],[-120.64988,48.10081],[-120.64852,48.10165],[-120.64734,48.10217],[-120.64645,48.10286],[-120.64503,48.10553],[-120.64581,48.10723],[-120.64574,48.10801],[-120.64409,48.11059],[-120.64348,48.11129],[-120.64155,48.11261],[-120.63812,48.11439],[-120.63521,48.11613],[-120.63451,48.11619],[-120.63293,48.11587],[-120.63174,48.11587],[-120.63004,48.1152],[-120.62916,48.11508],[-120.62824,48.11564],[-120.62752,48.11583],[-120.62661,48.11642],[-120.62598,48.11659],[-120.62604,48.11757],[-120.62523,48.11864],[-120.62504,48.11917],[-120.62441,48.12009],[-120.62453,48.12137],[-120.62435,48.1217],[-120.62428,48.1231],[-120.62405,48.12375],[-120.62345,48.12522],[-120.6223,48.12643],[-120.6214,48.12707],[-120.61828,48.12745],[-120.6176,48.1281],[-120.61681,48.12857],[-120.61616,48.12855],[-120.61533,48.1288],[-120.61288,48.12912],[-120.61122,48.12995],[-120.61041,48.13072],[-120.60769,48.13102],[-120.60705,48.13129],[-120.60681,48.13148],[-120.60663,48.13202],[-120.60695,48.13308],[-120.60688,48.1335],[-120.60482,48.13523],[-120.60368,48.13667],[-120.60348,48.13723],[-120.602,48.13632],[-120.59901,48.13625],[-120.59765,48.13707],[-120.59654,48.13814],[-120.59433,48.13913],[-120.59269,48.13888],[-120.59043,48.139],[-120.58742,48.1393],[-120.58661,48.13948],[-120.58582,48.1399],[-120.58227,48.13994],[-120.58161,48.14022],[-120.57889,48.14081],[-120.57559,48.142],[-120.57443,48.14265],[-120.57338,48.14286],[-120.57212,48.14344],[-120.57055,48.14345],[-120.56525,48.144],[-120.56189,48.1455],[-120.56065,48.14638],[-120.5596,48.14663],[-120.55797,48.14659],[-120.55703,48.14685],[-120.55037,48.1474],[-120.54554,48.14817],[-120.54009,48.14853],[-120.53877,48.14899],[-120.53716,48.1503],[-120.53609,48.15085],[-120.53465,48.1511],[-120.53067,48.15097],[-120.52819,48.15186],[-120.52771,48.1522],[-120.52974,48.15223],[-120.53072,48.15303],[-120.53208,48.15366],[-120.5347,48.15528],[-120.53544,48.15601],[-120.53652,48.15607],[-120.5368,48.15674],[-120.53758,48.1577],[-120.53861,48.15838],[-120.53909,48.15844],[-120.53953,48.15872],[-120.53985,48.15929],[-120.54025,48.15956],[-120.54047,48.16009],[-120.54118,48.16055],[-120.54131,48.16102],[-120.54202,48.16158],[-120.54208,48.16188],[-120.54241,48.16211],[-120.54368,48.16196],[-120.54382,48.16167],[-120.54427,48.16151],[-120.54516,48.16146],[-120.54596,48.16163],[-120.54641,48.16154],[-120.54673,48.16216],[-120.54779,48.16174],[-120.54823,48.16176],[-120.55009,48.162],[-120.55159,48.16264],[-120.55251,48.16241],[-120.55363,48.16172],[-120.55442,48.16164],[-120.55877,48.16268],[-120.56069,48.16349],[-120.56249,48.16382],[-120.5632,48.16421],[-120.56385,48.16489],[-120.56513,48.16553],[-120.56638,48.16581],[-120.56714,48.1662],[-120.56933,48.16652],[-120.57053,48.16699],[-120.57092,48.16703],[-120.57159,48.16658],[-120.57201,48.1657],[-120.57284,48.16472],[-120.57334,48.16507],[-120.57447,48.16539],[-120.57626,48.16556],[-120.57746,48.16593],[-120.57942,48.16594],[-120.58151,48.16677],[-120.582,48.1671],[-120.58392,48.16922],[-120.58423,48.16973],[-120.58428,48.17018],[-120.58504,48.17088],[-120.5862,48.17131],[-120.58805,48.1716],[-120.59096,48.17284],[-120.59446,48.17509],[-120.59657,48.17605],[-120.59796,48.1765],[-120.59855,48.1774],[-120.59927,48.178],[-120.60166,48.179],[-120.60278,48.18012],[-120.60328,48.18042],[-120.60397,48.18074],[-120.60547,48.18109],[-120.60561,48.18227],[-120.60582,48.18262],[-120.60864,48.18567],[-120.60983,48.1892],[-120.61048,48.19044],[-120.61153,48.18979],[-120.61223,48.19001],[-120.61306,48.18956],[-120.61385,48.18947],[-120.61401,48.18931],[-120.61389,48.18888],[-120.61411,48.18835],[-120.61494,48.18807],[-120.61544,48.1876],[-120.61775,48.18791],[-120.61821,48.18823],[-120.61851,48.18825],[-120.61964,48.18714],[-120.62129,48.18696],[-120.62201,48.18711],[-120.62304,48.18692],[-120.62358,48.18663],[-120.62416,48.18672],[-120.62487,48.18711],[-120.62811,48.18794],[-120.62876,48.18793],[-120.63171,48.1872],[-120.63287,48.18741],[-120.63488,48.18744],[-120.637,48.18786],[-120.63806,48.18834],[-120.63826,48.18874],[-120.63907,48.18898],[-120.64222,48.18901],[-120.64378,48.18862],[-120.64413,48.18872],[-120.64481,48.18931],[-120.64628,48.18925],[-120.64761,48.18957],[-120.65077,48.18894],[-120.65424,48.18925],[-120.6558,48.18828],[-120.65738,48.18769],[-120.65976,48.18778],[-120.66379,48.18739],[-120.66721,48.18664],[-120.66793,48.18723],[-120.66955,48.18713],[-120.66985,48.18676],[-120.67073,48.18645],[-120.67165,48.18695],[-120.67486,48.18735],[-120.67793,48.18658],[-120.67957,48.1868],[-120.68099,48.18733],[-120.68241,48.18689],[-120.68368,48.18676],[-120.68401,48.18642],[-120.68441,48.18653],[-120.68419,48.18675],[-120.68527,48.18677],[-120.68771,48.18714],[-120.68937,48.18794],[-120.69095,48.18797],[-120.69194,48.18862],[-120.69263,48.18878],[-120.69331,48.18882],[-120.69406,48.1885],[-120.69471,48.18843],[-120.6989,48.18913],[-120.70052,48.19001],[-120.70261,48.19077],[-120.70298,48.19071],[-120.70316,48.19041],[-120.70361,48.19044],[-120.70352,48.19071],[-120.70363,48.19074],[-120.70645,48.19076],[-120.70815,48.19122],[-120.70942,48.19181],[-120.71246,48.19239],[-120.71398,48.19335],[-120.71685,48.19391],[-120.71876,48.19377],[-120.72046,48.19435],[-120.72119,48.19429],[-120.72194,48.1938],[-120.72282,48.19368],[-120.72363,48.19406],[-120.72414,48.19462],[-120.72556,48.19461],[-120.72619,48.19484],[-120.72678,48.19468],[-120.72754,48.19483],[-120.72961,48.19453],[-120.73227,48.19447],[-120.73327,48.19426],[-120.73469,48.19485],[-120.73588,48.19458],[-120.73676,48.19481],[-120.73918,48.19474],[-120.7398,48.19502],[-120.74149,48.19706],[-120.74312,48.19722],[-120.74409,48.19679],[-120.74581,48.19354],[-120.74707,48.19169],[-120.74908,48.18926],[-120.75158,48.18663],[-120.75339,48.18548],[-120.75531,48.18472],[-120.75633,48.18383],[-120.75965,48.1823],[-120.76314,48.17969],[-120.7638,48.17939],[-120.76982,48.17928],[-120.7802,48.18098],[-120.79233,48.18261],[-120.79277,48.18317],[-120.79374,48.1852],[-120.7948,48.18619],[-120.79568,48.18754],[-120.79598,48.18875],[-120.79779,48.19],[-120.80007,48.19353],[-120.80163,48.197],[-120.79452,48.20225],[-120.79463,48.2099],[-120.79241,48.21443],[-120.79207,48.2162],[-120.79191,48.21889],[-120.79195,48.22035],[-120.79231,48.22149],[-120.78563,48.21941],[-120.78223,48.21801],[-120.78059,48.21759],[-120.7792,48.21656],[-120.77826,48.21612],[-120.77557,48.21554],[-120.77229,48.21455],[-120.77102,48.21372],[-120.76831,48.21155],[-120.76768,48.21121],[-120.767,48.21111],[-120.76599,48.21138],[-120.76208,48.2132],[-120.75768,48.21582],[-120.75491,48.21798],[-120.75136,48.22155],[-120.74767,48.22272],[-120.74369,48.22485],[-120.74121,48.22556],[-120.73869,48.22764],[-120.73896,48.22652],[-120.73883,48.22592],[-120.73816,48.2247],[-120.73728,48.22417],[-120.73379,48.223],[-120.7315,48.22122],[-120.73079,48.221],[-120.72852,48.2209],[-120.72797,48.22065],[-120.72733,48.22001],[-120.72683,48.21987],[-120.7252,48.22001],[-120.72379,48.21969],[-120.72324,48.21937],[-120.72243,48.21852],[-120.72179,48.21827],[-120.7209,48.21747],[-120.71994,48.21698],[-120.71849,48.21674],[-120.71456,48.21674],[-120.71205,48.21539],[-120.70928,48.21356],[-120.70429,48.21149],[-120.70122,48.21118],[-120.70024,48.21087],[-120.6993,48.21031],[-120.69707,48.20993],[-120.69478,48.21006],[-120.69207,48.21056],[-120.6903,48.21027],[-120.68905,48.21077],[-120.68636,48.2111],[-120.68149,48.21094],[-120.68117,48.21105],[-120.67927,48.21328],[-120.67697,48.21358],[-120.67569,48.2141],[-120.67574,48.21522],[-120.67464,48.21698],[-120.67409,48.21939],[-120.67307,48.22208],[-120.67249,48.22233],[-120.67128,48.22253],[-120.66914,48.22336],[-120.66683,48.22368],[-120.66527,48.22438],[-120.66492,48.22573],[-120.66503,48.22814],[-120.66477,48.23046],[-120.66426,48.23154],[-120.66338,48.23269],[-120.66277,48.23307],[-120.66098,48.23345],[-120.65936,48.23403],[-120.65816,48.23407],[-120.65763,48.23438],[-120.65703,48.23491],[-120.65464,48.23782],[-120.65421,48.23867],[-120.654,48.24032],[-120.65376,48.24095],[-120.65281,48.24205],[-120.64989,48.24404],[-120.64693,48.24691],[-120.64345,48.24887],[-120.64381,48.25024],[-120.64111,48.25272],[-120.64227,48.25626],[-120.65328,48.25845],[-120.65439,48.25796],[-120.65558,48.25767],[-120.65758,48.25665],[-120.65999,48.25495],[-120.66241,48.25419],[-120.66523,48.25223],[-120.66744,48.25128],[-120.66847,48.25059],[-120.6725,48.24872],[-120.67347,48.24857],[-120.6744,48.24814],[-120.67485,48.24752],[-120.67582,48.24691],[-120.67692,48.24649],[-120.67762,48.24587],[-120.67812,48.24573],[-120.68082,48.24609],[-120.68356,48.2461],[-120.68694,48.24647],[-120.68878,48.24691],[-120.69124,48.24818],[-120.69199,48.24867],[-120.69361,48.25094],[-120.69427,48.25236],[-120.69429,48.25308],[-120.69461,48.25375],[-120.69396,48.25509],[-120.69374,48.25635],[-120.69221,48.2581],[-120.6923,48.25854],[-120.6937,48.26036],[-120.69354,48.26125],[-120.69387,48.26164],[-120.69394,48.26222],[-120.69319,48.26322],[-120.69324,48.26421],[-120.69298,48.26472],[-120.69315,48.2651],[-120.69429,48.26616],[-120.69459,48.26668],[-120.69424,48.26786],[-120.6958,48.28217],[-120.69663,48.28321],[-120.6965,48.28403],[-120.69744,48.28545],[-120.6975,48.28579],[-120.69743,48.28617],[-120.69616,48.28801],[-120.69616,48.28826],[-120.69662,48.28885],[-120.69635,48.28942],[-120.69511,48.28969],[-120.69402,48.29067],[-120.69212,48.29061],[-120.69162,48.29153],[-120.69172,48.293],[-120.68993,48.29524],[-120.68841,48.29866],[-120.68738,48.2997],[-120.68698,48.30062],[-120.68556,48.30119],[-120.68488,48.30348],[-120.6848,48.30413],[-120.68504,48.30588],[-120.68477,48.30732],[-120.68287,48.30889],[-120.68358,48.30959],[-120.69176,48.31499],[-120.69399,48.31668],[-120.69791,48.3181],[-120.70072,48.31889],[-120.71226,48.3175],[-120.71606,48.31602],[-120.72007,48.31543],[-120.72291,48.31559],[-120.72424,48.31531],[-120.72594,48.31531],[-120.73109,48.31654],[-120.73006,48.31771],[-120.73005,48.32058],[-120.72913,48.32281],[-120.72915,48.32325],[-120.73197,48.32788],[-120.73199,48.34477],[-120.73564,48.34253],[-120.73692,48.34195],[-120.7385,48.34083],[-120.73955,48.34035],[-120.74166,48.33966],[-120.74315,48.3395],[-120.74414,48.33921],[-120.74556,48.33844],[-120.74941,48.3381],[-120.7531,48.336],[-120.75626,48.33817],[-120.75712,48.3447],[-120.76486,48.34832],[-120.76706,48.34767],[-120.7688,48.34738],[-120.7703,48.34737],[-120.77502,48.34628],[-120.77809,48.34618],[-120.78848,48.34266],[-120.79099,48.34208],[-120.79552,48.34168],[-120.79727,48.34057],[-120.7976,48.34001],[-120.79795,48.33975],[-120.80072,48.33865],[-120.80252,48.33942],[-120.80287,48.33982],[-120.80294,48.34025],[-120.80346,48.34103],[-120.80448,48.34185],[-120.80619,48.34394],[-120.80653,48.3446],[-120.8066,48.3451],[-120.80603,48.34584],[-120.80619,48.34598],[-120.80736,48.34622],[-120.80903,48.34617],[-120.80995,48.34631],[-120.81058,48.3466],[-120.81157,48.34748],[-120.81185,48.34815],[-120.81183,48.34875],[-120.81256,48.34977],[-120.81638,48.35246],[-120.81702,48.35358],[-120.8203,48.35619],[-120.82116,48.35651],[-120.82179,48.35656],[-120.82664,48.35673],[-120.831,48.35753],[-120.84385,48.35903],[-120.85198,48.36074],[-120.85473,48.36956],[-120.85619,48.38322],[-120.86555,48.3892],[-120.87468,48.40749],[-120.8801,48.40598],[-120.88183,48.40597],[-120.88317,48.40553],[-120.88551,48.40357],[-120.88697,48.40297],[-120.88818,48.40268],[-120.8894,48.40262],[-120.89039,48.40283],[-120.89171,48.40337],[-120.8922,48.4034],[-120.89306,48.40276],[-120.89352,48.4021],[-120.89446,48.40154],[-120.89598,48.40141],[-120.89736,48.40037],[-120.89778,48.39906],[-120.8974,48.39767],[-120.89733,48.39679],[-120.8969,48.39653],[-120.89638,48.39551],[-120.89643,48.39524],[-120.89751,48.39413],[-120.89781,48.39359],[-120.89779,48.39167],[-120.89791,48.39138],[-120.89841,48.39098],[-120.90075,48.38994],[-120.90336,48.38919],[-120.90441,48.38851],[-120.90461,48.38802],[-120.9055,48.38762],[-120.90965,48.38729],[-120.91313,48.38744],[-120.91591,48.38856],[-120.91699,48.38934],[-120.91875,48.39003],[-120.9197,48.39099],[-120.92326,48.39131],[-120.92413,48.3922],[-120.9246,48.3924],[-120.92542,48.39173],[-120.92601,48.38831],[-120.92685,48.38768],[-120.93013,48.38789],[-120.93197,48.38832],[-120.93368,48.38835],[-120.93677,48.38955],[-120.94794,48.3906],[-120.95117,48.39117],[-120.95394,48.39191],[-120.95607,48.39205],[-120.95673,48.39193],[-120.95706,48.39211],[-120.95738,48.39364],[-120.95801,48.39432],[-120.95826,48.3949],[-120.95839,48.39649],[-120.9583,48.3977],[-120.95767,48.39928],[-120.95771,48.40065],[-120.95714,48.40191],[-120.95716,48.40274],[-120.9556,48.40505],[-120.95585,48.40553],[-120.95584,48.40586],[-120.95525,48.40708],[-120.95562,48.40786],[-120.95675,48.40861],[-120.95756,48.40939],[-120.95767,48.40994],[-120.95575,48.41573],[-120.95458,48.42179],[-120.95683,48.43157],[-120.95714,48.43236],[-120.95743,48.4325],[-120.95992,48.43252],[-120.96082,48.43278],[-120.96229,48.43283],[-120.96481,48.4338],[-120.96589,48.43367],[-120.96776,48.43396],[-120.96885,48.43376],[-120.96992,48.43387],[-120.97064,48.43418],[-120.97428,48.43416],[-120.97661,48.43327],[-120.97878,48.4329],[-120.98025,48.4321],[-120.98233,48.43236],[-120.98346,48.43214],[-120.98469,48.43215],[-120.98512,48.43248],[-120.9858,48.43266],[-120.98639,48.43358],[-120.98697,48.43363],[-120.98838,48.43336],[-120.98926,48.43282],[-120.99034,48.43282],[-120.99138,48.43248],[-120.99295,48.43232],[-120.99384,48.43177],[-120.99453,48.43162],[-120.99509,48.43128],[-120.99616,48.43134],[-120.99976,48.43299],[-121.00175,48.43201],[-121.0023,48.43115],[-121.00314,48.4307],[-121.0047,48.4304],[-121.00762,48.43043],[-121.00937,48.4316],[-121.01069,48.43148],[-121.01225,48.43271],[-121.01314,48.4324],[-121.01468,48.43219],[-121.01524,48.43188],[-121.01811,48.43174],[-121.01974,48.43208],[-121.02065,48.43189],[-121.02139,48.43233],[-121.02205,48.43245],[-121.02263,48.43305],[-121.02348,48.43353],[-121.02417,48.43371],[-121.02592,48.43374],[-121.02702,48.43353],[-121.02922,48.43272],[-121.03005,48.43259],[-121.03097,48.43191],[-121.03248,48.43159],[-121.03326,48.43104],[-121.0349,48.4311],[-121.03529,48.43142],[-121.03726,48.43233],[-121.03708,48.43255],[-121.03729,48.43306],[-121.03802,48.43372],[-121.03867,48.43494],[-121.03879,48.43654],[-121.03825,48.43839],[-121.03897,48.43911],[-121.03938,48.44037],[-121.03933,48.44078],[-121.04067,48.44255],[-121.04087,48.44306],[-121.04088,48.44377],[-121.04047,48.44439],[-121.04128,48.44586],[-121.04262,48.447],[-121.04372,48.44732],[-121.04474,48.44788],[-121.04605,48.44805],[-121.04673,48.44774],[-121.04722,48.44725],[-121.04855,48.44731],[-121.04987,48.44784],[-121.05147,48.44878],[-121.05278,48.44864],[-121.05295,48.44885],[-121.05341,48.44898],[-121.05423,48.44974],[-121.05538,48.45001],[-121.05613,48.45157],[-121.05719,48.45164],[-121.05771,48.45202],[-121.0589,48.45241],[-121.05931,48.45289],[-121.05986,48.45311],[-121.06018,48.45348],[-121.06114,48.45592],[-121.06139,48.45712],[-121.06128,48.45774],[-121.06144,48.45837],[-121.06214,48.45924],[-121.06308,48.45964],[-121.06332,48.45995],[-121.06843,48.46073],[-121.06971,48.46058],[-121.07233,48.46083],[-121.07305,48.46117],[-121.07333,48.46159],[-121.07417,48.46222],[-121.07729,48.46261],[-121.0782,48.46306],[-121.07912,48.4631],[-121.0802,48.46342],[-121.08138,48.4632],[-121.0819,48.46286],[-121.08293,48.46257],[-121.0838,48.46258],[-121.08508,48.46294],[-121.08603,48.46231],[-121.08751,48.46227],[-121.0881,48.46244],[-121.08918,48.46319],[-121.09,48.46348],[-121.09176,48.46462],[-121.09267,48.46494],[-121.09575,48.46548],[-121.09656,48.4661],[-121.09688,48.4666],[-121.09739,48.46668],[-121.09758,48.46712],[-121.09862,48.467],[-121.10003,48.46659],[-121.10071,48.4659],[-121.10206,48.46529],[-121.10568,48.46471],[-121.10635,48.46418],[-121.10709,48.46325],[-121.10789,48.46284],[-121.10819,48.46239],[-121.1085,48.46104],[-121.10954,48.45973],[-121.10966,48.45892],[-121.10911,48.45814],[-121.10966,48.45679],[-121.10991,48.45651],[-121.11052,48.45626],[-121.11187,48.45606],[-121.11506,48.45471],[-121.11592,48.45304],[-121.11598,48.45034],[-121.11628,48.45005],[-121.11751,48.44973],[-121.12089,48.44952],[-121.12211,48.44928],[-121.12498,48.44827],[-121.12542,48.44824],[-121.12628,48.44771],[-121.13551,48.44728],[-121.13476,48.44603],[-121.13474,48.44481],[-121.13455,48.44456],[-121.13482,48.44435],[-121.13619,48.44457],[-121.13828,48.44427],[-121.13858,48.44532],[-121.13975,48.44654],[-121.142,48.44759],[-121.14346,48.44767],[-121.14624,48.44958],[-121.14843,48.45038],[-121.14918,48.45121],[-121.1517,48.45208],[-121.15263,48.45267],[-121.15193,48.4531],[-121.15217,48.45354],[-121.15427,48.45534],[-121.15661,48.45534],[-121.15661,48.45683],[-121.15879,48.45773],[-121.16068,48.45807],[-121.16243,48.4581],[-121.16397,48.45786],[-121.16456,48.45797],[-121.16587,48.45782],[-121.16662,48.45756],[-121.16747,48.45701],[-121.16747,48.45545],[-121.17243,48.45521],[-121.17455,48.45483],[-121.17529,48.45445],[-121.17774,48.45464],[-121.17951,48.45451],[-121.18009,48.45464],[-121.18307,48.4544],[-121.18469,48.45466],[-121.18694,48.45464],[-121.18797,48.45487],[-121.19072,48.45481],[-121.192,48.45441],[-121.19262,48.45399],[-121.19285,48.45352],[-121.19296,48.45266],[-121.19281,48.45178],[-121.24392,48.45152],[-121.24401,48.45302],[-121.24384,48.45428],[-121.24417,48.45532],[-121.24424,48.45627],[-121.24532,48.45888],[-121.2459,48.46105],[-121.24585,48.4627],[-121.24527,48.46446],[-121.24838,48.46617],[-121.24913,48.46617],[-121.24912,48.46657],[-121.25451,48.46948],[-121.25693,48.46933],[-121.25996,48.46997],[-121.2607,48.46988],[-121.26223,48.47053],[-121.26339,48.47069],[-121.26779,48.47049],[-121.26975,48.4709],[-121.27109,48.4708],[-121.27195,48.47123],[-121.27593,48.4714],[-121.27722,48.4707],[-121.27929,48.47043],[-121.2798,48.47019],[-121.28147,48.47007],[-121.28662,48.47589],[-121.29059,48.47459],[-121.29143,48.47418],[-121.29168,48.47388],[-121.29287,48.47354],[-121.29379,48.47293],[-121.29412,48.47262],[-121.29411,48.47203],[-121.29426,48.47168],[-121.295,48.47102],[-121.29563,48.47071],[-121.29638,48.46987],[-121.29662,48.46883],[-121.29689,48.46847],[-121.29886,48.46711],[-121.29921,48.46651],[-121.30032,48.46618],[-121.30065,48.4657],[-121.30149,48.4652],[-121.30178,48.46399],[-121.30218,48.46324],[-121.3039,48.46182],[-121.30485,48.46219],[-121.30804,48.46291],[-121.30886,48.46336],[-121.31117,48.46421],[-121.3136,48.46461],[-121.31633,48.4653],[-121.31708,48.46571],[-121.31764,48.46629],[-121.31797,48.46711],[-121.31804,48.46803],[-121.35904,48.46813],[-121.35802,48.46728],[-121.35785,48.46688],[-121.35842,48.4651],[-121.35835,48.46256],[-121.35878,48.46151],[-121.35916,48.45991],[-121.36441,48.45156],[-121.36469,48.45118],[-121.36612,48.45009],[-121.36655,48.44848],[-121.36883,48.44609],[-121.36848,48.44451],[-121.36909,48.44337],[-121.36992,48.44262],[-121.36965,48.44229],[-121.36812,48.44179],[-121.36762,48.44145],[-121.36561,48.44069],[-121.36247,48.44058],[-121.3611,48.44077],[-121.35914,48.44061],[-121.3586,48.44111],[-121.3565,48.44199],[-121.35734,48.39798],[-121.35602,48.39689],[-121.35512,48.39531],[-121.35524,48.39482],[-121.35593,48.39403],[-121.35588,48.39365],[-121.35731,48.3936],[-121.36026,48.39407],[-121.36299,48.39413],[-121.36493,48.39437],[-121.36708,48.39487],[-121.37039,48.39447],[-121.37131,48.39463],[-121.3721,48.39499],[-121.3739,48.39612],[-121.37479,48.39711],[-121.3747,48.3976],[-121.37489,48.39797],[-121.37488,48.3994],[-121.3754,48.40106],[-121.37585,48.4017],[-121.37561,48.40259],[-121.37567,48.40304],[-121.37661,48.40421],[-121.37728,48.40579],[-121.37837,48.40713],[-121.39013,48.40724],[-121.41277,48.4095],[-121.41413,48.40722],[-121.41445,48.40633],[-121.41393,48.40506],[-121.41186,48.40248],[-121.41185,48.40154],[-121.41235,48.40023],[-121.41222,48.39953],[-121.41174,48.39896],[-121.40961,48.39839],[-121.40934,48.39781],[-121.40838,48.39667],[-121.40776,48.39543],[-121.40764,48.39426],[-121.40794,48.39347],[-121.40787,48.39326],[-121.4072,48.39264],[-121.40508,48.39199],[-121.40417,48.39117],[-121.40415,48.39035],[-121.40361,48.38983],[-121.40357,48.38846],[-121.40295,48.38799],[-121.40283,48.38677],[-121.40292,48.38599],[-121.40147,48.38547],[-121.40129,48.385],[-121.40053,48.38459],[-121.40008,48.3837],[-121.39968,48.38329],[-121.40177,48.38099],[-121.40198,48.38041],[-121.40201,48.37934],[-121.4028,48.37757],[-121.40285,48.37631],[-121.40246,48.37502],[-121.40143,48.37423],[-121.40154,48.37375],[-121.40088,48.36808],[-121.39804,48.34535],[-121.39542,48.34481],[-121.39179,48.34381],[-121.38975,48.34376],[-121.38801,48.34393],[-121.385,48.34363],[-121.383,48.34311],[-121.37821,48.34122],[-121.37589,48.34081],[-121.37447,48.34079],[-121.37262,48.34105],[-121.37035,48.34099],[-121.36882,48.34128],[-121.36666,48.34137],[-121.36506,48.33954],[-121.36362,48.33819],[-121.3622,48.33571],[-121.36161,48.33506],[-121.35827,48.33383],[-121.35662,48.33361],[-121.35559,48.33368],[-121.35446,48.33326],[-121.35325,48.3331],[-121.35202,48.3335],[-121.34345,48.33427],[-121.34316,48.33408],[-121.34315,48.33373],[-121.34355,48.33227],[-121.34407,48.33167],[-121.34659,48.32971],[-121.3481,48.32649],[-121.34884,48.32557],[-121.34695,48.32331],[-121.34522,48.32196],[-121.33667,48.32081],[-121.32386,48.32189],[-121.32384,48.32064],[-121.32519,48.31913],[-121.32535,48.31824],[-121.32518,48.31765],[-121.32414,48.31678],[-121.32327,48.31518],[-121.32301,48.31447],[-121.32297,48.31221],[-121.32278,48.31113],[-121.32416,48.31035],[-121.32667,48.3081],[-121.32753,48.30702],[-121.32792,48.30603],[-121.3292,48.30458],[-121.32963,48.30357],[-121.33011,48.30288],[-121.33016,48.30212],[-121.33002,48.30163],[-121.3302,48.30128],[-121.33155,48.29987],[-121.33442,48.29831],[-121.33531,48.29681],[-121.33536,48.29625],[-121.3359,48.29528],[-121.33965,48.29368],[-121.34145,48.29328],[-121.3443,48.29296],[-121.33029,48.27036],[-121.29702,48.27429],[-121.29584,48.27454],[-121.29519,48.27491],[-121.29381,48.27531],[-121.292,48.27526],[-121.29111,48.27546],[-121.28798,48.27769],[-121.28709,48.278],[-121.28564,48.27804],[-121.28389,48.27833],[-121.28289,48.27869],[-121.28209,48.27934],[-121.28068,48.27872],[-121.27833,48.27857],[-121.27467,48.27923],[-121.27248,48.28024],[-121.27029,48.28008],[-121.26893,48.28038],[-121.266,48.28028],[-121.26463,48.28043],[-121.26242,48.28094],[-121.26023,48.28108],[-121.25874,48.28144],[-121.2576,48.28146],[-121.25373,48.28055],[-121.25226,48.28064],[-121.2517,48.28082],[-121.25027,48.2796],[-121.24957,48.27927],[-121.24813,48.27892],[-121.22856,48.27005],[-121.22639,48.26855],[-121.22435,48.2681],[-121.22284,48.26679],[-121.22249,48.2663],[-121.22352,48.26537],[-121.22571,48.26422],[-121.2265,48.26329],[-121.22267,48.26332],[-121.22269,48.26273],[-121.22184,48.26193],[-121.22107,48.26138],[-121.21855,48.26032],[-121.21674,48.26023],[-121.21259,48.25925],[-121.21112,48.25905],[-121.20626,48.25866],[-121.20574,48.25838],[-121.20369,48.25785],[-121.20207,48.25711],[-121.2013,48.25706],[-121.19539,48.25321],[-121.19359,48.2517],[-121.19247,48.25113],[-121.19193,48.25111],[-121.18976,48.25222],[-121.18852,48.25237],[-121.18729,48.25306],[-121.18635,48.25303],[-121.18635,48.24188],[-121.19282,48.24187],[-121.21478,48.22952],[-121.21534,48.22866],[-121.21749,48.22802],[-121.21937,48.22715],[-121.22194,48.22673],[-121.22313,48.2257],[-121.22467,48.22534],[-121.22529,48.22505],[-121.22755,48.2235],[-121.2298,48.22227],[-121.23132,48.22116],[-121.23244,48.22102],[-121.23547,48.22161],[-121.24123,48.221],[-121.24551,48.21774],[-121.2498,48.21601],[-121.2514,48.21488],[-121.2525,48.21441],[-121.2544,48.21254],[-121.2559,48.21042],[-121.25663,48.20995],[-121.25787,48.21001],[-121.25823,48.21034],[-121.25885,48.21049],[-121.26084,48.21054],[-121.26203,48.21104],[-121.26352,48.21109],[-121.26755,48.21249],[-121.27935,48.21251],[-121.28107,48.21131],[-121.28303,48.20967],[-121.28486,48.20772],[-121.2931,48.20791],[-121.29404,48.20627],[-121.29573,48.20458],[-121.29669,48.20403],[-121.29785,48.20369],[-121.29927,48.20375],[-121.29973,48.20399],[-121.30016,48.20341],[-121.30052,48.2032],[-121.30155,48.20301],[-121.30199,48.2032],[-121.30234,48.2036],[-121.30513,48.20425],[-121.30645,48.20515],[-121.3138,48.20318],[-121.31457,48.20242],[-121.31482,48.20195],[-121.31484,48.20107],[-121.31447,48.20025],[-121.3139,48.19968],[-121.31348,48.19877],[-121.31277,48.19597],[-121.31103,48.1939],[-121.30873,48.19245],[-121.30869,48.19147],[-121.30992,48.18934],[-121.30993,48.18853],[-121.30822,48.18796],[-121.30637,48.1876],[-121.30386,48.18645],[-121.30244,48.18612],[-121.29996,48.18637],[-121.29795,48.18731],[-121.2947,48.18789],[-121.29266,48.18683],[-121.29091,48.18672],[-121.29012,48.18645],[-121.28933,48.186],[-121.28784,48.18479],[-121.28659,48.1833],[-121.28504,48.18235],[-121.28425,48.18115],[-121.28215,48.17982],[-121.28074,48.17923],[-121.2797,48.17897],[-121.27595,48.17888],[-121.27588,48.16882],[-121.2657,48.16882],[-121.26468,48.1665],[-121.26326,48.16411],[-121.26287,48.16296],[-121.26268,48.16167],[-121.26217,48.16045],[-121.26255,48.15863],[-121.26149,48.15901],[-121.25962,48.15901],[-121.25958,48.1451],[-121.25981,48.14497],[-121.26094,48.14559],[-121.26175,48.14582],[-121.2638,48.14555],[-121.26616,48.14598],[-121.26765,48.14605],[-121.269,48.14658],[-121.26977,48.14653],[-121.27145,48.14692],[-121.27231,48.14666],[-121.27348,48.1472],[-121.27499,48.14686],[-121.28197,48.14681],[-121.28197,48.14739],[-121.28239,48.1484],[-121.28345,48.14939],[-121.28445,48.14996],[-121.28544,48.15025],[-121.2857,48.15054],[-121.28763,48.15153],[-121.28933,48.15184],[-121.29098,48.15247],[-121.29205,48.15259],[-121.29251,48.15242],[-121.29295,48.15303],[-121.29368,48.15343],[-121.29514,48.15364],[-121.29552,48.15402],[-121.29644,48.15444],[-121.29932,48.15537],[-121.30028,48.15531],[-121.30455,48.15654],[-121.30551,48.15643],[-121.30624,48.156],[-121.30591,48.15725],[-121.30614,48.15805],[-121.30675,48.15858],[-121.30811,48.15906],[-121.30916,48.15999],[-121.31013,48.1604],[-121.3122,48.16036],[-121.31598,48.16191],[-121.31702,48.16218],[-121.32064,48.16235],[-121.32235,48.16261],[-121.32486,48.16392],[-121.33005,48.16515],[-121.33127,48.16503],[-121.33262,48.16528],[-121.33567,48.16518],[-121.33677,48.16617],[-121.34099,48.16751],[-121.34209,48.16811],[-121.34287,48.16825]]]},"properties":{"wildernessname":"Glacier Peak Wilderness","wid":207,"gis_acres":566327.704,"boundarystatus":"Final","sourceUrl":"https://apps.fs.usda.gov/arcx/rest/services/EDW/EDW_Wilderness_01/MapServer/0","retrievedAt":"2026-09-28T00:00:00Z","query":"wid=207; outSR=4326; maxAllowableOffset=0.0001 degrees","limitation":"Generalized to about 11 metres for trailhead selection; not a legal boundary survey."}}
