{"type":"Feature","geometry":{"type":"Polygon","coordinates":[[[-121.36233,48.08681],[-121.3629,48.08724],[-121.36315,48.08721],[-121.3641,48.08668],[-121.3692,48.08522],[-121.37024,48.08461],[-121.37033,48.08439],[-121.36951,48.08109],[-121.37009,48.0804],[-121.37041,48.07973],[-121.37049,48.07841],[-121.37019,48.07749],[-121.36975,48.07705],[-121.36971,48.07652],[-121.3691,48.07499],[-121.3693,48.0738],[-121.36918,48.07311],[-121.36948,48.07138],[-121.36944,48.07039],[-121.36928,48.06976],[-121.36839,48.06882],[-121.36826,48.06831],[-121.36765,48.06811],[-121.36775,48.06763],[-121.36766,48.06648],[-121.36728,48.06562],[-121.36702,48.06538],[-121.36712,48.06519],[-121.38601,48.06519],[-121.38629,48.06454],[-121.38782,48.06235],[-121.38849,48.06182],[-121.38885,48.06194],[-121.38961,48.06307],[-121.39029,48.06368],[-121.39118,48.06406],[-121.39186,48.06406],[-121.393,48.06301],[-121.3959,48.05893],[-121.39711,48.05806],[-121.3986,48.05658],[-121.3988,48.05572],[-121.39842,48.05447],[-121.398,48.0537],[-121.39716,48.05282],[-121.39376,48.0508],[-121.39234,48.04932],[-121.38839,48.04673],[-121.38735,48.04616],[-121.38465,48.04521],[-121.3845,48.04475],[-121.38374,48.04432],[-121.38089,48.04343],[-121.3794,48.04329],[-121.37906,48.04289],[-121.37733,48.04227],[-121.37681,48.04223],[-121.37647,48.04191],[-121.37538,48.04153],[-121.37358,48.04134],[-121.37341,48.04073],[-121.3713,48.03983],[-121.37066,48.03977],[-121.3705,48.03952],[-121.368,48.03836],[-121.36729,48.03762],[-121.3661,48.03698],[-121.3652,48.03692],[-121.36497,48.03673],[-121.36405,48.03686],[-121.36448,48.03614],[-121.36142,48.03325],[-121.35995,48.03224],[-121.36084,48.03149],[-121.36251,48.03046],[-121.36488,48.03021],[-121.36542,48.02991],[-121.36783,48.02921],[-121.36858,48.02865],[-121.36898,48.02899],[-121.36985,48.0293],[-121.36991,48.02955],[-121.36947,48.03],[-121.36926,48.03051],[-121.36979,48.03129],[-121.37149,48.03133],[-121.37312,48.0324],[-121.37348,48.03278],[-121.37471,48.03327],[-121.37709,48.03395],[-121.37775,48.03391],[-121.37832,48.03367],[-121.37884,48.03375],[-121.38039,48.03478],[-121.38265,48.03569],[-121.38576,48.03589],[-121.38696,48.03657],[-121.38971,48.03756],[-121.39036,48.03746],[-121.39702,48.03881],[-121.3976,48.03875],[-121.39971,48.04007],[-121.40147,48.0415],[-121.40269,48.0421],[-121.40547,48.04435],[-121.40956,48.04599],[-121.41076,48.04686],[-121.41178,48.04702],[-121.41216,48.04734],[-121.41327,48.04759],[-121.41495,48.04745],[-121.41482,48.0502],[-121.4152,48.05092],[-121.41553,48.05121],[-121.41672,48.05177],[-121.41746,48.05193],[-121.41964,48.0517],[-121.42153,48.05121],[-121.42246,48.05074],[-121.42623,48.04688],[-121.42746,48.04629],[-121.42806,48.04541],[-121.42876,48.045],[-121.4307,48.04309],[-121.4311,48.0409],[-121.43168,48.03983],[-121.4324,48.03912],[-121.43291,48.03742],[-121.43252,48.03648],[-121.43091,48.03647],[-121.43114,48.03518],[-121.43091,48.03413],[-121.43041,48.03337],[-121.43035,48.03166],[-121.43129,48.03046],[-121.4319,48.02929],[-121.43194,48.02882],[-121.43227,48.02862],[-121.43301,48.02769],[-121.43348,48.02667],[-121.43349,48.02561],[-121.43289,48.02338],[-121.433,48.02142],[-121.43352,48.02047],[-121.4346,48.02061],[-121.43492,48.02035],[-121.4342,48.01887],[-121.43319,48.01752],[-121.43245,48.01497],[-121.43196,48.01458],[-121.43192,48.01427],[-121.43157,48.01418],[-121.4316,48.01356],[-121.43122,48.0127],[-121.4302,48.01173],[-121.4303,48.01148],[-121.43019,48.011],[-121.42996,48.01058],[-121.42966,48.01051],[-121.42954,48.00985],[-121.42856,48.00827],[-121.42814,48.00722],[-121.42572,48.00422],[-121.42395,48.003],[-121.42273,48.00229],[-121.41953,48.00087],[-121.41519,47.99972],[-121.41338,47.9987],[-121.41219,47.99961],[-121.41111,48.00082],[-121.41065,47.99999],[-121.41004,47.99957],[-121.4098,47.9992],[-121.40743,47.9987],[-121.4058,47.99794],[-121.40505,47.99806],[-121.40472,47.99765],[-121.40309,47.99737],[-121.40279,47.99703],[-121.40203,47.9968],[-121.40174,47.99645],[-121.40073,47.9959],[-121.39981,47.99617],[-121.39985,47.99562],[-121.39914,47.9947],[-121.39568,47.99304],[-121.39483,47.99241],[-121.39439,47.99234],[-121.39397,47.99191],[-121.39385,47.99121],[-121.393,47.9905],[-121.39153,47.98977],[-121.39057,47.98949],[-121.38917,47.98839],[-121.3883,47.98835],[-121.38588,47.98695],[-121.38207,47.98559],[-121.3786,47.9849],[-121.37803,47.98449],[-121.37671,47.98424],[-121.37428,47.98549],[-121.3729,47.9865],[-121.37173,47.9869],[-121.37129,47.98679],[-121.36771,47.98477],[-121.36723,47.98425],[-121.36683,47.98342],[-121.36674,47.98276],[-121.36729,47.98138],[-121.36728,47.97875],[-121.37039,47.97547],[-121.37623,47.97641],[-121.38698,47.97861],[-121.39278,47.98111],[-121.39357,47.98131],[-121.39414,47.98199],[-121.3972,47.98401],[-121.39955,47.98607],[-121.40157,47.98692],[-121.40221,47.98704],[-121.40255,47.9874],[-121.40638,47.98398],[-121.40621,47.98304],[-121.40686,47.98164],[-121.4069,47.98084],[-121.40891,47.9783],[-121.41135,47.97723],[-121.41243,47.97708],[-121.41351,47.97662],[-121.4149,47.97647],[-121.41577,47.97618],[-121.41933,47.97597],[-121.41992,47.97534],[-121.4197,47.97301],[-121.42056,47.97235],[-121.42085,47.97167],[-121.41937,47.97102],[-121.41469,47.96994],[-121.414,47.96939],[-121.41233,47.96871],[-121.41044,47.96837],[-121.40944,47.96836],[-121.40814,47.96746],[-121.40551,47.9662],[-121.40185,47.96531],[-121.39837,47.9516],[-121.39642,47.94728],[-121.39586,47.94681],[-121.39539,47.94589],[-121.39525,47.94487],[-121.39501,47.94445],[-121.39334,47.94239],[-121.39267,47.94185],[-121.3924,47.9411],[-121.39239,47.94037],[-121.39106,47.93943],[-121.39093,47.9388],[-121.38963,47.93785],[-121.38961,47.93743],[-121.38909,47.9372],[-121.38901,47.93679],[-121.38818,47.93647],[-121.38843,47.93616],[-121.38675,47.93546],[-121.38537,47.93418],[-121.38403,47.93197],[-121.38164,47.92908],[-121.38148,47.92675],[-121.38193,47.92562],[-121.38187,47.92528],[-121.36897,47.90896],[-121.36844,47.90889],[-121.36726,47.90909],[-121.36592,47.90955],[-121.36488,47.90946],[-121.36458,47.90915],[-121.36384,47.90767],[-121.36318,47.90712],[-121.36211,47.90649],[-121.36061,47.90603],[-121.3579,47.90571],[-121.35636,47.90595],[-121.35428,47.90534],[-121.35055,47.90524],[-121.34837,47.90528],[-121.34756,47.90548],[-121.34613,47.90616],[-121.34525,47.90712],[-121.34493,47.90862],[-121.34403,47.91028],[-121.34403,47.91174],[-121.34251,47.91343],[-121.34261,47.91443],[-121.34248,47.9149],[-121.34214,47.91533],[-121.34146,47.91575],[-121.34077,47.91674],[-121.34067,47.91732],[-121.34089,47.91818],[-121.34214,47.9201],[-121.34183,47.92103],[-121.34203,47.9214],[-121.3413,47.9234],[-121.34092,47.92406],[-121.34033,47.92451],[-121.34004,47.92546],[-121.33056,47.92866],[-121.32549,47.92966],[-121.32297,47.92975],[-121.32142,47.92959],[-121.32041,47.93001],[-121.31804,47.93053],[-121.31651,47.93064],[-121.31432,47.93139],[-121.31349,47.93132],[-121.31285,47.93103],[-121.29671,47.93042],[-121.29652,47.93044],[-121.29597,47.93131],[-121.29525,47.93135],[-121.29379,47.93116],[-121.29106,47.93035],[-121.29019,47.92998],[-121.28857,47.92885],[-121.2876,47.92845],[-121.28609,47.92709],[-121.28485,47.92473],[-121.2834,47.92575],[-121.28209,47.92618],[-121.28165,47.92699],[-121.28125,47.9286],[-121.28082,47.92925],[-121.28082,47.9298],[-121.27965,47.93024],[-121.2786,47.93085],[-121.27622,47.93362],[-121.27394,47.93543],[-121.27271,47.93684],[-121.27093,47.94005],[-121.2698,47.94124],[-121.26874,47.94187],[-121.26604,47.94271],[-121.2651,47.94316],[-121.26209,47.94563],[-121.26044,47.94671],[-121.25942,47.94685],[-121.25724,47.94685],[-121.25535,47.94654],[-121.25437,47.94588],[-121.24922,47.94345],[-121.24703,47.9422],[-121.24494,47.94147],[-121.24438,47.94112],[-121.24383,47.93971],[-121.24425,47.93824],[-121.24214,47.93641],[-121.24154,47.93552],[-121.24108,47.93417],[-121.24119,47.9336],[-121.24153,47.93331],[-121.23185,47.92085],[-121.2316,47.92029],[-121.2306,47.91903],[-121.22728,47.9161],[-121.22579,47.91416],[-121.22338,47.91286],[-121.22157,47.911],[-121.21512,47.88812],[-121.21797,47.88816],[-121.21899,47.88841],[-121.22061,47.88851],[-121.27225,47.8915],[-121.27143,47.88678],[-121.27056,47.88582],[-121.27,47.88475],[-121.26963,47.88352],[-121.26958,47.88204],[-121.26897,47.8812],[-121.26889,47.87955],[-121.26918,47.87738],[-121.27046,47.87554],[-121.27081,47.87449],[-121.26984,47.87405],[-121.26907,47.87344],[-121.26872,47.87279],[-121.26846,47.87168],[-121.26683,47.86972],[-121.26463,47.86639],[-121.26325,47.86518],[-121.2624,47.86478],[-121.26105,47.86439],[-121.25807,47.86411],[-121.25639,47.86441],[-121.25477,47.86421],[-121.25271,47.86428],[-121.25123,47.86465],[-121.25112,47.86367],[-121.2507,47.86293],[-121.2488,47.86149],[-121.24476,47.8598],[-121.24154,47.85817],[-121.23871,47.85696],[-121.23665,47.85531],[-121.2359,47.85493],[-121.2328,47.85447],[-121.21602,47.84925],[-121.17666,47.83842],[-121.16848,47.82265],[-121.16928,47.82238],[-121.172,47.82094],[-121.17525,47.82042],[-121.17644,47.81972],[-121.17932,47.81915],[-121.17953,47.81937],[-121.17948,47.81975],[-121.17964,47.81992],[-121.18073,47.82021],[-121.18101,47.82099],[-121.18132,47.82137],[-121.18263,47.82176],[-121.19101,47.80897],[-121.19064,47.80812],[-121.18954,47.80653],[-121.18826,47.80424],[-121.18795,47.80256],[-121.18863,47.80195],[-121.19124,47.80025],[-121.19321,47.79955],[-121.19343,47.79849],[-121.19337,47.79734],[-121.19407,47.79536],[-121.19443,47.79488],[-121.19579,47.79396],[-121.19724,47.79251],[-121.19735,47.79217],[-121.19611,47.79005],[-121.19604,47.78954],[-121.19641,47.78819],[-121.19659,47.78606],[-121.19702,47.78523],[-121.19919,47.78289],[-121.19972,47.78156],[-121.19968,47.77914],[-121.19988,47.7784],[-121.19826,47.77716],[-121.1978,47.77661],[-121.19597,47.77419],[-121.19546,47.77299],[-121.19477,47.77213],[-121.19479,47.77176],[-121.19515,47.77133],[-121.19615,47.77069],[-121.19618,47.76999],[-121.19522,47.76811],[-121.19375,47.76694],[-121.19125,47.76754],[-121.19058,47.76804],[-121.18837,47.76881],[-121.18706,47.76881],[-121.18403,47.76948],[-121.18192,47.76902],[-121.17935,47.76905],[-121.17577,47.76996],[-121.17449,47.7706],[-121.17358,47.7714],[-121.17359,47.78005],[-121.15204,47.78002],[-121.15198,47.76557],[-121.13053,47.76553],[-121.1305,47.75443],[-121.12875,47.75415],[-121.12621,47.75485],[-121.12291,47.75614],[-121.12013,47.75702],[-121.1192,47.75751],[-121.11857,47.75759],[-121.11595,47.75735],[-121.11042,47.75809],[-121.11025,47.75853],[-121.11016,47.76011],[-121.11034,47.76149],[-121.10902,47.76459],[-121.10835,47.76486],[-121.10863,47.76554],[-121.10855,47.76571],[-121.10753,47.7667],[-121.10542,47.76815],[-121.10277,47.77271],[-121.10176,47.7741],[-121.10105,47.77475],[-121.10076,47.77556],[-121.10038,47.77608],[-121.09954,47.77657],[-121.09834,47.77646],[-121.0944,47.7751],[-121.09266,47.77488],[-121.0911,47.77445],[-121.09001,47.77383],[-121.08766,47.77342],[-121.08748,47.78446],[-121.08644,47.78429],[-121.08572,47.78439],[-121.08066,47.78568],[-121.07705,47.78711],[-121.0728,47.78922],[-121.07001,47.78948],[-121.069,47.78986],[-121.06832,47.79052],[-121.06752,47.79244],[-121.06755,47.79355],[-121.06703,47.79427],[-121.07187,47.7943],[-121.07148,47.79487],[-121.07168,47.79531],[-121.07382,47.7955],[-121.07408,47.79608],[-121.07397,47.79713],[-121.07438,47.79748],[-121.07517,47.79748],[-121.07616,47.79695],[-121.07945,47.79432],[-121.08737,47.79438],[-121.08755,47.79474],[-121.08814,47.79502],[-121.08775,47.79575],[-121.08669,47.79689],[-121.08338,47.7984],[-121.08261,47.80012],[-121.08058,47.80219],[-121.07881,47.80316],[-121.07694,47.80368],[-121.07671,47.80594],[-121.0769,47.80713],[-121.07891,47.80812],[-121.08094,47.80995],[-121.08294,47.81137],[-121.08218,47.81247],[-121.08193,47.81313],[-121.08198,47.81432],[-121.08181,47.81549],[-121.08112,47.81661],[-121.07909,47.81818],[-121.07848,47.81908],[-121.07414,47.82239],[-121.07363,47.82249],[-121.07252,47.82193],[-121.07067,47.82148],[-121.06815,47.82135],[-121.06559,47.8222],[-121.06236,47.82246],[-121.06128,47.82272],[-121.05846,47.8241],[-121.05739,47.82426],[-121.05452,47.82539],[-121.0524,47.82601],[-121.05156,47.82654],[-121.04938,47.82739],[-121.04022,47.82987],[-121.03868,47.83064],[-121.03493,47.83354],[-121.03352,47.83484],[-121.03335,47.83584],[-121.03271,47.83674],[-121.0311,47.8374],[-121.02916,47.83762],[-121.02814,47.83729],[-121.02763,47.8365],[-121.02708,47.83602],[-121.02602,47.83603],[-121.02379,47.8353],[-121.0201,47.83443],[-121.01833,47.83306],[-121.01703,47.83245],[-121.01288,47.83202],[-121.01,47.83204],[-121.00934,47.83231],[-121.00918,47.8337],[-121.00943,47.83542],[-121.00933,47.83698],[-121.00984,47.83882],[-121.00966,47.83964],[-121.00913,47.84068],[-121.00865,47.84366],[-121.00786,47.8454],[-121.00759,47.84746],[-121.00796,47.84878],[-121.00803,47.85004],[-121.00768,47.85204],[-121.00778,47.8532],[-121.00822,47.85406],[-121.00863,47.8544],[-121.00864,47.85483],[-121.00927,47.85649],[-121.00956,47.85671],[-121.01023,47.85633],[-121.01209,47.85408],[-121.01346,47.85441],[-121.01354,47.8545],[-121.01334,47.85469],[-121.01366,47.85546],[-121.01463,47.85619],[-121.01624,47.8592],[-121.0166,47.85941],[-121.01691,47.85939],[-121.0186,47.85868],[-121.01948,47.85801],[-121.02109,47.85743],[-121.02182,47.85686],[-121.02222,47.85617],[-121.02224,47.8558],[-121.02209,47.85457],[-121.02189,47.85425],[-121.02395,47.85431],[-121.02485,47.85478],[-121.02498,47.85514],[-121.02525,47.8553],[-121.02584,47.85729],[-121.02575,47.85803],[-121.02589,47.85929],[-121.02549,47.86033],[-121.02543,47.86105],[-121.0246,47.86198],[-121.02468,47.86267],[-121.02499,47.86292],[-121.02762,47.86371],[-121.03057,47.86419],[-121.03122,47.86407],[-121.03246,47.86413],[-121.03355,47.86436],[-121.03459,47.8648],[-121.03505,47.86474],[-121.0361,47.86525],[-121.03792,47.86566],[-121.039,47.86564],[-121.04001,47.86518],[-121.04051,47.86543],[-121.0433,47.86581],[-121.04574,47.86648],[-121.0473,47.86651],[-121.04904,47.86624],[-121.05374,47.86699],[-121.05524,47.86628],[-121.05614,47.86633],[-121.05738,47.86571],[-121.0586,47.86554],[-121.05918,47.86525],[-121.0595,47.8649],[-121.0596,47.86426],[-121.05944,47.86378],[-121.05958,47.86312],[-121.05934,47.86165],[-121.05903,47.86123],[-121.05918,47.86085],[-121.05908,47.86034],[-121.05928,47.85997],[-121.05915,47.85967],[-121.0594,47.85941],[-121.05923,47.85894],[-121.0594,47.8585],[-121.05907,47.85781],[-121.05918,47.85756],[-121.05911,47.85686],[-121.05886,47.8564],[-121.05901,47.85605],[-121.05893,47.85564],[-121.05995,47.85416],[-121.05996,47.85337],[-121.06182,47.85438],[-121.0624,47.85417],[-121.06259,47.85456],[-121.06339,47.85535],[-121.06462,47.85621],[-121.06565,47.85772],[-121.06578,47.85908],[-121.06653,47.86036],[-121.06753,47.86126],[-121.06903,47.86152],[-121.07089,47.8608],[-121.07143,47.86019],[-121.0726,47.85967],[-121.07319,47.85887],[-121.07371,47.85883],[-121.07429,47.8585],[-121.07526,47.85853],[-121.07749,47.85764],[-121.07817,47.85705],[-121.08346,47.85561],[-121.08364,47.85529],[-121.08357,47.85504],[-121.08142,47.8523],[-121.10908,47.8523],[-121.10922,47.87763],[-121.11072,47.8778],[-121.11168,47.87809],[-121.11429,47.87985],[-121.11882,47.88],[-121.12502,47.88172],[-121.1268,47.88297],[-121.12754,47.88428],[-121.12836,47.88505],[-121.13032,47.88613],[-121.12885,47.88668],[-121.12669,47.8883],[-121.12638,47.88867],[-121.12628,47.88934],[-121.12694,47.8904],[-121.1289,47.89246],[-121.12943,47.8938],[-121.12886,47.89686],[-121.12941,47.89971],[-121.12982,47.90313],[-121.12944,47.90454],[-121.13091,47.90623],[-121.13288,47.90718],[-121.13391,47.90843],[-121.13515,47.90948],[-121.13646,47.9114],[-121.13667,47.91312],[-121.13635,47.91485],[-121.13593,47.9158],[-121.13494,47.91562],[-121.13229,47.9155],[-121.12994,47.91493],[-121.12774,47.91475],[-121.12626,47.91485],[-121.12376,47.91446],[-121.12285,47.9145],[-121.12164,47.91482],[-121.11918,47.91483],[-121.11778,47.91536],[-121.11591,47.91543],[-121.11451,47.91514],[-121.11391,47.91479],[-121.11284,47.91448],[-121.10875,47.91401],[-121.10158,47.91116],[-121.10063,47.91044],[-121.09917,47.90863],[-121.09718,47.90739],[-121.09672,47.90733],[-121.09347,47.90759],[-121.09311,47.9081],[-121.09082,47.90869],[-121.08993,47.90908],[-121.08987,47.90924],[-121.09143,47.91115],[-121.09328,47.91268],[-121.0938,47.91347],[-121.09125,47.9143],[-121.08969,47.91541],[-121.08915,47.91616],[-121.08914,47.91691],[-121.08858,47.91758],[-121.08876,47.91843],[-121.08864,47.91862],[-121.08833,47.9187],[-121.08769,47.91855],[-121.08674,47.91884],[-121.08626,47.91931],[-121.08528,47.91944],[-121.08527,47.91985],[-121.08477,47.91965],[-121.08471,47.92001],[-121.08406,47.91983],[-121.08388,47.91939],[-121.08359,47.91964],[-121.08331,47.91901],[-121.08228,47.91835],[-121.08189,47.91887],[-121.0816,47.91891],[-121.08042,47.91757],[-121.08012,47.9167],[-121.07893,47.91585],[-121.07853,47.91596],[-121.07908,47.91692],[-121.07896,47.91775],[-121.0783,47.9185],[-121.07733,47.91883],[-121.07721,47.91876],[-121.07731,47.91836],[-121.07649,47.9183],[-121.07647,47.9176],[-121.07622,47.91754],[-121.07557,47.91803],[-121.07535,47.91791],[-121.0753,47.91753],[-121.07467,47.91764],[-121.07473,47.9173],[-121.07461,47.91716],[-121.07379,47.91715],[-121.07288,47.9179],[-121.07143,47.91835],[-121.07021,47.91848],[-121.07004,47.91836],[-121.07082,47.91773],[-121.07074,47.91753],[-121.07005,47.9176],[-121.07002,47.91733],[-121.06973,47.91725],[-121.06923,47.91737],[-121.06861,47.91696],[-121.06821,47.91714],[-121.06792,47.91702],[-121.06705,47.91711],[-121.06707,47.91674],[-121.06669,47.91668],[-121.0669,47.91645],[-121.06685,47.91622],[-121.06641,47.91594],[-121.06566,47.91589],[-121.06533,47.9156],[-121.06228,47.91599],[-121.06249,47.91682],[-121.06244,47.91754],[-121.06169,47.91895],[-121.0612,47.91952],[-121.06213,47.92129],[-121.06201,47.92239],[-121.06226,47.92295],[-121.06225,47.92439],[-121.06178,47.92552],[-121.06176,47.92592],[-121.06183,47.92736],[-121.0622,47.92843],[-121.06192,47.92917],[-121.06086,47.93037],[-121.06074,47.93227],[-121.06097,47.93247],[-121.06163,47.93404],[-121.06174,47.93582],[-121.06083,47.93708],[-121.06053,47.93803],[-121.06001,47.93843],[-121.06001,47.93863],[-121.06101,47.93943],[-121.06116,47.94011],[-121.06261,47.94147],[-121.06419,47.94403],[-121.06612,47.94544],[-121.06899,47.94619],[-121.07048,47.94693],[-121.07174,47.9478],[-121.07252,47.94882],[-121.07268,47.94912],[-121.07272,47.94977],[-121.07243,47.95093],[-121.07277,47.95262],[-121.07256,47.95346],[-121.07286,47.95441],[-121.07283,47.95515],[-121.0731,47.95613],[-121.07256,47.95863],[-121.07386,47.96105],[-121.07406,47.96192],[-121.07406,47.96352],[-121.07591,47.96459],[-121.07765,47.96508],[-121.08348,47.96885],[-121.08613,47.97111],[-121.08685,47.97255],[-121.08843,47.97349],[-121.089,47.97419],[-121.08918,47.97485],[-121.08949,47.97509],[-121.09375,47.9773],[-121.09941,47.97781],[-121.10137,47.97817],[-121.1032,47.97893],[-121.10418,47.97968],[-121.1049,47.98071],[-121.10512,47.9813],[-121.10504,47.98176],[-121.10632,47.9819],[-121.10752,47.98305],[-121.10932,47.98436],[-121.11082,47.98463],[-121.11227,47.98453],[-121.11378,47.98465],[-121.12678,47.98636],[-121.12838,47.98673],[-121.12988,47.98746],[-121.13167,47.98625],[-121.13494,47.98535],[-121.13507,47.98513],[-121.13513,47.98393],[-121.13564,47.98283],[-121.13671,47.98268],[-121.13803,47.9833],[-121.13851,47.98337],[-121.13967,47.98322],[-121.14156,47.9833],[-121.14277,47.98286],[-121.14415,47.98188],[-121.14674,47.9816],[-121.14753,47.98099],[-121.15042,47.98225],[-121.15256,47.98436],[-121.1534,47.98439],[-121.15719,47.98546],[-121.15854,47.9857],[-121.16058,47.986],[-121.1626,47.98604],[-121.1637,47.98648],[-121.16449,47.98639],[-121.16576,47.98617],[-121.16695,47.98512],[-121.16806,47.98452],[-121.16848,47.98411],[-121.16855,47.98361],[-121.16899,47.98301],[-121.17092,47.98258],[-121.17182,47.98178],[-121.17301,47.98126],[-121.17443,47.98098],[-121.17489,47.98027],[-121.17493,47.97995],[-121.17463,47.97942],[-121.17465,47.97906],[-121.17575,47.97806],[-121.17645,47.97791],[-121.17667,47.97719],[-121.17732,47.97623],[-121.17774,47.97591],[-121.18127,47.97561],[-121.18411,47.97641],[-121.18505,47.97622],[-121.18755,47.97614],[-121.18992,47.97723],[-121.19046,47.97734],[-121.1909,47.97731],[-121.19258,47.97658],[-121.19234,48.00608],[-121.19631,48.00662],[-121.20225,48.00586],[-121.20567,48.00625],[-121.20675,48.00629],[-121.20777,48.00612],[-121.20763,47.99813],[-121.2088,47.99733],[-121.21021,47.99678],[-121.21344,47.99469],[-121.2147,47.99432],[-121.22524,47.98735],[-121.24355,47.99159],[-121.2442,47.99096],[-121.24461,47.98978],[-121.24564,47.98809],[-121.24658,47.98734],[-121.24974,47.98597],[-121.25196,47.98524],[-121.27937,47.98503],[-121.27993,47.98556],[-121.27998,47.98632],[-121.28042,47.98728],[-121.28116,47.98804],[-121.28219,47.98876],[-121.28505,47.99028],[-121.28651,47.9903],[-121.287,47.99044],[-121.28859,47.99153],[-121.28916,47.99218],[-121.29021,47.99256],[-121.29104,47.99309],[-121.29215,47.99318],[-121.29273,47.99306],[-121.29348,47.99369],[-121.2944,47.99405],[-121.2949,47.99473],[-121.29617,47.99546],[-121.30007,47.9967],[-121.30326,47.99851],[-121.30499,47.99901],[-121.30541,47.99941],[-121.30582,48.00018],[-121.30562,48.00053],[-121.3057,48.00102],[-121.30559,48.00136],[-121.30494,48.00177],[-121.30393,48.00279],[-121.30399,48.00326],[-121.30363,48.00349],[-121.30362,48.00403],[-121.30326,48.00447],[-121.30326,48.00484],[-121.30239,48.00552],[-121.30168,48.00581],[-121.30067,48.00717],[-121.30069,48.00748],[-121.30086,48.00758],[-121.30182,48.00751],[-121.30247,48.00768],[-121.30303,48.00819],[-121.30316,48.00864],[-121.30226,48.00998],[-121.30271,48.01083],[-121.3024,48.01143],[-121.30246,48.01197],[-121.30152,48.01246],[-121.3015,48.01264],[-121.30184,48.0131],[-121.30176,48.01344],[-121.30137,48.01364],[-121.30051,48.01489],[-121.29993,48.01506],[-121.29975,48.01562],[-121.29982,48.01581],[-121.30019,48.01597],[-121.30039,48.01657],[-121.30132,48.01691],[-121.30133,48.01733],[-121.30193,48.0178],[-121.30172,48.01799],[-121.30046,48.01809],[-121.29987,48.01834],[-121.29961,48.01881],[-121.30003,48.01936],[-121.29906,48.01958],[-121.2987,48.02027],[-121.29769,48.02086],[-121.29769,48.02104],[-121.29869,48.02123],[-121.29874,48.02171],[-121.29837,48.02235],[-121.29918,48.02312],[-121.29966,48.02327],[-121.29909,48.02406],[-121.29915,48.02476],[-121.29889,48.02528],[-121.29896,48.02602],[-121.29845,48.02643],[-121.29845,48.02716],[-121.29801,48.02805],[-121.29841,48.02875],[-121.2984,48.02943],[-121.29782,48.0302],[-121.29658,48.03041],[-121.29552,48.03112],[-121.29561,48.03129],[-121.29638,48.03152],[-121.29745,48.03269],[-121.29864,48.03348],[-121.29863,48.03385],[-121.29807,48.03473],[-121.29817,48.03528],[-121.29854,48.03571],[-121.29843,48.03596],[-121.29803,48.03597],[-121.29677,48.03504],[-121.29572,48.03491],[-121.29535,48.03608],[-121.29595,48.03668],[-121.29521,48.03728],[-121.2954,48.03793],[-121.29523,48.03875],[-121.29539,48.03924],[-121.29519,48.03985],[-121.29581,48.04056],[-121.29583,48.04113],[-121.2957,48.04139],[-121.29496,48.04197],[-121.29497,48.04277],[-121.29472,48.04329],[-121.29289,48.04396],[-121.29188,48.04463],[-121.29184,48.04525],[-121.291,48.04576],[-121.29074,48.04715],[-121.30293,48.04717],[-121.30294,48.06537],[-121.31371,48.06534],[-121.31374,48.06897],[-121.31911,48.06895],[-121.31917,48.07622],[-121.32411,48.0762],[-121.32408,48.08694],[-121.3614,48.08687],[-121.3614,48.08602],[-121.36178,48.08619],[-121.36233,48.08681]]]},"properties":{"wildernessname":"Henry M. Jackson Wilderness","wid":241,"gis_acres":103240.071,"boundarystatus":"Final","sourceUrl":"https://apps.fs.usda.gov/arcx/rest/services/EDW/EDW_Wilderness_01/MapServer/0","retrievedAt":"2026-09-28T00:00:00Z","query":"wid=241; outSR=4326; maxAllowableOffset=0.0001 degrees; geometryPrecision=5","limitation":"Generalized to about 11 metres for trailhead selection; not a legal boundary survey."}}
