{
  "type": "Feature",
  "properties": {
    "id": "northeast-washington",
    "name": "Northeast Washington",
    "boundaryVersion": "mountain-led-v1",
    "derivation": "Selected GMBA broad basic ranges, plus retained historical footprint/approach neighborhoods where present, clipped to the existing complete statewide start footprint; remaining locations allocated by EPA ecoregions and the documented shoreline/state-edge repair. No mountain, elevation or terrain threshold determines eligibility.",
    "sources": {
      "gmba": {
        "authority": "Global Mountain Biodiversity Assessment (GMBA) / EarthEnv",
        "dataset": "GMBA Mountain Inventory v2.0, broad extent, basic non-overlapping ranges",
        "url": "https://data.earthenv.org/mountains/broad/GMBA_Inventory_v2.0_broad_basic.zip",
        "sha256": "sha256:638bae59339fb45ffe190079aa2fabdcd1d05fd00353863e9509bd7b16004ae0",
        "byteLength": 42672594,
        "reviewedAt": "2026-09-29T16:56:01Z",
        "coordinateReferenceSystem": "WGS84 (EPSG:4326)",
        "license": "Creative Commons Attribution 4.0 International",
        "datasetCitation": "Snethlage et al. (2022), GMBA Mountain Inventory v2, https://doi.org/10.48601/earthenv-t9k2-1407",
        "publicationCitation": "Snethlage et al. (2022), A hierarchical inventory of the world’s mountains for global comparative mountain science, Scientific Data, https://doi.org/10.1038/s41597-022-01256-y",
        "limitation": "Broad extent includes surrounding landscape and support polygons. Used to organize eligible starts, not to classify every included location as mountainous."
      },
      "epa": {
        "authority": "U.S. Environmental Protection Agency",
        "dataset": "Washington Level III Ecoregions",
        "url": "https://dmap-prod-oms-edc.s3.us-east-1.amazonaws.com/ORD/Ecoregions/wa/wa_eco_l3.zip",
        "metadataUrl": "https://dmap-prod-oms-edc.s3.us-east-1.amazonaws.com/ORD/Ecoregions/wa/wa_eco_l3.htm",
        "sha256": "sha256:e665f5a691b006feaf0c2d0ec8394c4e6d03de127267a21e054ae5bec4e6dae3",
        "byteLength": 1175130,
        "metadataDate": "2012-05-08",
        "reviewedAt": "2026-09-29T16:56:01Z",
        "license": "U.S. federal government public domain",
        "derivation": "Source NAD83 Albers Equal Area polygons transformed to WGS84 EPSG:4326 with pyshp 3.1.6 and pyproj 3.8.0; used only to allocate residual statewide coverage after the selected GMBA ranges and historical footprints."
      }
    },
    "statewideCoverage": {
      "path": "data/fixtures/coverage/washington-start-coverage.geojson",
      "sha256": "sha256:6f5274416c8dcf9bf05d2daff212a7344cdd4a73ffb461fec16d6a00084e4f3d",
      "properties": {
        "name": "Washington eligible-start coverage obligation",
        "basis": "Union of all twelve Washington effective start footprints at 8e95bc3, including the pinned Census 2025 statewide county inventory and retained historical footprints and approach neighborhoods. Used only as a gap-regression baseline; county assignments are superseded.",
        "sourceCommit": "8e95bc3",
        "license": "U.S. Census Bureau public domain; retained OpenStreetMap-derived boundaries ODbL 1.0; USDA Forest Service public domain. Original attribution retained in Git history."
      }
    },
    "gmbaSelection": [
      {
        "id": "16157",
        "name": "Christina Range",
        "path": "North America > American Cordillera (North America) > Intermountain West > Columbia Mountains > Monashee Mountains > Christina Range",
        "pathIds": "12159 > 12218 > 12543 > 12422 > 11635 > 16157"
      },
      {
        "id": "16160",
        "name": "Kettle River Range",
        "path": "North America > American Cordillera (North America) > Intermountain West > Columbia Mountains > Monashee Mountains > Kettle River Range",
        "pathIds": "12159 > 12218 > 12543 > 12422 > 11635 > 16160"
      },
      {
        "id": "16161",
        "name": "Midway Range",
        "path": "North America > American Cordillera (North America) > Intermountain West > Columbia Mountains > Monashee Mountains > Midway Range",
        "pathIds": "12159 > 12218 > 12543 > 12422 > 11635 > 16161"
      },
      {
        "id": "16163",
        "name": "Rossland Range",
        "path": "North America > American Cordillera (North America) > Intermountain West > Columbia Mountains > Monashee Mountains > Rossland Range",
        "pathIds": "12159 > 12218 > 12543 > 12422 > 11635 > 16163"
      },
      {
        "id": "16166",
        "name": "North Okanagan Highland",
        "path": "North America > American Cordillera (North America) > Intermountain West > Columbia Mountains > Okanogan Highlands > North Okanagan Highland",
        "pathIds": "12159 > 12218 > 12543 > 12422 > 16165 > 16166"
      },
      {
        "id": "16167",
        "name": "South Okanogan Highlands",
        "path": "North America > American Cordillera (North America) > Intermountain West > Columbia Mountains > Okanogan Highlands > South Okanogan Highlands",
        "pathIds": "12159 > 12218 > 12543 > 12422 > 16165 > 16167"
      },
      {
        "id": "16184",
        "name": "Bonnington Range",
        "path": "North America > American Cordillera (North America) > Intermountain West > Columbia Mountains > Selkirk Mountains > Bonnington Range",
        "pathIds": "12159 > 12218 > 12543 > 12422 > 11830 > 16184"
      },
      {
        "id": "16198",
        "name": "Priest Lake Selkirks",
        "path": "North America > American Cordillera (North America) > Intermountain West > Columbia Mountains > Selkirk Mountains > Priest Lake Selkirks",
        "pathIds": "12159 > 12218 > 12543 > 12422 > 11830 > 16198"
      },
      {
        "id": "16206",
        "name": "Abercrombie Area Selkirks",
        "path": "North America > American Cordillera (North America) > Intermountain West > Columbia Mountains > Selkirk Mountains > Southwest Selkirks > Abercrombie Area Selkirks",
        "pathIds": "12159 > 12218 > 12543 > 12422 > 11830 > 16205 > 16206"
      },
      {
        "id": "16207",
        "name": "Central Washington Selkirks",
        "path": "North America > American Cordillera (North America) > Intermountain West > Columbia Mountains > Selkirk Mountains > Southwest Selkirks > Central Washington Selkirks",
        "pathIds": "12159 > 12218 > 12543 > 12422 > 11830 > 16205 > 16207"
      },
      {
        "id": "16208",
        "name": "Huckleberry Mountains",
        "path": "North America > American Cordillera (North America) > Intermountain West > Columbia Mountains > Selkirk Mountains > Southwest Selkirks > Huckleberry Mountains",
        "pathIds": "12159 > 12218 > 12543 > 12422 > 11830 > 16205 > 16208"
      },
      {
        "id": "16209",
        "name": "Mount Spokane Area",
        "path": "North America > American Cordillera (North America) > Intermountain West > Columbia Mountains > Selkirk Mountains > Southwest Selkirks > Mount Spokane Area",
        "pathIds": "12159 > 12218 > 12543 > 12422 > 11830 > 16205 > 16209"
      }
    ],
    "epaResiduals": [
      "EPA Northern Rockies residual",
      "EPA North Cascades residual"
    ],
    "edgeRepair": {
      "parts": 0,
      "areaSquareDegrees": 0,
      "method": "For each connected remaining part outside the EPA polygons, assign its representative point to the nearest post-EPA group by GEOS distance in EPSG:5070; tie-break by ascending region ID."
    },
    "limitation": "The source boundaries are geographic groupings with scale and vintage limitations, not legal access boundaries or proof that all trails are mapped. US-only limits and explicit exclusions still apply. Build costs and representative routes require a real-data build.",
    "authoringPrecision": {
      "method": "GEOS buffer of valid raw derived geometry by 3e-7 degrees with mitre joins and mitre_limit=2, then topology-preserving valid-output set_precision on a shared 1e-7-degree grid. No runtime normalization.",
      "implementation": "Shapely 2.1.2 / GEOS",
      "gridDegrees": 1e-07,
      "outwardBufferDegrees": 3e-07,
      "mitreLimit": 2,
      "verifiedMaximumOutwardDistanceDegrees": 8e-07,
      "maximumMeasuredOutputVertexDistanceDegrees": 6.845685632935603e-07,
      "missingRawAreaSquareDegrees": 0.0,
      "extraAreaSquareDegrees": 2.708874658470762e-06,
      "rawGeometryHash": "sha256:0fe0e5474d174cf0263745ba75335e76d98746e8117e93ff35c1a22190ae3c86",
      "finalGeometryHash": "sha256:99e185d9e612601edbb96089e83947c91bd96b02111accf680329df3bcf31ba5",
      "hashEncoding": "UTF-8 JSON geometry, compact comma/colon separators; numeric serialization from Python 3 json.dumps.",
      "reference": "https://libgeos.org/doxygen/classgeos_1_1precision_1_1GeometryPrecisionReducer.html"
    }
  },
  "geometry": {"type":"MultiPolygon","coordinates":[[[[-119.7152374,48.2822075],[-119.6967071,48.2840589],[-119.692923,48.2865247],[-119.6883738,48.2882256],[-119.680423,48.294858],[-119.6758738,48.2965589],[-119.6720896,48.2990247],[-119.6550405,48.3007256],[-119.6512563,48.3031914],[-119.6467072,48.3048922],[-119.642923,48.3073581],[-119.6342072,48.3090589],[-119.630423,48.3115247],[-119.6258739,48.3132256],[-119.6220897,48.3156914],[-119.6175405,48.3173922],[-119.6137563,48.319858],[-119.6074943,48.3222017],[-119.6049715,48.3320404],[-119.60653,48.3389944],[-119.6029573,48.3444754],[-119.6012565,48.3490246],[-119.5955639,48.3563692],[-119.5883739,48.3590588],[-119.5875235,48.3602918],[-119.5800975,48.3632825],[-119.5595328,48.382301],[-119.5550975,48.3841158],[-119.5428661,48.394801],[-119.5384309,48.3966158],[-119.5345327,48.3989677],[-119.5300976,48.4007825],[-119.5178661,48.4114677],[-119.5122751,48.4132825],[-119.5053659,48.4091158],[-119.4831085,48.4073011],[-119.4751945,48.4120739],[-119.4720329,48.4198009],[-119.4674797,48.4273448],[-119.4688103,48.4363331],[-119.4675774,48.4446665],[-119.4693677,48.4567839],[-119.4720329,48.4611987],[-119.4738477,48.4656339],[-119.4803662,48.4736987],[-119.482181,48.4781339],[-119.4845329,48.4820321],[-119.4863477,48.4906339],[-119.4915885,48.4977017],[-119.4991161,48.5007819],[-119.508833,48.5086352],[-119.5113477,48.5178395],[-119.4905144,48.5403656],[-119.4886996,48.5573008],[-119.4841464,48.5648447],[-119.4848137,48.5693369],[-119.4820875,48.5738534],[-119.4886996,48.582032],[-119.4905144,48.587623],[-119.4863477,48.5945323],[-119.4845329,48.5989675],[-119.469681,48.6153656],[-119.4678662,48.6239675],[-119.4598178,48.6339283],[-119.4636996,48.6403653],[-119.4655143,48.6448005],[-119.4720329,48.6528653],[-119.4738477,48.6709563],[-119.469681,48.6778656],[-119.4678662,48.6823008],[-119.4488477,48.7028656],[-119.443973,48.7110118],[-119.4384309,48.7132824],[-119.4327792,48.7166921],[-119.4303663,48.7281341],[-119.4280144,48.7320322],[-119.4261996,48.7406341],[-119.419681,48.7486989],[-119.4178663,48.7573008],[-119.4071811,48.7695322],[-119.4053663,48.7823007],[-119.4029331,48.786333],[-119.406705,48.792583],[-119.4029331,48.798833],[-119.4053663,48.8028653],[-119.4071811,48.8156338],[-119.4179599,48.8279752],[-119.4139316,48.8346565],[-119.4262322,48.8487393],[-119.425813,48.8515879],[-119.4159294,48.8556325],[-119.4136997,48.8631843],[-119.4212923,48.8734258],[-119.4358515,48.8765021],[-119.4279819,48.8862395],[-119.4284009,48.8890875],[-119.4396642,48.8936978],[-119.4280144,48.9070322],[-119.427107,48.9123747],[-119.4264071,48.9158416],[-119.4236402,48.9193246],[-119.4222405,48.9351284],[-119.4305738,48.9443244],[-119.4319735,48.9533413],[-119.4347405,48.9589077],[-119.4354403,48.9748745],[-119.4385775,48.9777797],[-119.440608,48.9905402],[-119.44285,48.9947761],[-119.4426913,48.9988329],[-119.4427478,49.0002572],[-119.442095,49.000257],[-119.428678,49.0002533],[-119.180728,49.0002907],[-119.137274,49.0002973],[-119.132102,49.0002623],[-118.902776,49.0002978],[-118.836614,49.0003081],[-118.503734,49.0003596],[-118.498763,49.0003604],[-118.370421,49.0003803],[-118.364682,49.0003811],[-118.2246051,49.0004028],[-118.2225701,49.0004032],[-118.1973751,49.0004071],[-118.039921,49.0004314],[-118.0020459,49.0004373],[-118.0011059,48.9999113],[-117.884398,48.9999123],[-117.8761,49.0005463],[-117.6309061,49.0008172],[-117.607323,49.0008433],[-117.429968,49.0003648],[-117.2997909,49.0000136],[-117.2681915,48.9999283],[-117.2682465,48.9998183],[-117.126075,48.9988883],[-117.0323507,48.9991883],[-117.0321067,48.874926],[-117.0323843,48.8466653],[-117.0333347,48.749921],[-117.0336707,48.656902],[-117.0337086,48.655338],[-117.0343577,48.628523],[-117.0344987,48.620769],[-117.0345949,48.6082125],[-117.0348962,48.568885],[-117.0354247,48.499914],[-117.0353824,48.478824],[-117.035301,48.4382251],[-117.0352847,48.430113],[-117.0352847,48.429816],[-117.0352537,48.423144],[-117.0352887,48.422732],[-117.0351777,48.371221],[-117.0351777,48.370878],[-117.0375114,48.2598252],[-117.0386017,48.207939],[-117.0390802,48.1966361],[-117.0391198,48.1957004],[-117.039215,48.1934509],[-117.0392809,48.1918933],[-117.0392859,48.1917774],[-117.0395311,48.185985],[-117.0395559,48.1853975],[-117.0395987,48.184387],[-117.0396147,48.184015],[-117.0395817,48.181124],[-117.0395817,48.180853],[-117.0395827,48.180313],[-117.0396177,48.178142],[-117.0394892,48.1775829],[-117.0394127,48.17725],[-117.0395197,48.1747167],[-117.0395517,48.17396],[-117.0396133,48.1720159],[-117.0397859,48.1665716],[-117.0411067,48.124904],[-117.041121,48.122982],[-117.0414004,48.0855352],[-117.0414007,48.0855],[-117.0416757,48.04556],[-117.0416765,48.0454643],[-117.0422638,47.9774515],[-117.0423597,47.966343],[-117.0423666,47.9583648],[-117.0423984,47.9215223],[-117.042429,47.8861491],[-117.0424391,47.874455],[-117.0424504,47.8613102],[-117.0424697,47.839009],[-117.042285,47.8324955],[-117.0419987,47.822399],[-117.0420637,47.77863],[-117.0424847,47.766525],[-117.0425207,47.764896],[-117.0426227,47.761223],[-117.0426567,47.760857],[-117.0420587,47.7451],[-117.0421347,47.7441],[-117.0416691,47.7359213],[-117.0416658,47.7358643],[-117.0416337,47.7353],[-117.0416483,47.7311086],[-117.0416777,47.72271],[-117.0416338,47.7067933],[-117.0416337,47.7067664],[-117.0416327,47.7064],[-117.0416257,47.7047987],[-117.0416246,47.7045382],[-117.0416125,47.7017678],[-117.0416097,47.7011202],[-117.0415954,47.6978378],[-117.0415948,47.6976814],[-117.0415916,47.6969478],[-117.0415848,47.6954014],[-117.0415317,47.683194],[-117.0414307,47.68],[-117.0414307,47.67814],[-117.0411259,47.6235663],[-117.0411163,47.6218481],[-117.040986,47.5985242],[-117.040909,47.584738],[-117.0408812,47.5797581],[-117.0408497,47.574124],[-117.0409039,47.5715156],[-117.0411737,47.55853],[-117.0412757,47.55821],[-117.0407447,47.532909],[-117.0405447,47.527562],[-117.0405195,47.5233319],[-117.0405137,47.522351],[-117.0405129,47.5222877],[-117.0399447,47.477823],[-117.0399707,47.463309],[-117.0399504,47.438202],[-117.0415689,47.4385875],[-117.0488728,47.4382986],[-117.0531087,47.4405406],[-117.0573568,47.4425426],[-117.061442,47.4447073],[-117.076485,47.4467092],[-117.0843585,47.4425426],[-117.0927732,47.4405406],[-117.0981404,47.4377004],[-117.1072754,47.4447073],[-117.1293417,47.4468191],[-117.1322754,47.4530406],[-117.1406901,47.4550426],[-117.1447753,47.4572073],[-117.1608315,47.4597626],[-117.1687742,47.4542978],[-117.1761433,47.459372],[-117.1822631,47.4591278],[-117.2011189,47.4760386],[-117.2072387,47.4757945],[-117.2136433,47.4802053],[-117.2197061,47.4799652],[-117.223942,47.4822073],[-117.22819,47.4842092],[-117.2322753,47.4863739],[-117.24069,47.4883759],[-117.2447753,47.4905406],[-117.26569,47.4925425],[-117.2697753,47.4947072],[-117.27819,47.4967092],[-117.2822753,47.4988739],[-117.30319,47.5008759],[-117.3110227,47.5050221],[-117.3218583,47.4967092],[-117.3261064,47.4947073],[-117.3437743,47.4790413],[-117.3469117,47.4879895],[-117.3489421,47.5155407],[-117.3585571,47.5273529],[-117.3727216,47.5307262],[-117.3697754,47.536301],[-117.369865,47.538616],[-117.3809369,47.5438407],[-117.3739421,47.5529636],[-117.3740682,47.5562429],[-117.3893882,47.5598929],[-117.3864177,47.5655083],[-117.3927734,47.5737926],[-117.3947754,47.5780407],[-117.4011068,47.5862927],[-117.4031087,47.5947074],[-117.4136068,47.6071259],[-117.4172973,47.6149506],[-117.4281899,47.6175425],[-117.4339274,47.6205781],[-117.4364421,47.636374],[-117.4469401,47.6487926],[-117.448942,47.6530406],[-117.4552734,47.6612926],[-117.4572754,47.6655407],[-117.4610638,47.6726984],[-117.4488851,47.6765558],[-117.4490926,47.6818206],[-117.4770957,47.6845062],[-117.4720297,47.6940807],[-117.4806516,47.7008757],[-117.488525,47.6967091],[-117.5037961,47.6947071],[-117.5194171,47.7029713],[-117.5367633,47.7062835],[-117.5406088,47.7080455],[-117.5375244,47.7227917],[-117.5462035,47.7328623],[-117.5596881,47.7444834],[-117.5766437,47.7470672],[-117.5930094,47.7731985],[-117.5989054,47.7864106],[-117.60531,47.7966726],[-117.6072387,47.8114106],[-117.6205402,47.8265756],[-117.6282265,47.8300058],[-117.6322385,47.8322437],[-117.6448932,47.8341725],[-117.6635172,47.8510224],[-117.665572,47.8822439],[-117.6703123,47.8889291],[-117.6781124,47.8925057],[-117.6963942,47.8764699],[-117.6989048,47.8654226],[-117.7100987,47.8523528],[-117.7178095,47.8489104],[-117.7218216,47.8466725],[-117.7261429,47.8447438],[-117.7301549,47.8425058],[-117.7344762,47.8405771],[-117.7384883,47.8383391],[-117.7594762,47.8364104],[-117.7634883,47.8341725],[-117.7707393,47.8319914],[-117.7759516,47.8324065],[-117.7884882,47.8216724],[-117.8177324,47.8197437],[-117.8364051,47.8364104],[-117.8490598,47.8383391],[-117.8572385,47.8447437],[-117.8657265,47.8466725],[-117.8666908,47.8477915],[-117.8740758,47.8506315],[-117.8842849,47.8424692],[-117.8886794,47.8406137],[-117.8926183,47.8383025],[-117.9136794,47.836447],[-117.9217849,47.8299692],[-117.9261794,47.8281137],[-117.9301182,47.8258025],[-117.9376135,47.823947],[-117.9447018,47.8281137],[-117.9574296,47.8299692],[-117.9613685,47.8322804],[-117.9699296,47.8341358],[-117.9738684,47.836447],[-117.9855301,47.8383025],[-117.9926182,47.8341358],[-117.9970127,47.8322804],[-118.0039788,47.8271942],[-118.0072014,47.8195527],[-118.0095126,47.8156138],[-118.0121656,47.809323],[-118.0261794,47.8072804],[-118.0301182,47.8049692],[-118.0428461,47.8031137],[-118.0467849,47.8008025],[-118.0635615,47.7987029],[-118.0731075,47.799891],[-118.095772,47.8207692],[-118.1004636,47.831906],[-118.1171587,47.8343393],[-118.1197019,47.8489472],[-118.1220131,47.852886],[-118.1238686,47.8614472],[-118.1345131,47.8737193],[-118.1378822,47.8817066],[-118.1490962,47.8841358],[-118.1530351,47.886447],[-118.1574296,47.8883025],[-118.1832801,47.9124603],[-118.1863685,47.9197805],[-118.197013,47.9320526],[-118.2001014,47.9393808],[-118.2074296,47.9424691],[-118.2113683,47.9447803],[-118.2396966,47.9466358],[-118.2467848,47.9424691],[-118.255346,47.9406137],[-118.2634514,47.9341358],[-118.2720126,47.9322803],[-118.2759514,47.9299691],[-118.2803459,47.9281137],[-118.2842847,47.9258025],[-118.2886793,47.923947],[-118.2926181,47.9216358],[-118.2970126,47.9197803],[-118.3009514,47.9174691],[-118.3053459,47.9156137],[-118.3092847,47.9133025],[-118.3166129,47.9102141],[-118.3203157,47.9014169],[-118.3261793,47.898947],[-118.3301181,47.8966358],[-118.3345126,47.8947804],[-118.3384514,47.8924692],[-118.3458569,47.8894581],[-118.3489249,47.8821096],[-118.3511221,47.8780569],[-118.3530915,47.865443],[-118.3552888,47.8613902],[-118.3572582,47.8571096],[-118.3594555,47.8530569],[-118.36208,47.847348],[-118.3677889,47.8447234],[-118.3718417,47.8425261],[-118.3761223,47.8405567],[-118.3837924,47.83639],[-118.4198725,47.8383594],[-118.4239252,47.8405567],[-118.4365392,47.8425261],[-118.4405919,47.8447234],[-118.4486771,47.8484344],[-118.4511227,47.8529429],[-118.4530921,47.8572235],[-118.4552893,47.8612763],[-118.4577429,47.8770111],[-118.463773,47.8802865],[-118.4969556,47.8780567],[-118.5046257,47.87389],[-118.5240391,47.8758594],[-118.5280919,47.8780567],[-118.5361771,47.8817677],[-118.5389645,47.886903],[-118.5384802,47.8950248],[-118.5408199,47.9223968],[-118.5489252,47.9280567],[-118.5532058,47.9300261],[-118.5593296,47.9333505],[-118.580232,47.9321053],[-118.5917513,47.9327889],[-118.600459,47.9280567],[-118.6365391,47.9300261],[-118.6405918,47.9322234],[-118.6532057,47.9341928],[-118.6572585,47.93639],[-118.6615391,47.9383594],[-118.6655918,47.9405567],[-118.6812737,47.9415414],[-118.6886629,47.9405974],[-118.6926342,47.9383187],[-118.6969962,47.9364307],[-118.7038564,47.931491],[-118.7072174,47.9237356],[-118.709496,47.9197642],[-118.711673,47.9099334],[-118.7178295,47.9072641],[-118.7218009,47.9049854],[-118.7374423,47.9030974],[-118.7447177,47.907264],[-118.7657464,47.9091521],[-118.7697177,47.9114307],[-118.782413,47.9133187],[-118.7864128,47.9156136],[-118.7885653,47.9153939],[-118.7918409,47.9157276],[-118.7988844,47.9197641],[-118.8032464,47.9216521],[-118.8072178,47.9239307],[-118.8115797,47.9258188],[-118.8155511,47.9280974],[-118.8199131,47.9299854],[-118.8405511,47.9489307],[-118.8449131,47.9508187],[-118.8488844,47.9530974],[-118.857413,47.9549854],[-118.8646069,47.9591072],[-118.8718008,47.9549854],[-118.8886628,47.9530974],[-118.8926342,47.9508187],[-118.9094961,47.9489307],[-118.9134675,47.9466521],[-118.9300081,47.9445362],[-118.9341503,47.9449593],[-118.9384675,47.9424854],[-118.9624422,47.9405974],[-118.9697177,47.9447641],[-118.9740797,47.9466521],[-118.9812739,47.9519582],[-118.9803095,47.9697441],[-118.9614049,47.9904228],[-118.9594761,47.9989108],[-118.9508662,48.0099052],[-118.9514765,48.0174937],[-118.9578566,48.0264942],[-118.965726,48.0300057],[-118.969738,48.0322437],[-118.9740593,48.0341724],[-118.9780916,48.0364225],[-118.9802319,48.0362475],[-118.9832471,48.0364917],[-118.9905713,48.040577],[-118.9990593,48.0425057],[-119.0121291,48.0536996],[-119.0155715,48.0614105],[-119.0178095,48.0654225],[-119.0197382,48.0780772],[-119.0221348,48.08237],[-119.0218134,48.0863333],[-119.0230341,48.1015187],[-119.0261428,48.1070892],[-119.0280715,48.1114104],[-119.0303094,48.1154225],[-119.0335239,48.1226245],[-119.040726,48.125839],[-119.0530714,48.1364103],[-119.0573926,48.138339],[-119.0614046,48.1405769],[-119.1073926,48.1425057],[-119.1114047,48.1447436],[-119.1157259,48.1466723],[-119.119738,48.1489103],[-119.1240593,48.150839],[-119.1312735,48.1548632],[-119.1384877,48.150839],[-119.1469757,48.1489103],[-119.1509877,48.1466723],[-119.155309,48.1447436],[-119.1634877,48.138339],[-119.167809,48.1364103],[-119.1718211,48.1341723],[-119.180309,48.1322436],[-119.1843211,48.1300057],[-119.1969757,48.128077],[-119.2051543,48.1216724],[-119.2094756,48.1197436],[-119.2134877,48.1175057],[-119.230309,48.115577],[-119.234321,48.113339],[-119.2386423,48.1114103],[-119.2426543,48.1091724],[-119.2469756,48.1072436],[-119.2509877,48.1050057],[-119.2622712,48.1030769],[-119.2697379,48.1072436],[-119.2782259,48.1091723],[-119.2822379,48.1114103],[-119.2865592,48.113339],[-119.2905712,48.115577],[-119.2976878,48.1175056],[-119.3051543,48.113339],[-119.3136423,48.1114103],[-119.3300606,48.0970102],[-119.3322375,48.0772106],[-119.3280382,48.0696829],[-119.3303088,48.0634938],[-119.3326404,48.0557545],[-119.3386423,48.053077],[-119.3437734,48.0502164],[-119.3489045,48.053077],[-119.4073924,48.0550057],[-119.4114045,48.0572437],[-119.4157258,48.0591724],[-119.4197379,48.0614103],[-119.4254997,48.063982],[-119.4280713,48.0697438],[-119.4344799,48.0779305],[-119.4615591,48.0800057],[-119.46669,48.0828661],[-119.4718209,48.0800057],[-119.4789378,48.0780769],[-119.4893097,48.0838631],[-119.511868,48.0820524],[-119.5155708,48.0737558],[-119.5178087,48.0697438],[-119.5197374,48.0654225],[-119.5223091,48.0608122],[-119.5303088,48.0572437],[-119.5343209,48.0550057],[-119.5386422,48.053077],[-119.5426542,48.050839],[-119.5469755,48.0489103],[-119.5509875,48.0466724],[-119.5553088,48.0447437],[-119.5593209,48.0425057],[-119.5636421,48.040577],[-119.5718209,48.0341724],[-119.5761421,48.0322437],[-119.5843208,48.0258391],[-119.5886421,48.0239104],[-119.6134875,48.0008391],[-119.6178088,47.9989104],[-119.6218209,47.9966724],[-119.6289377,47.9947436],[-119.6374745,47.9995085],[-119.6469594,47.9987435],[-119.6530711,48.003077],[-119.6573924,48.0050057],[-119.6655711,48.0114104],[-119.6698924,48.0133391],[-119.6739044,48.015577],[-119.6782257,48.0175057],[-119.6864045,48.0239104],[-119.6907257,48.0258391],[-119.694738,48.0287893],[-119.6905712,48.0362561],[-119.6886425,48.0405774],[-119.6822379,48.0487561],[-119.6803092,48.0530774],[-119.6739046,48.0612561],[-119.6719759,48.0655774],[-119.6697379,48.0695894],[-119.6678093,48.0757457],[-119.6794546,48.0898242],[-119.6893543,48.0925056],[-119.6968209,48.088339],[-119.7053088,48.0864103],[-119.7093208,48.0841724],[-119.7164377,48.0822436],[-119.7239044,48.0864103],[-119.7301016,48.0891773],[-119.7375238,48.0977917],[-119.7345896,48.0990248],[-119.7217071,48.1007257],[-119.717923,48.1031915],[-119.7092071,48.1048923],[-119.7054229,48.1073581],[-119.6870189,48.1091933],[-119.6845898,48.1156913],[-119.682124,48.1194755],[-119.6804231,48.1240246],[-119.6779573,48.1278088],[-119.6762565,48.132358],[-119.6737906,48.1361422],[-119.6720898,48.1406913],[-119.669624,48.1444754],[-119.6679232,48.1630788],[-119.6720898,48.1694752],[-119.6737906,48.1740244],[-119.6762565,48.1778086],[-119.6779573,48.1865243],[-119.6880199,48.1981128],[-119.6950063,48.2007251],[-119.7029572,48.2073575],[-119.7075063,48.2090584],[-119.7112905,48.2115242],[-119.7158397,48.2132251],[-119.7352898,48.2312795],[-119.732002,48.2363332],[-119.7345898,48.2403085],[-119.7362906,48.2448577],[-119.7402376,48.2509166],[-119.7362906,48.2569754],[-119.7345898,48.2615246],[-119.7152374,48.2822075]]],[[[-119.5011445,48.9686911],[-119.5035763,48.9707467],[-119.5035762,48.970747],[-119.5026254,48.9704713],[-119.5011441,48.9686914],[-119.5011445,48.9686911]]]]}
}
