{
  "type": "Feature",
  "properties": {
    "id": "north-cascades",
    "name": "North Cascades",
    "boundaryVersion": "mountain-led-v1",
    "derivation": "Selected GMBA broad basic ranges, plus retained historical footprint/approach neighborhoods where present, clipped to the existing complete statewide start footprint; remaining locations allocated by EPA ecoregions and the documented shoreline/state-edge repair. No mountain, elevation or terrain threshold determines eligibility.",
    "sources": {
      "gmba": {
        "authority": "Global Mountain Biodiversity Assessment (GMBA) / EarthEnv",
        "dataset": "GMBA Mountain Inventory v2.0, broad extent, basic non-overlapping ranges",
        "url": "https://data.earthenv.org/mountains/broad/GMBA_Inventory_v2.0_broad_basic.zip",
        "sha256": "sha256:638bae59339fb45ffe190079aa2fabdcd1d05fd00353863e9509bd7b16004ae0",
        "byteLength": 42672594,
        "reviewedAt": "2026-09-29T16:56:01Z",
        "coordinateReferenceSystem": "WGS84 (EPSG:4326)",
        "license": "Creative Commons Attribution 4.0 International",
        "datasetCitation": "Snethlage et al. (2022), GMBA Mountain Inventory v2, https://doi.org/10.48601/earthenv-t9k2-1407",
        "publicationCitation": "Snethlage et al. (2022), A hierarchical inventory of the world’s mountains for global comparative mountain science, Scientific Data, https://doi.org/10.1038/s41597-022-01256-y",
        "limitation": "Broad extent includes surrounding landscape and support polygons. Used to organize eligible starts, not to classify every included location as mountainous."
      },
      "epa": {
        "authority": "U.S. Environmental Protection Agency",
        "dataset": "Washington Level III Ecoregions",
        "url": "https://dmap-prod-oms-edc.s3.us-east-1.amazonaws.com/ORD/Ecoregions/wa/wa_eco_l3.zip",
        "metadataUrl": "https://dmap-prod-oms-edc.s3.us-east-1.amazonaws.com/ORD/Ecoregions/wa/wa_eco_l3.htm",
        "sha256": "sha256:e665f5a691b006feaf0c2d0ec8394c4e6d03de127267a21e054ae5bec4e6dae3",
        "byteLength": 1175130,
        "metadataDate": "2012-05-08",
        "reviewedAt": "2026-09-29T16:56:01Z",
        "license": "U.S. federal government public domain",
        "derivation": "Source NAD83 Albers Equal Area polygons transformed to WGS84 EPSG:4326 with pyshp 3.1.6 and pyproj 3.8.0; used only to allocate residual statewide coverage after the selected GMBA ranges and historical footprints."
      }
    },
    "statewideCoverage": {
      "path": "data/fixtures/coverage/washington-start-coverage.geojson",
      "sha256": "sha256:6f5274416c8dcf9bf05d2daff212a7344cdd4a73ffb461fec16d6a00084e4f3d",
      "properties": {
        "name": "Washington eligible-start coverage obligation",
        "basis": "Union of all twelve Washington effective start footprints at 8e95bc3, including the pinned Census 2025 statewide county inventory and retained historical footprints and approach neighborhoods. Used only as a gap-regression baseline; county assignments are superseded.",
        "sourceCommit": "8e95bc3",
        "license": "U.S. Census Bureau public domain; retained OpenStreetMap-derived boundaries ODbL 1.0; USDA Forest Service public domain. Original attribution retained in Git history."
      }
    },
    "retainedFootprint": {
      "path": "data/regions/north-cascades/boundary.geojson",
      "sha256": "sha256:dbc8527fca925f6c47d213d8352ff726c608432540a5f74b59757dc7ef802e17",
      "properties": {
        "id": "north-cascades",
        "name": "North Cascades build boundary",
        "boundaryVersion": "north-cascades-boundary-v3",
        "sourceNamedAreaIds": [
          "osm:relation/2421537",
          "osm:relation/2421484",
          "osm:relation/2421539",
          "osm:relation/6116357",
          "osm:relation/6116548",
          "osm:relation/6116621",
          "osm:relation/16156374"
        ]
      },
      "approachNeighborhoods": "Union of the existing catalog approach circles, using their unchanged explicit radius or approachRadiusMeters and the shared 32-vertex spherical neighborhood definition."
    },
    "gmbaSelection": [
      {
        "id": "16936",
        "name": "Bonanza Massif",
        "path": "North America > American Cordillera (North America) > Pacific Coast Ranges > Cascade Range (North America) > North Cascades > Central North Cascades > Bonanza Massif",
        "pathIds": "12159 > 12218 > 12385 > 11202 > 15510 > 16935 > 16936"
      },
      {
        "id": "16937",
        "name": "Buckindy-Snowking Area",
        "path": "North America > American Cordillera (North America) > Pacific Coast Ranges > Cascade Range (North America) > North Cascades > Central North Cascades > Buckindy-Snowking Area",
        "pathIds": "12159 > 12218 > 12385 > 11202 > 15510 > 16935 > 16937"
      },
      {
        "id": "16938",
        "name": "Buckner-Boston Massif",
        "path": "North America > American Cordillera (North America) > Pacific Coast Ranges > Cascade Range (North America) > North Cascades > Central North Cascades > Buckner-Boston Massif",
        "pathIds": "12159 > 12218 > 12385 > 11202 > 15510 > 16935 > 16938"
      },
      {
        "id": "16939",
        "name": "Eldorado Massif",
        "path": "North America > American Cordillera (North America) > Pacific Coast Ranges > Cascade Range (North America) > North Cascades > Central North Cascades > Eldorado Massif",
        "pathIds": "12159 > 12218 > 12385 > 11202 > 15510 > 16935 > 16939"
      },
      {
        "id": "16940",
        "name": "Goode-Logan-Black Area",
        "path": "North America > American Cordillera (North America) > Pacific Coast Ranges > Cascade Range (North America) > North Cascades > Central North Cascades > Goode-Logan-Black Area",
        "pathIds": "12159 > 12218 > 12385 > 11202 > 15510 > 16935 > 16940"
      },
      {
        "id": "16941",
        "name": "Ptarmigan Crest",
        "path": "North America > American Cordillera (North America) > Pacific Coast Ranges > Cascade Range (North America) > North Cascades > Central North Cascades > Ptarmigan Crest",
        "pathIds": "12159 > 12218 > 12385 > 11202 > 15510 > 16935 > 16941"
      },
      {
        "id": "16942",
        "name": "Ragged Ridge",
        "path": "North America > American Cordillera (North America) > Pacific Coast Ranges > Cascade Range (North America) > North Cascades > Central North Cascades > Ragged Ridge (North Cascades)",
        "pathIds": "12159 > 12218 > 12385 > 11202 > 15510 > 16935 > 16942"
      },
      {
        "id": "16967",
        "name": "South Hozameen Range",
        "path": "North America > American Cordillera (North America) > Pacific Coast Ranges > Cascade Range (North America) > North Cascades > Hozameen Range > South Hozameen Range",
        "pathIds": "12159 > 12218 > 12385 > 11202 > 15510 > 16963 > 16967"
      },
      {
        "id": "16969",
        "name": "Gardner Range",
        "path": "North America > American Cordillera (North America) > Pacific Coast Ranges > Cascade Range (North America) > North Cascades > Methow Mountains > Gardner Range",
        "pathIds": "12159 > 12218 > 12385 > 11202 > 15510 > 16968 > 16969"
      },
      {
        "id": "16970",
        "name": "North Methow Mountains",
        "path": "North America > American Cordillera (North America) > Pacific Coast Ranges > Cascade Range (North America) > North Cascades > Methow Mountains > North Methow Mountains",
        "pathIds": "12159 > 12218 > 12385 > 11202 > 15510 > 16968 > 16970"
      },
      {
        "id": "16971",
        "name": "Sawtooth Ridge",
        "path": "North America > American Cordillera (North America) > Pacific Coast Ranges > Cascade Range (North America) > North Cascades > Methow Mountains > Sawtooth Ridge (Cascades)",
        "pathIds": "12159 > 12218 > 12385 > 11202 > 15510 > 16968 > 16971"
      },
      {
        "id": "16972",
        "name": "South Methow Mountains",
        "path": "North America > American Cordillera (North America) > Pacific Coast Ranges > Cascade Range (North America) > North Cascades > Methow Mountains > South Methow Mountains",
        "pathIds": "12159 > 12218 > 12385 > 11202 > 15510 > 16968 > 16972"
      },
      {
        "id": "16973",
        "name": "South Washington Pass",
        "path": "North America > American Cordillera (North America) > Pacific Coast Ranges > Cascade Range (North America) > North Cascades > Methow Mountains > South Washington Pass",
        "pathIds": "12159 > 12218 > 12385 > 11202 > 15510 > 16968 > 16973"
      },
      {
        "id": "16984",
        "name": "Aeneas-Palmer Area",
        "path": "North America > American Cordillera (North America) > Pacific Coast Ranges > Cascade Range (North America) > North Cascades > Okanogan Range > Aeneas-Palmer Area",
        "pathIds": "12159 > 12218 > 12385 > 11202 > 15510 > 16983 > 16984"
      },
      {
        "id": "16985",
        "name": "Cathedral Range",
        "path": "North America > American Cordillera (North America) > Pacific Coast Ranges > Cascade Range (North America) > North Cascades > Okanogan Range > Cathedral Range (Cascades)",
        "pathIds": "12159 > 12218 > 12385 > 11202 > 15510 > 16983 > 16985"
      },
      {
        "id": "16986",
        "name": "Central Pasayten Area",
        "path": "North America > American Cordillera (North America) > Pacific Coast Ranges > Cascade Range (North America) > North Cascades > Okanogan Range > Central Pasayten Area",
        "pathIds": "12159 > 12218 > 12385 > 11202 > 15510 > 16983 > 16986"
      },
      {
        "id": "16987",
        "name": "Loup Loup Area",
        "path": "North America > American Cordillera (North America) > Pacific Coast Ranges > Cascade Range (North America) > North Cascades > Okanogan Range > Loup Loup Area",
        "pathIds": "12159 > 12218 > 12385 > 11202 > 15510 > 16983 > 16987"
      },
      {
        "id": "16989",
        "name": "North Washington Pass",
        "path": "North America > American Cordillera (North America) > Pacific Coast Ranges > Cascade Range (North America) > North Cascades > Okanogan Range > North Washington Pass",
        "pathIds": "12159 > 12218 > 12385 > 11202 > 15510 > 16983 > 16989"
      },
      {
        "id": "16990",
        "name": "Snowy-Windy-Chopaka",
        "path": "North America > American Cordillera (North America) > Pacific Coast Ranges > Cascade Range (North America) > North Cascades > Okanogan Range > Snowy-Windy-Chopaka",
        "pathIds": "12159 > 12218 > 12385 > 11202 > 15510 > 16983 > 16990"
      },
      {
        "id": "16991",
        "name": "Tiffany Range",
        "path": "North America > American Cordillera (North America) > Pacific Coast Ranges > Cascade Range (North America) > North Cascades > Okanogan Range > Tiffany Range",
        "pathIds": "12159 > 12218 > 12385 > 11202 > 15510 > 16983 > 16991"
      },
      {
        "id": "16993",
        "name": "Bacon-Blum-Triumph Area",
        "path": "North America > American Cordillera (North America) > Pacific Coast Ranges > Cascade Range (North America) > North Cascades > Skagit Range > Bacon-Blum-Triumph Area",
        "pathIds": "12159 > 12218 > 12385 > 11202 > 15510 > 16992 > 16993"
      },
      {
        "id": "16994",
        "name": "Baker-Shuksan Massif",
        "path": "North America > American Cordillera (North America) > Pacific Coast Ranges > Cascade Range (North America) > North Cascades > Skagit Range > Baker-Shuksan Massif",
        "pathIds": "12159 > 12218 > 12385 > 11202 > 15510 > 16992 > 16994"
      },
      {
        "id": "16995",
        "name": "Border Ranges",
        "path": "North America > American Cordillera (North America) > Pacific Coast Ranges > Cascade Range (North America) > North Cascades > Skagit Range > Border Ranges",
        "pathIds": "12159 > 12218 > 12385 > 11202 > 15510 > 16992 > 16995"
      },
      {
        "id": "16997",
        "name": "Custer-Chilliwack Group",
        "path": "North America > American Cordillera (North America) > Pacific Coast Ranges > Cascade Range (North America) > North Cascades > Skagit Range > Custer-Chilliwack Group",
        "pathIds": "12159 > 12218 > 12385 > 11202 > 15510 > 16992 > 16997"
      },
      {
        "id": "16999",
        "name": "Picket Range",
        "path": "North America > American Cordillera (North America) > Pacific Coast Ranges > Cascade Range (North America) > North Cascades > Skagit Range > Picket Range",
        "pathIds": "12159 > 12218 > 12385 > 11202 > 15510 > 16992 > 16999"
      },
      {
        "id": "17001",
        "name": "Twin Sisters-Foothills",
        "path": "North America > American Cordillera (North America) > Pacific Coast Ranges > Cascade Range (North America) > North Cascades > Skagit Range > Twin Sisters-Foothills",
        "pathIds": "12159 > 12218 > 12385 > 11202 > 15510 > 16992 > 17001"
      }
    ],
    "epaResiduals": [],
    "edgeRepair": {
      "parts": 0,
      "areaSquareDegrees": 0,
      "method": "For each connected remaining part outside the EPA polygons, assign its representative point to the nearest post-EPA group by GEOS distance in EPSG:5070; tie-break by ascending region ID."
    },
    "limitation": "The source boundaries are geographic groupings with scale and vintage limitations, not legal access boundaries or proof that all trails are mapped. US-only limits and explicit exclusions still apply. Build costs and representative routes require a real-data build.",
    "authoringPrecision": {
      "method": "GEOS buffer of valid raw derived geometry by 3e-7 degrees with mitre joins and mitre_limit=2, then topology-preserving valid-output set_precision on a shared 1e-7-degree grid. No runtime normalization.",
      "implementation": "Shapely 2.1.2 / GEOS",
      "gridDegrees": 1e-07,
      "outwardBufferDegrees": 3e-07,
      "mitreLimit": 2,
      "verifiedMaximumOutwardDistanceDegrees": 8e-07,
      "maximumMeasuredOutputVertexDistanceDegrees": 6.323489861336136e-07,
      "missingRawAreaSquareDegrees": 0.0,
      "extraAreaSquareDegrees": 2.7640351998314827e-06,
      "rawGeometryHash": "sha256:1a7e4b2c71fb89ad7f27643be68a0e18cc6f868552a9166cb940dbdd01d643c9",
      "finalGeometryHash": "sha256:7b3ea7a53f1d8cb724e813242f1c546359fe7fba1dc8fd375636cb539982ab50",
      "hashEncoding": "UTF-8 JSON geometry, compact comma/colon separators; numeric serialization from Python 3 json.dumps.",
      "reference": "https://libgeos.org/doxygen/classgeos_1_1precision_1_1GeometryPrecisionReducer.html"
    }
  },
  "geometry": {"type":"Polygon","coordinates":[[[-122.5989401,48.7819714],[-122.5969544,48.7988901],[-122.5947571,48.8008595],[-122.5927877,48.8113902],[-122.588507,48.8133596],[-122.5865377,48.8155568],[-122.5843404,48.8175262],[-122.582371,48.8197235],[-122.5801738,48.8216929],[-122.5782044,48.8259735],[-122.5760071,48.8279429],[-122.5740377,48.8301402],[-122.5718404,48.8321096],[-122.569871,48.8343068],[-122.5676737,48.8362762],[-122.5657043,48.8384735],[-122.5635071,48.8404429],[-122.5615376,48.8426402],[-122.557257,48.8446096],[-122.5552877,48.8468068],[-122.5530904,48.8487762],[-122.5500875,48.8521332],[-122.5205545,48.8656871],[-122.494757,48.871693],[-122.4844543,48.8759736],[-122.4780904,48.8779429],[-122.476121,48.8801402],[-122.4718405,48.8821095],[-122.4698711,48.8926401],[-122.4676738,48.8946095],[-122.4657044,48.8988901],[-122.4635071,48.9008595],[-122.4615377,48.9030568],[-122.4593405,48.9050262],[-122.4573711,48.9093068],[-122.4551738,48.9112762],[-122.452948,48.9137665],[-122.4351379,48.9219371],[-122.4093405,48.9279429],[-122.4083559,48.9332079],[-122.4093567,48.9342901],[-122.4115215,48.9362921],[-122.4135236,48.9407642],[-122.4093568,48.9446258],[-122.4073549,48.953264],[-122.4115215,48.9571254],[-122.4135234,48.9592901],[-122.4177714,48.961292],[-122.4197734,48.9634568],[-122.4219382,48.9654588],[-122.4239402,48.9907642],[-122.4197734,48.9946258],[-122.4177715,48.9988738],[-122.4135234,49.0008758],[-122.4123029,49.0021955],[-122.4078205,49.0021935],[-122.405989,49.0022393],[-122.3631617,49.0023098],[-122.2911441,49.0024283],[-122.2856371,49.0024374],[-122.2511751,49.0024941],[-122.251063,49.0024943],[-122.1449377,49.0022525],[-122.1369397,49.0022342],[-122.1366374,49.0022335],[-122.098357,49.0021463],[-122.0704311,49.0017644],[-121.9886235,49.0006456],[-121.9715347,49.0004119],[-121.9494742,49.0001102],[-121.9414395,49.0000003],[-121.8149997,49.0000003],[-121.8149997,48.9982711],[-121.7586372,48.9975003],[-121.7366,48.9975003],[-121.6950003,48.9977871],[-121.6950003,49.0000003],[-121.4089997,49.0000003],[-121.4089997,48.9997585],[-121.4060003,48.9997792],[-121.4060003,49.0000003],[-121.3879957,49.0000003],[-121.345295,49.0008433],[-121.256933,49.0000883],[-121.2512441,49.0001673],[-121.2489491,49.0009253],[-121.2299,49.0011583],[-121.12624,49.0014123],[-121.059966,49.0006213],[-120.978955,49.0003673],[-120.8515609,49.0002804],[-120.716604,49.0001883],[-120.376216,49.0007053],[-120.1707871,49.0000003],[-119.9305656,49.0000003],[-119.9192619,49.0000934],[-119.876195,49.0004483],[-119.702016,49.0002693],[-119.7017028,49.000265],[-119.701218,49.0002583],[-119.6599111,49.0002588],[-119.6594387,48.9967091],[-119.6531074,48.9947072],[-119.6354399,48.9790416],[-119.6302724,48.9822072],[-119.6218577,48.9842092],[-119.6177724,48.9863739],[-119.6010244,48.9883759],[-119.5931508,48.9925425],[-119.5739409,48.9905406],[-119.5698556,48.9883759],[-119.5614409,48.9863739],[-119.5545887,48.9827484],[-119.5124865,48.9844167],[-119.5076647,48.9742034],[-119.4948555,48.9633758],[-119.4906075,48.9613739],[-119.4823556,48.9550425],[-119.4697742,48.9530406],[-119.4656889,48.9508759],[-119.4614409,48.9488739],[-119.4573556,48.9467092],[-119.4493314,48.942925],[-119.4406074,48.9322071],[-119.4383695,48.9228118],[-119.4271064,48.9123747],[-119.4280138,48.9070319],[-119.4396632,48.893698],[-119.4284004,48.8890879],[-119.4279812,48.8862393],[-119.4358505,48.8765024],[-119.4212919,48.8734263],[-119.413699,48.8631844],[-119.4159289,48.8556321],[-119.4258125,48.8515875],[-119.4262316,48.8487395],[-119.4139309,48.8346566],[-119.4179592,48.8279753],[-119.4071805,48.8156341],[-119.4053657,48.8028655],[-119.4029324,48.798833],[-119.4067043,48.792583],[-119.4029324,48.786333],[-119.4053657,48.7823005],[-119.4071805,48.7695319],[-119.4178657,48.7573005],[-119.4196805,48.7486986],[-119.426199,48.7406338],[-119.4280138,48.732032],[-119.4303657,48.7281339],[-119.4327786,48.7166917],[-119.4384306,48.7132818],[-119.4439725,48.7110113],[-119.4488472,48.7028653],[-119.4678657,48.6823005],[-119.4696805,48.6778653],[-119.4738471,48.6709562],[-119.4720323,48.6528656],[-119.4655138,48.6448008],[-119.463699,48.6403656],[-119.4598171,48.6339283],[-119.4678657,48.6239672],[-119.4696805,48.6153653],[-119.4845324,48.5989672],[-119.4863471,48.594532],[-119.4905137,48.5876229],[-119.488699,48.5820323],[-119.4820868,48.5738535],[-119.4848131,48.5693368],[-119.4841458,48.5648446],[-119.488699,48.5573006],[-119.4905138,48.5403654],[-119.5113471,48.5178394],[-119.5088325,48.5086355],[-119.4991158,48.5007824],[-119.4915881,48.4977022],[-119.4863471,48.4906342],[-119.4845323,48.4820323],[-119.4821805,48.4781342],[-119.4803657,48.473699],[-119.4738472,48.4656342],[-119.4720324,48.461199],[-119.4693671,48.4567841],[-119.4675768,48.4446665],[-119.4688097,48.4363331],[-119.4674791,48.4273446],[-119.4720324,48.4198006],[-119.475194,48.4120735],[-119.4831084,48.4073005],[-119.505366,48.4091153],[-119.5122752,48.4132819],[-119.5178658,48.4114672],[-119.5300972,48.400782],[-119.5345325,48.3989672],[-119.5384306,48.3966153],[-119.5428658,48.3948005],[-119.5550972,48.3841153],[-119.5595324,48.3823005],[-119.5800972,48.363282],[-119.5875231,48.3602913],[-119.5883735,48.3590584],[-119.5955635,48.3563687],[-119.601256,48.3490243],[-119.6029568,48.3444751],[-119.6065293,48.3389943],[-119.6049709,48.3320404],[-119.6074938,48.3222013],[-119.6137561,48.3198575],[-119.6175403,48.3173917],[-119.6220894,48.3156908],[-119.6258736,48.313225],[-119.6304227,48.3115242],[-119.6342069,48.3090583],[-119.6429228,48.3073575],[-119.6467069,48.3048917],[-119.6512561,48.3031908],[-119.6550403,48.300725],[-119.6720894,48.2990242],[-119.6758736,48.2965584],[-119.6804227,48.2948575],[-119.6883735,48.288225],[-119.6929227,48.2865242],[-119.6967069,48.2840583],[-119.7152372,48.2822069],[-119.7345892,48.2615243],[-119.7362901,48.2569752],[-119.7402369,48.2509166],[-119.7362901,48.2448579],[-119.7345892,48.2403088],[-119.7320013,48.2363332],[-119.735289,48.2312796],[-119.7158393,48.2132256],[-119.7112902,48.2115247],[-119.707506,48.2090589],[-119.7029569,48.2073581],[-119.695006,48.2007256],[-119.6880195,48.1981133],[-119.6779568,48.1865246],[-119.6762559,48.1778088],[-119.6737901,48.1740246],[-119.6720893,48.1694755],[-119.6679226,48.1630789],[-119.6696234,48.1444752],[-119.6720893,48.140691],[-119.6737901,48.1361419],[-119.6762559,48.1323577],[-119.6779568,48.1278086],[-119.6804226,48.1240244],[-119.6821234,48.1194752],[-119.6845892,48.115691],[-119.6870185,48.1091927],[-119.7054227,48.1073576],[-119.7092069,48.1048917],[-119.7179227,48.1031909],[-119.7217069,48.1007251],[-119.7345894,48.0990242],[-119.7375233,48.0977913],[-119.7386627,48.0987353],[-119.7469065,48.0995776],[-119.7552845,48.104375],[-119.7702948,48.102845],[-119.7745144,48.0931161],[-119.7803291,48.0905973],[-119.7843005,48.0883187],[-119.7917672,48.0861295],[-119.8107979,48.0880704],[-119.8176338,48.084152],[-119.8303291,48.082264],[-119.8343005,48.0799853],[-119.8469958,48.0780973],[-119.8509671,48.0758187],[-119.8553291,48.0739307],[-119.8593004,48.071652],[-119.8636624,48.069764],[-119.8676337,48.0674854],[-119.8719957,48.0655973],[-119.8759671,48.0633187],[-119.8844957,48.0614307],[-119.8919582,48.0560556],[-119.8937729,48.0498749],[-119.8928655,48.0445325],[-119.8780137,48.0281344],[-119.8761989,48.0236992],[-119.8678655,48.0133882],[-119.8696803,47.9986989],[-119.8720322,47.9948008],[-119.873847,47.9903656],[-119.8821803,47.9800548],[-119.8803655,47.9736992],[-119.8780137,47.9698011],[-119.8761989,47.9653659],[-119.8696803,47.9573011],[-119.8678656,47.9528659],[-119.8595321,47.9425549],[-119.8659817,47.9347787],[-119.8720323,47.9323007],[-119.8800971,47.9257821],[-119.8845323,47.9239674],[-119.8925971,47.9174488],[-119.8970323,47.915634],[-119.9009304,47.9132821],[-119.9084581,47.9102019],[-119.9155136,47.9006847],[-119.9136988,47.8903659],[-119.9095322,47.8834566],[-119.9117579,47.8714976],[-119.9259304,47.8591155],[-119.9303657,47.8573007],[-119.9379097,47.8527474],[-119.9514879,47.8547535],[-119.9595322,47.8448008],[-119.9625229,47.8373748],[-119.9639064,47.836675],[-119.9653061,47.8276581],[-119.968073,47.824175],[-119.9694728,47.8193248],[-119.9764064,47.811675],[-119.978152,47.8056203],[-119.9812732,47.8040414],[-119.9843089,47.8068532],[-119.9864411,47.8113739],[-119.9886058,47.8154592],[-119.9906077,47.8197072],[-120.004487,47.8357105],[-120.0157341,47.838388],[-120.0114086,47.8446789],[-120.0244862,47.8554249],[-120.0757638,47.8738331],[-120.0886055,47.8758757],[-120.0968575,47.8780404],[-120.1112821,47.8807911],[-120.1333932,47.8799162],[-120.1366281,47.8867644],[-120.1611845,47.8936125],[-120.1732818,47.9019338],[-120.1760243,47.9134572],[-120.1990265,47.9383799],[-120.1984772,47.9521617],[-120.2013377,47.9575694],[-120.2010121,47.9657481],[-120.2052724,47.9737925],[-120.2072743,47.9780405],[-120.2117583,47.9845549],[-120.2198556,47.9883757],[-120.2281075,47.9947071],[-120.2365222,47.996709],[-120.2406075,47.9988737],[-120.2518871,48.0015593],[-120.2489207,48.0071666],[-120.2512317,48.0115324],[-120.2573514,48.0112923],[-120.2669869,48.0186817],[-120.2813742,48.0217089],[-120.2781071,48.0155408],[-120.2761049,48.0111295],[-120.2872749,48.011569],[-120.2947741,48.0155404],[-120.3073555,48.0175423],[-120.3114408,48.019707],[-120.3198555,48.021709],[-120.3207453,48.0221805],[-120.4500001,48.0149997],[-120.6000001,48.1199997],[-120.8000001,48.1399997],[-120.87528,48.2067951],[-120.8801538,48.2050056],[-120.8928083,48.2030769],[-120.8979394,48.1998746],[-120.9160141,48.1980964],[-120.9239039,48.2009936],[-120.9291894,48.2019579],[-120.9405704,48.1925056],[-121.021975,48.1905769],[-121.027106,48.1873746],[-121.0323552,48.1883756],[-121.0364405,48.1905403],[-121.0406886,48.1925423],[-121.0447819,48.194707],[-121.0469345,48.1946256],[-121.0531072,48.1988736],[-121.0615219,48.2008756],[-121.0656072,48.2030403],[-121.0740219,48.2050423],[-121.0822738,48.2113736],[-121.1224837,48.213518],[-121.1319116,48.2131436],[-121.1364404,48.2155403],[-121.1531885,48.2175422],[-121.1589625,48.2205981],[-121.1697738,48.2280403],[-121.1740219,48.2300423],[-121.1947738,48.2488737],[-121.1990218,48.2508756],[-121.2031071,48.2530403],[-121.2073552,48.2550423],[-121.2114404,48.2572069],[-121.2240218,48.2592089],[-121.227106,48.2602912],[-121.2344382,48.257207],[-121.2385235,48.2550423],[-121.2427716,48.2530403],[-121.2479393,48.2503059],[-121.2557275,48.2544237],[-121.292731,48.2529589],[-121.3048608,48.253439],[-121.315607,48.2572069],[-121.3323551,48.2592089],[-121.3364404,48.2613736],[-121.3406885,48.2633756],[-121.3447737,48.2655403],[-121.3490218,48.2675423],[-121.353107,48.2697069],[-121.3740217,48.2717089],[-121.3791893,48.2744432],[-121.3875226,48.2700365],[-121.3964663,48.2747688],[-121.402106,48.2727912],[-121.4030501,48.2739306],[-121.4088648,48.2764494],[-121.4113836,48.2822641],[-121.4142197,48.287212],[-121.4133123,48.2960987],[-121.4222924,48.3074429],[-121.4261417,48.3070523],[-121.4380966,48.3170215],[-121.4405502,48.3280974],[-121.4469955,48.3362354],[-121.4488835,48.3405973],[-121.4623681,48.3558805],[-121.469912,48.3591519],[-121.4738834,48.3614305],[-121.482412,48.3633186],[-121.4863834,48.3655972],[-121.4907454,48.3674852],[-121.4956932,48.3703213],[-121.504901,48.3693814],[-121.5072163,48.3487354],[-121.5094949,48.3447641],[-121.512209,48.3325202],[-121.5312726,48.3344611],[-121.539846,48.3335863],[-121.5458561,48.3373746],[-121.5469752,48.3383391],[-121.5489039,48.3530771],[-121.5515935,48.3578948],[-121.5509465,48.3659352],[-121.556928,48.3766611],[-121.5551457,48.3988332],[-121.5564193,48.4146615],[-121.5719751,48.432089],[-121.5739038,48.4364102],[-121.578225,48.4383389],[-121.582237,48.4405768],[-121.5920109,48.4427985],[-121.5947372,48.4489103],[-121.5969751,48.4529224],[-121.5972934,48.454323],[-121.6200001,48.4599997],[-121.7600001,48.5099997],[-121.8056117,48.5404074],[-121.80932,48.5383388],[-121.817808,48.5364101],[-121.8229391,48.5335496],[-121.8293763,48.5371384],[-121.8384866,48.5300055],[-121.842808,48.5280768],[-121.8483906,48.524964],[-121.8665711,48.5194912],[-121.8718974,48.5199184],[-121.8760641,48.5195807],[-121.8800272,48.5199021],[-121.88432,48.5175055],[-121.8969746,48.5155768],[-121.9041891,48.5115525],[-121.9119488,48.515882],[-121.9177307,48.515414],[-121.9304831,48.5164394],[-121.9364035,48.5197435],[-121.9448915,48.5216722],[-121.9489035,48.5239101],[-121.9726867,48.5258388],[-121.9801533,48.5216722],[-121.9872701,48.5197434],[-121.9947368,48.5239101],[-122.00602,48.5258388],[-122.0144914,48.5211108],[-122.0114031,48.5155772],[-122.0094743,48.5103808],[-122.0207377,48.5069912],[-122.0297832,48.5077155],[-122.0364035,48.5114102],[-122.0407248,48.5133389],[-122.0447369,48.5155768],[-122.0490582,48.5175055],[-122.0572369,48.5239102],[-122.060553,48.5258388],[-122.0687724,48.5207078],[-122.0739605,48.5238532],[-122.0804545,48.5258958],[-122.0885436,48.5217292],[-122.0969176,48.5196865],[-122.1117695,48.507219],[-122.1235412,48.5132859],[-122.1351782,48.5044523],[-122.1322934,48.4988536],[-122.1302506,48.4938606],[-122.1408712,48.4905198],[-122.1527078,48.4966192],[-122.1635435,48.4883958],[-122.1701192,48.4863532],[-122.1822937,48.4905198],[-122.2304544,48.4925625],[-122.2385435,48.4883958],[-122.2469175,48.4863532],[-122.2510435,48.4842292],[-122.2594175,48.4821865],[-122.2635435,48.4800625],[-122.2760842,48.4780199],[-122.2833556,48.4742763],[-122.2918924,48.4786708],[-122.3010434,48.4717292],[-122.3052508,48.4696866],[-122.3170182,48.4601855],[-122.320245,48.446953],[-122.3367044,48.4446865],[-122.3447937,48.4488532],[-122.3648781,48.4508958],[-122.3739598,48.4444426],[-122.3689023,48.4346244],[-122.3489601,48.4321871],[-122.3418718,48.4273815],[-122.3385839,48.4180671],[-122.3631323,48.4150682],[-122.365826,48.3930224],[-122.3760841,48.3905199],[-122.3843767,48.3842292],[-122.3913916,48.3808276],[-122.39566,48.3720263],[-122.4052508,48.3696866],[-122.4083556,48.3686245],[-122.4093405,48.3697233],[-122.4115378,48.3716927],[-122.4135071,48.3759732],[-122.4177877,48.3779426],[-122.4197571,48.3801399],[-122.4219545,48.3821094],[-122.4239239,48.3947233],[-122.4261211,48.3966927],[-122.4280905,48.4009733],[-122.4302878,48.4029427],[-122.4322572,48.4134733],[-122.4368671,48.4175258],[-122.44059,48.4133593],[-122.4427873,48.4113899],[-122.4447567,48.4091926],[-122.4490373,48.4072232],[-122.4510067,48.405026],[-122.453204,48.4030566],[-122.4551734,48.4008593],[-122.4573706,48.3988899],[-122.45934,48.3966926],[-122.4657039,48.3926399],[-122.467771,48.3881396],[-122.4948951,48.3756924],[-122.5104392,48.3727911],[-122.5094178,48.3780203],[-122.5072938,48.3821463],[-122.5052511,48.3863537],[-122.4989605,48.3946463],[-122.4969178,48.4115569],[-122.502171,48.4217498],[-122.4989604,48.4279796],[-122.4967713,48.4324922],[-122.4887514,48.4401947],[-122.4913,48.4576235],[-122.4896551,48.4572033],[-122.4875254,48.4589011],[-122.4902765,48.4627902],[-122.478419,48.4664513],[-122.476288,48.4661971],[-122.4745621,48.4659913],[-122.4729072,48.4679543],[-122.4702242,48.4687752],[-122.4683743,48.473227],[-122.4696703,48.4749749],[-122.4700473,48.4768178],[-122.4724687,48.4787284],[-122.4737632,48.4797497],[-122.4762321,48.4807134],[-122.4788513,48.4817358],[-122.4790403,48.4853769],[-122.4822003,48.4883058],[-122.4835013,48.49243],[-122.4829486,48.4976974],[-122.4829237,48.4979345],[-122.4828283,48.498844],[-122.4832479,48.5009295],[-122.4849963,48.5096199],[-122.4883494,48.513517],[-122.4824724,48.5183521],[-122.4831358,48.5200292],[-122.4838723,48.5218909],[-122.4852883,48.5281059],[-122.4879553,48.5320679],[-122.4881113,48.5361838],[-122.4915361,48.5377527],[-122.4955362,48.5400968],[-122.4978193,48.5427689],[-122.4978913,48.5458459],[-122.5004703,48.550661],[-122.4986393,48.554736],[-122.5000933,48.5576359],[-122.5044282,48.5647747],[-122.5105101,48.5655207],[-122.512214,48.5657297],[-122.5223931,48.5669787],[-122.5279931,48.5697957],[-122.5285728,48.5701582],[-122.5284181,48.5757703],[-122.523725,48.5756303],[-122.5228637,48.5756676],[-122.504592,48.5764583],[-122.5041651,48.5764322],[-122.4959598,48.5759307],[-122.4959038,48.5759273],[-122.495834,48.5756229],[-122.4951927,48.5728232],[-122.4947393,48.5725429],[-122.4919139,48.5707963],[-122.4864464,48.5701672],[-122.4864464,48.570167],[-122.4914375,48.5678079],[-122.4884208,48.5646652],[-122.4824059,48.5596533],[-122.4784309,48.5593033],[-122.4745629,48.5567973],[-122.4688591,48.5572693],[-122.4660073,48.5602581],[-122.4657283,48.563358],[-122.4653463,48.5658662],[-122.462602,48.5672423],[-122.4605399,48.5662353],[-122.4541232,48.5657633],[-122.4538521,48.566163],[-122.4535049,48.5666753],[-122.4523842,48.5683283],[-122.4519569,48.5684764],[-122.4506071,48.5689443],[-122.4488676,48.569229],[-122.4457252,48.5697433],[-122.4439023,48.5733121],[-122.4429522,48.5758283],[-122.4375912,48.5770803],[-122.4330593,48.5816092],[-122.4291733,48.5940161],[-122.4252714,48.5995219],[-122.4323742,48.6045398],[-122.4339013,48.6085758],[-122.4381982,48.6130837],[-122.4425811,48.6146337],[-122.4447873,48.6151258],[-122.4442403,48.6182249],[-122.4487021,48.6226237],[-122.4642501,48.6257167],[-122.4774102,48.6373648],[-122.4868782,48.6431218],[-122.4887942,48.6454047],[-122.4939902,48.6515958],[-122.5003081,48.6561627],[-122.5034942,48.6566657],[-122.5099353,48.6643688],[-122.5114494,48.6678201],[-122.509264,48.6691523],[-122.503322,48.6656983],[-122.4978561,48.6674253],[-122.4940531,48.6702513],[-122.4902503,48.6711922],[-122.4907253,48.676215],[-122.4912013,48.6835909],[-122.4964303,48.6936318],[-122.4978772,48.6957809],[-122.4992824,48.697868],[-122.4987903,48.6985986],[-122.4973804,48.7006919],[-122.499995,48.7027306],[-122.5042729,48.7006917],[-122.5080756,48.6988088],[-122.5068877,48.6953581],[-122.5045107,48.6914361],[-122.5045687,48.6889856],[-122.5055841,48.689351],[-122.5056372,48.6893701],[-122.5064052,48.6896466],[-122.5071782,48.6899247],[-122.5130382,48.6970808],[-122.5156023,48.701544],[-122.5152656,48.7022419],[-122.5143173,48.704207],[-122.5161829,48.7082459],[-122.5162273,48.7083419],[-122.5191723,48.7130949],[-122.5192473,48.7171601],[-122.5155112,48.7209922],[-122.5133051,48.7224923],[-122.508276,48.7218011],[-122.5076011,48.7217083],[-122.5056843,48.7245241],[-122.5058002,48.725441],[-122.5061293,48.7280461],[-122.5026092,48.7325263],[-122.4997302,48.7328393],[-122.4996379,48.7329681],[-122.4989423,48.7339395],[-122.4955862,48.7386262],[-122.4912014,48.742401],[-122.4912701,48.7424657],[-122.4945285,48.7455361],[-122.4943952,48.7456136],[-122.4904883,48.7478872],[-122.4904531,48.7491978],[-122.4904013,48.7511278],[-122.4945281,48.7533717],[-122.4955256,48.7533362],[-122.497088,48.7532807],[-122.5064121,48.7546247],[-122.5123542,48.7571318],[-122.5125981,48.7575605],[-122.5133113,48.7588147],[-122.5144933,48.7608929],[-122.5141523,48.7631958],[-122.5282032,48.7684277],[-122.5303496,48.7706024],[-122.5358031,48.7761277],[-122.5533424,48.7776464],[-122.5634979,48.7785257],[-122.5691599,48.7746787],[-122.5723958,48.7736776],[-122.580806,48.7710757],[-122.586251,48.7725967],[-122.5910258,48.7709187],[-122.5955419,48.7671597],[-122.6008379,48.7661747],[-122.6081388,48.7627728],[-122.6085222,48.7616137],[-122.6135153,48.7673509],[-122.6156271,48.7738533],[-122.6177511,48.7800626],[-122.6187726,48.7832083],[-122.5989401,48.7819714]]]}
}
