{
  "type": "Feature",
  "properties": {
    "id": "rainier-goat-rocks",
    "name": "Rainier–Goat Rocks",
    "boundaryVersion": "mountain-led-v1",
    "derivation": "Selected GMBA broad basic ranges, plus retained historical footprint/approach neighborhoods where present, clipped to the existing complete statewide start footprint; remaining locations allocated by EPA ecoregions and the documented shoreline/state-edge repair. No mountain, elevation or terrain threshold determines eligibility.",
    "sources": {
      "gmba": {
        "authority": "Global Mountain Biodiversity Assessment (GMBA) / EarthEnv",
        "dataset": "GMBA Mountain Inventory v2.0, broad extent, basic non-overlapping ranges",
        "url": "https://data.earthenv.org/mountains/broad/GMBA_Inventory_v2.0_broad_basic.zip",
        "sha256": "sha256:638bae59339fb45ffe190079aa2fabdcd1d05fd00353863e9509bd7b16004ae0",
        "byteLength": 42672594,
        "reviewedAt": "2026-09-29T16:56:01Z",
        "coordinateReferenceSystem": "WGS84 (EPSG:4326)",
        "license": "Creative Commons Attribution 4.0 International",
        "datasetCitation": "Snethlage et al. (2022), GMBA Mountain Inventory v2, https://doi.org/10.48601/earthenv-t9k2-1407",
        "publicationCitation": "Snethlage et al. (2022), A hierarchical inventory of the world’s mountains for global comparative mountain science, Scientific Data, https://doi.org/10.1038/s41597-022-01256-y",
        "limitation": "Broad extent includes surrounding landscape and support polygons. Used to organize eligible starts, not to classify every included location as mountainous."
      },
      "epa": {
        "authority": "U.S. Environmental Protection Agency",
        "dataset": "Washington Level III Ecoregions",
        "url": "https://dmap-prod-oms-edc.s3.us-east-1.amazonaws.com/ORD/Ecoregions/wa/wa_eco_l3.zip",
        "metadataUrl": "https://dmap-prod-oms-edc.s3.us-east-1.amazonaws.com/ORD/Ecoregions/wa/wa_eco_l3.htm",
        "sha256": "sha256:e665f5a691b006feaf0c2d0ec8394c4e6d03de127267a21e054ae5bec4e6dae3",
        "byteLength": 1175130,
        "metadataDate": "2012-05-08",
        "reviewedAt": "2026-09-29T16:56:01Z",
        "license": "U.S. federal government public domain",
        "derivation": "Source NAD83 Albers Equal Area polygons transformed to WGS84 EPSG:4326 with pyshp 3.1.6 and pyproj 3.8.0; used only to allocate residual statewide coverage after the selected GMBA ranges and historical footprints."
      }
    },
    "statewideCoverage": {
      "path": "data/fixtures/coverage/washington-start-coverage.geojson",
      "sha256": "sha256:6f5274416c8dcf9bf05d2daff212a7344cdd4a73ffb461fec16d6a00084e4f3d",
      "properties": {
        "name": "Washington eligible-start coverage obligation",
        "basis": "Union of all twelve Washington effective start footprints at 8e95bc3, including the pinned Census 2025 statewide county inventory and retained historical footprints and approach neighborhoods. Used only as a gap-regression baseline; county assignments are superseded.",
        "sourceCommit": "8e95bc3",
        "license": "U.S. Census Bureau public domain; retained OpenStreetMap-derived boundaries ODbL 1.0; USDA Forest Service public domain. Original attribution retained in Git history."
      }
    },
    "retainedFootprint": {
      "path": "data/regions/rainier-goat-rocks/boundary.geojson",
      "sha256": "sha256:2843ce65eeefbd46430d16283528c0fe906813e76fb568d3790b52c1a9237f92",
      "properties": {
        "id": "rainier-goat-rocks",
        "name": "Rainier–Goat Rocks build boundary",
        "boundaryVersion": "rainier-goat-rocks-boundary-v1",
        "sourceNamedAreaIds": [
          "osm:relation/1399219",
          "osm:relation/6109986",
          "osm:relation/6109916",
          "osm:relation/6109176"
        ],
        "northSeamEvidence": "2026-08-01 OSM Pacific Crest Trail ways between Norse Peak and Central Cascades"
      },
      "approachNeighborhoods": "Union of the existing catalog approach circles, using their unchanged explicit radius or approachRadiusMeters and the shared 32-vertex spherical neighborhood definition."
    },
    "gmbaSelection": [
      {
        "id": "17020",
        "name": "Goat Rocks",
        "path": "North America > American Cordillera (North America) > Pacific Coast Ranges > Cascade Range (North America) > South Washington Cascades > Goat Rocks",
        "pathIds": "12159 > 12218 > 12385 > 11202 > 17010 > 17020"
      },
      {
        "id": "17023",
        "name": "Mount Rainier East Foothills",
        "path": "North America > American Cordillera (North America) > Pacific Coast Ranges > Cascade Range (North America) > South Washington Cascades > Mount Rainier Area > Mount Rainier East Foothills",
        "pathIds": "12159 > 12218 > 12385 > 11202 > 17010 > 17022 > 17023"
      },
      {
        "id": "17024",
        "name": "Mount Rainier Massif",
        "path": "North America > American Cordillera (North America) > Pacific Coast Ranges > Cascade Range (North America) > South Washington Cascades > Mount Rainier Area > Mount Rainier Massif",
        "pathIds": "12159 > 12218 > 12385 > 11202 > 17010 > 17022 > 17024"
      },
      {
        "id": "17025",
        "name": "Mount Rainier North Foothills",
        "path": "North America > American Cordillera (North America) > Pacific Coast Ranges > Cascade Range (North America) > South Washington Cascades > Mount Rainier Area > Mount Rainier North Foothills",
        "pathIds": "12159 > 12218 > 12385 > 11202 > 17010 > 17022 > 17025"
      },
      {
        "id": "17026",
        "name": "Mount Rainier West Foothills",
        "path": "North America > American Cordillera (North America) > Pacific Coast Ranges > Cascade Range (North America) > South Washington Cascades > Mount Rainier Area > Mount Rainier West Foothills",
        "pathIds": "12159 > 12218 > 12385 > 11202 > 17010 > 17022 > 17026"
      },
      {
        "id": "17027",
        "name": "Sourdough Mountains",
        "path": "North America > American Cordillera (North America) > Pacific Coast Ranges > Cascade Range (North America) > South Washington Cascades > Mount Rainier Area > Sourdough Mountains",
        "pathIds": "12159 > 12218 > 12385 > 11202 > 17010 > 17022 > 17027"
      },
      {
        "id": "17028",
        "name": "Southwest Mount Rainier Area",
        "path": "North America > American Cordillera (North America) > Pacific Coast Ranges > Cascade Range (North America) > South Washington Cascades > Mount Rainier Area > Southwest Mount Rainier Area",
        "pathIds": "12159 > 12218 > 12385 > 11202 > 17010 > 17022 > 17028"
      },
      {
        "id": "17029",
        "name": "Tatoosh Range",
        "path": "North America > American Cordillera (North America) > Pacific Coast Ranges > Cascade Range (North America) > South Washington Cascades > Mount Rainier Area > Tatoosh Range",
        "pathIds": "12159 > 12218 > 12385 > 11202 > 17010 > 17022 > 17029"
      },
      {
        "id": "17033",
        "name": "Central South Cascade Crest",
        "path": "North America > American Cordillera (North America) > Pacific Coast Ranges > Cascade Range (North America) > South Washington Cascades > South Cascade Crest > Central South Cascade Crest",
        "pathIds": "12159 > 12218 > 12385 > 11202 > 17010 > 17031 > 17033"
      },
      {
        "id": "17035",
        "name": "Huckleberry-Grass",
        "path": "North America > American Cordillera (North America) > Pacific Coast Ranges > Cascade Range (North America) > South Washington Cascades > South Cascade Crest > Huckleberry-Grass",
        "pathIds": "12159 > 12218 > 12385 > 11202 > 17010 > 17031 > 17035"
      },
      {
        "id": "17037",
        "name": "Mount Aix Area",
        "path": "North America > American Cordillera (North America) > Pacific Coast Ranges > Cascade Range (North America) > South Washington Cascades > South Cascade Crest > Mount Aix Area",
        "pathIds": "12159 > 12218 > 12385 > 11202 > 17010 > 17031 > 17037"
      }
    ],
    "epaResiduals": [],
    "edgeRepair": {
      "parts": 0,
      "areaSquareDegrees": 0,
      "method": "For each connected remaining part outside the EPA polygons, assign its representative point to the nearest post-EPA group by GEOS distance in EPSG:5070; tie-break by ascending region ID."
    },
    "limitation": "The source boundaries are geographic groupings with scale and vintage limitations, not legal access boundaries or proof that all trails are mapped. US-only limits and explicit exclusions still apply. Build costs and representative routes require a real-data build.",
    "authoringPrecision": {
      "method": "GEOS buffer of valid raw derived geometry by 3e-7 degrees with mitre joins and mitre_limit=2, then topology-preserving valid-output set_precision on a shared 1e-7-degree grid. No runtime normalization.",
      "implementation": "Shapely 2.1.2 / GEOS",
      "gridDegrees": 1e-07,
      "outwardBufferDegrees": 3e-07,
      "mitreLimit": 2,
      "verifiedMaximumOutwardDistanceDegrees": 8e-07,
      "maximumMeasuredOutputVertexDistanceDegrees": 6.360520155441277e-07,
      "missingRawAreaSquareDegrees": 0.0,
      "extraAreaSquareDegrees": 2.558013658893188e-06,
      "rawGeometryHash": "sha256:55bbfad1547eff024c92a8640f56e00424fb3913eb8de43eae71749f34d5abc4",
      "finalGeometryHash": "sha256:a78493fe3fc2db4b828bd6523a1fd1e49cf4089e43ceca4c81930b77b86cfa64",
      "hashEncoding": "UTF-8 JSON geometry, compact comma/colon separators; numeric serialization from Python 3 json.dumps.",
      "reference": "https://libgeos.org/doxygen/classgeos_1_1precision_1_1GeometryPrecisionReducer.html"
    }
  },
  "geometry": {"type":"Polygon","coordinates":[[[-123.0386614,46.7989317],[-123.0217994,46.8008197],[-123.0178281,46.8030984],[-122.9926328,46.8049864],[-122.987522,46.8079162],[-122.9791073,46.8030984],[-122.9727233,46.8069394],[-122.9668233,46.8264095],[-122.9678446,46.836403],[-122.9655496,46.8404029],[-122.9636616,46.8447649],[-122.961383,46.8487362],[-122.9594949,46.8551816],[-122.9556294,46.858388],[-122.9467997,46.8862362],[-122.9449116,46.8947649],[-122.9422016,46.897011],[-122.9358825,46.9115821],[-122.9293152,46.9207087],[-122.9350444,46.9286677],[-122.9286762,46.936334],[-122.9178283,46.9387387],[-122.9207336,46.9672298],[-122.9178282,46.9739316],[-122.9038715,46.9760068],[-122.9011616,46.9822648],[-122.898883,46.9862362],[-122.896995,46.9905982],[-122.8934713,46.9967504],[-122.896995,47.0029026],[-122.898883,47.0072646],[-122.9011616,47.0112359],[-122.9030497,47.0239312],[-122.907017,47.0308569],[-122.8993631,47.0372168],[-122.896995,47.0426815],[-122.8947163,47.0466528],[-122.8905659,47.0653784],[-122.8844949,47.0760148],[-122.873883,47.0883195],[-122.865692,47.0998552],[-122.8583554,47.1040423],[-122.8551895,47.1030413],[-122.8531875,47.1008765],[-122.8510228,47.0988746],[-122.8490209,47.0967099],[-122.8447728,47.0947079],[-122.8427708,47.0904598],[-122.8406061,47.0884578],[-122.8386041,47.0779598],[-122.8364394,47.0759578],[-122.8344375,47.0446265],[-122.8322728,47.0426245],[-122.8302708,47.0300431],[-122.8261041,47.0261816],[-122.8281061,47.0154595],[-122.8322727,47.0115981],[-122.8302708,47.0071265],[-122.8261041,47.0032649],[-122.8281061,46.9967095],[-122.8302708,46.9947076],[-122.8322728,46.9842095],[-122.8344375,46.9822075],[-122.8364395,46.9779595],[-122.8386042,46.9759575],[-122.8406062,46.9737928],[-122.8427709,46.9717909],[-122.8449193,46.9694715],[-122.8681535,46.9590019],[-122.8927342,46.9531466],[-122.8947728,46.9467095],[-122.8969375,46.9447076],[-122.8989394,46.9383762],[-122.903106,46.9345148],[-122.9011041,46.9300432],[-122.8989394,46.9280413],[-122.8966283,46.9231424],[-122.8844744,46.9274066],[-122.8574033,46.9330666],[-122.8078549,46.9419452],[-122.7802304,46.9430398],[-122.7614804,46.9422951],[-122.7391985,46.9431781],[-122.7052711,46.94046],[-122.6375913,46.9373676],[-122.588523,46.925958],[-122.5823544,46.9237933],[-122.576023,46.9217913],[-122.574021,46.9196266],[-122.5676897,46.9176247],[-122.5501605,46.9114805],[-122.5224913,46.9090798],[-122.5115212,46.9113747],[-122.4979389,46.9123757],[-122.4844542,46.9155577],[-122.4643209,46.9186989],[-122.4615377,46.9218076],[-122.4447571,46.923777],[-122.4427877,46.9259742],[-122.4405905,46.9279436],[-122.4386211,46.9343075],[-122.4364238,46.936277],[-122.4344544,46.9384742],[-122.4322571,46.9404436],[-122.4302877,46.9426409],[-122.4280905,46.9446103],[-122.4261211,46.9468076],[-122.4239238,46.9487769],[-122.4219544,46.9530575],[-122.4197571,46.955027],[-122.4177877,46.9572243],[-122.4135071,46.9591937],[-122.4115377,46.9613909],[-122.4093405,46.9633602],[-122.4073711,46.9697242],[-122.4051739,46.9716936],[-122.4032045,46.9843075],[-122.4010072,46.9862769],[-122.3990378,46.9905575],[-122.3968405,46.9925269],[-122.3948711,46.9947242],[-122.3926738,46.9966936],[-122.3907044,46.9988909],[-122.3864238,47.0008603],[-122.3844544,47.0030575],[-122.3822572,47.0050269],[-122.3802878,47.0093075],[-122.3780905,47.0112769],[-122.3761211,47.0134742],[-122.3739238,47.0154436],[-122.3719544,47.0176409],[-122.3655906,47.0216936],[-122.3636212,47.0738908],[-122.3614239,47.0758602],[-122.3594545,47.0863908],[-122.3551739,47.0883602],[-122.3532045,47.0947241],[-122.3510072,47.0966936],[-122.3490378,47.0988908],[-122.3468405,47.1008602],[-122.3448711,47.1030575],[-122.3426738,47.1050269],[-122.3407044,47.1072242],[-122.3385072,47.1091936],[-122.3365378,47.1113908],[-122.3343405,47.1133602],[-122.3323711,47.1155575],[-122.3280905,47.1175269],[-122.3261211,47.1197242],[-122.3239238,47.1216936],[-122.3205018,47.1255185],[-122.2874735,47.1405006],[-122.2426738,47.1508603],[-122.2396749,47.1542132],[-122.2198711,47.1572242],[-122.2187725,47.1582089],[-122.2173891,47.1589087],[-122.2159893,47.1616757],[-122.211139,47.1630754],[-122.2097393,47.1658423],[-122.2069724,47.1672421],[-122.2055727,47.170009],[-122.1903058,47.1776587],[-122.188906,47.182509],[-122.1840558,47.1839087],[-122.182656,47.188759],[-122.1798891,47.1901587],[-122.1784894,47.195009],[-122.1757224,47.1964087],[-122.1743227,47.201259],[-122.1715557,47.2026587],[-122.170156,47.2054256],[-122.1673891,47.2068254],[-122.1659894,47.2116756],[-122.1632224,47.2130754],[-122.1618227,47.2158423],[-122.1590557,47.217242],[-122.157656,47.220009],[-122.1528057,47.2214087],[-122.151406,47.2241756],[-122.1486391,47.2255754],[-122.1472393,47.2283423],[-122.1361391,47.2339087],[-122.1347395,47.2401339],[-122.138906,47.2422416],[-122.1403058,47.2450085],[-122.1472393,47.2484916],[-122.1486391,47.2512585],[-122.151406,47.2526582],[-122.1528057,47.2554251],[-122.157656,47.2568249],[-122.1590557,47.2595918],[-122.1618227,47.2609916],[-122.1632224,47.2637585],[-122.1659894,47.2651583],[-122.1673891,47.2700085],[-122.1701561,47.2714083],[-122.1708559,47.2790416],[-122.1750226,47.2790416],[-122.1750226,47.2894583],[-122.1791893,47.2894583],[-122.1791893,47.3040424],[-122.1791892,47.3040425],[-122.1656675,47.2925635],[-122.1572935,47.2905209],[-122.1531676,47.2883969],[-122.1406269,47.2863542],[-122.1296446,47.2780209],[-122.1052104,47.2800635],[-122.1010844,47.2821876],[-122.0885438,47.2842302],[-122.0804545,47.2883969],[-122.0614602,47.2863542],[-122.0552509,47.2821469],[-122.049119,47.282269],[-122.0445942,47.2799415],[-122.034438,47.2801449],[-122.0251566,47.2738543],[-122.0203392,47.276853],[-122.0159486,47.2859027],[-122.0046163,47.2782203],[-121.9958557,47.2827369],[-121.9867697,47.2780535],[-121.9719179,47.2905209],[-121.9677105,47.2925635],[-121.9635845,47.2946875],[-121.9554262,47.2986467],[-121.944794,47.3113134],[-121.9409162,47.3193091],[-121.9260438,47.3217302],[-121.9187724,47.3254737],[-121.9104391,47.3211809],[-121.9041891,47.3244036],[-121.899001,47.3217302],[-121.890627,47.3196875],[-121.886501,47.3175635],[-121.8614603,47.3155209],[-121.8573343,47.3133968],[-121.8531269,47.3113542],[-121.8448343,47.3050635],[-121.840627,47.3030209],[-121.836501,47.3008968],[-121.8322936,47.2988542],[-121.8281677,47.2967302],[-121.815627,47.2946876],[-121.811501,47.2925635],[-121.8072936,47.2905209],[-121.7969177,47.2821469],[-121.7907369,47.282273],[-121.7823343,47.2758969],[-121.7739603,47.2738542],[-121.761501,47.2633969],[-121.7489604,47.2613542],[-121.7448344,47.2592302],[-121.740627,47.2571875],[-121.736501,47.2550635],[-121.729486,47.2516618],[-121.7241556,47.2406714],[-121.7156677,47.2342302],[-121.6864604,47.2321876],[-121.6796204,47.2275489],[-121.6718773,47.2300635],[-121.663788,47.2342302],[-121.6489604,47.2321876],[-121.641742,47.2284685],[-121.6177309,47.2279802],[-121.6156271,47.2280209],[-121.6115011,47.2258969],[-121.5947938,47.2238543],[-121.5906678,47.2217302],[-121.5781067,47.2186662],[-121.5633647,47.2074806],[-121.5468976,47.2071469],[-121.5427309,47.2072324],[-121.5376731,47.2071266],[-121.4968773,47.2092302],[-121.4927514,47.2113543],[-121.4802107,47.2133969],[-121.4750226,47.2160703],[-121.4687726,47.2128476],[-121.4644518,47.2150741],[-121.4652431,47.2383379],[-121.4976438,47.2567444],[-121.5296033,47.2911997],[-121.5402297,47.3195813],[-121.5550303,47.3318588],[-121.5448029,47.4157654],[-121.4857188,47.4569773],[-121.4051571,47.4564695],[-121.3487158,47.4171068],[-121.3426059,47.3704785],[-121.3337464,47.3591619],[-121.3137007,47.3475329],[-121.2811222,47.338744],[-121.2659726,47.3225375],[-121.2521073,47.3159058],[-121.2499765,47.3076848],[-121.2417722,47.3015075],[-121.2304334,47.2768448],[-121.2310771,47.264841],[-121.2250796,47.2634783],[-121.2099025,47.2614112],[-121.2083562,47.2665424],[-121.200706,47.2606379],[-121.2014384,47.2556737],[-121.1866151,47.2424496],[-121.18218,47.2406348],[-121.1782819,47.2382829],[-121.1685447,47.2362281],[-121.1631247,47.229209],[-121.1574485,47.2257829],[-121.1530133,47.2239682],[-121.1491152,47.2216163],[-121.1280133,47.2198015],[-121.1241152,47.2174496],[-121.1158997,47.2140886],[-121.1147237,47.206117],[-121.12593,47.1966157],[-121.1345319,47.194801],[-121.13843,47.1924491],[-121.1442527,47.1900647],[-121.1479392,47.1852917],[-121.1562361,47.182244],[-121.1657251,47.1841727],[-121.1720278,47.1876882],[-121.1822368,47.1758394],[-121.1978576,47.1623834],[-121.1905701,47.1530778],[-121.1886414,47.1445898],[-121.1854472,47.1388605],[-121.1908793,47.1240655],[-121.1947368,47.1070896],[-121.1979472,47.0983494],[-121.1967491,47.0834295],[-121.1642478,47.0729056],[-121.1566632,47.0663599],[-121.151828,47.0459021],[-121.091907,47.0170865],[-121.0812441,46.9857209],[-121.0703513,46.9744422],[-121.0670916,46.9428753],[-121.0662863,46.9410174],[-121.0615786,46.9383197],[-121.053823,46.9349586],[-121.048822,46.9280126],[-121.0519511,46.9225521],[-121.0449119,46.9174863],[-121.0405499,46.9155983],[-121.0324119,46.909153],[-121.0238833,46.907265],[-121.0199119,46.9049863],[-121.01555,46.9030983],[-121.0115786,46.9008197],[-121.0072166,46.8989317],[-120.9990786,46.8924864],[-120.9877708,46.8899798],[-120.9822165,46.8822649],[-120.9796978,46.8764503],[-120.9738833,46.8739317],[-120.969912,46.871653],[-120.9621564,46.868292],[-120.9572165,46.8614316],[-120.9553285,46.8570696],[-120.9530498,46.8530982],[-120.9511618,46.8445696],[-120.9405499,46.8322649],[-120.9380312,46.8264504],[-120.9293113,46.8226703],[-120.9247255,46.8120949],[-120.9157453,46.8049864],[-120.9113833,46.8030984],[-120.907412,46.8008197],[-120.8863834,46.7989317],[-120.882412,46.7966531],[-120.87805,46.794765],[-120.8615786,46.7799864],[-120.8572167,46.7780984],[-120.8532453,46.7758197],[-120.8488834,46.7739317],[-120.844912,46.7716531],[-120.8337751,46.7691832],[-120.8296979,46.7597837],[-120.8238834,46.757265],[-120.8157454,46.7508198],[-120.7863834,46.7489317],[-120.7854395,46.7477926],[-120.7843207,46.7487568],[-120.7633569,46.7504414],[-120.753225,46.7425068],[-120.7447371,46.7405781],[-120.7407251,46.7383401],[-120.7239038,46.7364114],[-120.715725,46.7300068],[-120.7114038,46.7280781],[-120.7073918,46.7258401],[-120.6989038,46.7239114],[-120.6948917,46.7216734],[-120.6905704,46.7197447],[-120.678225,46.7091734],[-120.6739038,46.7072447],[-120.6698918,46.7050068],[-120.6577456,46.702248],[-120.6553083,46.6862566],[-120.6137475,46.6428405],[-120.5989038,46.6405781],[-120.5948918,46.6383401],[-120.5864038,46.6364114],[-120.5782251,46.6300068],[-120.5697372,46.6280781],[-120.5654444,46.6256815],[-120.5604396,46.6260843],[-120.537226,46.6242207],[-120.5303087,46.6280781],[-120.5214627,46.6300882],[-120.5187731,46.6332092],[-120.5070663,46.6324157],[-120.503396,46.6298359],[-120.4965478,46.6275043],[-120.4903995,46.6199155],[-120.4882836,46.6136982],[-120.4800887,46.6109069],[-120.4695662,46.5990822],[-120.4679793,46.5944191],[-120.4610863,46.5864112],[-120.4645164,46.5787574],[-120.4610618,46.5738339],[-120.4653994,46.567653],[-120.4638126,46.5610858],[-120.4610618,46.5571672],[-120.4653994,46.5509863],[-120.4635196,46.5407491],[-120.4549832,46.5423359],[-120.4471463,46.5490824],[-120.4299832,46.5506693],[-120.426313,46.553249],[-120.4083561,46.5540425],[-120.4068139,46.5459612],[-120.3921492,46.5111225],[-120.3800074,46.4980163],[-120.3510238,46.4801248],[-120.3448552,46.4758768],[-120.337413,46.4723652],[-120.3217676,46.4608906],[-120.3093571,46.4447081],[-120.3055322,46.432619],[-120.3030867,46.4280006],[-120.3052718,46.4238745],[-120.3062728,46.4207086],[-120.3115791,46.4216527],[-120.3197172,46.428098],[-120.3240792,46.429986],[-120.3280505,46.4322646],[-120.3324125,46.4341527],[-120.3363838,46.4364313],[-120.3407458,46.4383193],[-120.3488839,46.4447646],[-120.3532458,46.4466527],[-120.3572172,46.4489313],[-120.3615792,46.4508193],[-120.3697172,46.4572646],[-120.3740792,46.4591527],[-120.3822171,46.4655979],[-120.3990791,46.467486],[-120.4178657,46.4845554],[-120.4238187,46.4839491],[-120.432335,46.4906873],[-120.4361922,46.4860447],[-120.4490789,46.4822646],[-120.4551336,46.479986],[-120.4789373,46.4773167],[-120.4884669,46.473736],[-120.4973495,46.4711318],[-120.5156965,46.4566096],[-120.5166893,46.4269587],[-120.5219386,46.4259577],[-120.5893254,46.4104995],[-120.6057926,46.4047256],[-120.609357,46.4008764],[-120.6118636,46.398557],[-120.6319591,46.3921935],[-120.6062725,46.3894592],[-120.607355,46.3863745],[-120.609357,46.380043],[-120.6386052,46.378041],[-120.6426904,46.3758763],[-120.6469384,46.3738744],[-120.6560735,46.3668674],[-120.6652288,46.3717096],[-120.6677717,46.3697077],[-120.6926904,46.3467097],[-120.6969384,46.3447077],[-120.7077743,46.3363946],[-120.7193955,46.3425429],[-120.7261051,46.340541],[-120.7301904,46.3383763],[-120.7594385,46.3363744],[-120.7635237,46.3342097],[-120.7750471,46.3314672],[-120.7802716,46.3238745],[-120.784125,46.3157039],[-120.7885237,46.3133763],[-120.7927717,46.3113744],[-120.796857,46.3092097],[-120.8011051,46.3072077],[-120.8051904,46.305043],[-120.8136051,46.303041],[-120.8176904,46.3008763],[-120.8344384,46.2988744],[-120.8385237,46.2967097],[-120.8479396,46.2957087],[-120.8498034,46.2974992],[-120.8595324,46.3221655],[-120.8637883,46.3258966],[-120.8733546,46.320969],[-120.8783759,46.3261979],[-120.8843777,46.3446873],[-120.888532,46.3446019],[-120.8989609,46.3530207],[-120.9115016,46.3550633],[-120.9156276,46.3571874],[-120.9198349,46.35923],[-120.9239609,46.361354],[-120.9281683,46.3633967],[-120.9354395,46.3671401],[-120.9427107,46.3633966],[-120.953168,46.361354],[-120.9585269,46.3557795],[-120.9701521,46.3529433],[-120.9766667,46.3530776],[-120.9927108,46.3571873],[-121.0219182,46.3633966],[-121.0499821,46.3699233],[-121.0618148,46.3739761],[-121.0715966,46.3737767],[-121.1010807,46.3771255],[-121.1185247,46.3806981],[-121.1246647,46.3870863],[-121.1302106,46.38423],[-121.1427513,46.3821873],[-121.148273,46.3793431],[-121.1593774,46.3821873],[-121.1866233,46.3842299],[-121.194106,46.3764421],[-121.1906271,46.3696877],[-121.1885844,46.3636329],[-121.2054424,46.3444717],[-121.2135846,46.3405207],[-121.2177106,46.3383967],[-121.2260846,46.336354],[-121.2302105,46.33423],[-121.2344179,46.3321874],[-121.2385439,46.3300633],[-121.2469179,46.3280207],[-121.2510439,46.3258967],[-121.2580587,46.322495],[-121.2633974,46.3114881],[-121.2781274,46.323854],[-121.2887066,46.3258966],[-121.2927105,46.32173],[-121.3086124,46.3196873],[-121.3367252,46.3278254],[-121.3444492,46.3286641],[-121.3923231,46.3163755],[-121.4758184,46.320757],[-121.4934289,46.3169529],[-121.562719,46.3391983],[-121.5704676,46.3521692],[-121.5907468,46.3653968],[-121.5908101,46.3653539],[-121.5947936,46.3571468],[-121.5970845,46.3526993],[-121.6026469,46.3473526],[-121.6135844,46.3446873],[-121.6177104,46.3425633],[-121.6302511,46.3405207],[-121.6385032,46.3362685],[-121.642792,46.338478],[-121.651471,46.3383031],[-121.6604392,46.3336806],[-121.6656273,46.336354],[-121.6698347,46.3383967],[-121.6781273,46.3446873],[-121.6906679,46.34673],[-121.6951113,46.3490208],[-121.7052513,46.3488133],[-121.7156273,46.3571874],[-121.7198347,46.35923],[-121.7325016,46.3698624],[-121.7364607,46.3780208],[-121.738597,46.3821673],[-121.7364486,46.3863339],[-121.738597,46.3905006],[-121.7350692,46.3973446],[-121.7594181,46.4238134],[-121.7614607,46.4280208],[-121.7657942,46.4344131],[-121.7740013,46.4383966],[-121.7838238,46.445847],[-121.8427308,46.4446466],[-121.8493877,46.4447809],[-121.8572939,46.448854],[-121.8679545,46.4508966],[-121.8760437,46.4467299],[-121.8867046,46.4446873],[-121.8958558,46.4494032],[-121.9010436,46.44673],[-121.9075785,46.44461],[-121.9175882,46.4448134],[-121.9260436,46.4383966],[-121.955251,46.436354],[-121.9593769,46.43423],[-121.9635843,46.4321873],[-121.9677103,46.4300633],[-121.9794533,46.4271987],[-121.9822934,46.4152768],[-121.9781268,46.4071877],[-121.9771054,46.4019587],[-121.9820699,46.400095],[-122.0050966,46.4099136],[-122.0113832,46.4135146],[-122.0179509,46.4154394],[-122.0099348,46.4255673],[-122.013662,46.4320695],[-122.01555,46.4364314],[-122.026162,46.4487361],[-122.0285993,46.4597345],[-122.036318,46.4589492],[-122.0447165,46.465598],[-122.0490785,46.467486],[-122.0577169,46.4743219],[-122.063564,46.4737278],[-122.0718974,46.4745782],[-122.0802307,46.4737278],[-122.0888083,46.4746027],[-122.0958555,46.4790418],[-122.096954,46.4759741],[-122.1001157,46.4657444],[-122.1052796,46.4654352],[-122.1142069,46.4716729],[-122.1218402,46.4675267],[-122.1261208,46.4655573],[-122.1313984,46.4626927],[-122.1567891,46.461179],[-122.1615378,46.46336],[-122.1655905,46.4655573],[-122.1736757,46.4692682],[-122.1761212,46.4737768],[-122.1794008,46.4809138],[-122.1865377,46.4841933],[-122.191689,46.4869887],[-122.1968402,46.4841933],[-122.2094542,46.4822239],[-122.2135069,46.4800267],[-122.2177875,46.4780573],[-122.2218402,46.47586],[-122.2302875,46.4738906],[-122.238218,46.4695856],[-122.2531473,46.4704726],[-122.2692891,46.4695123],[-122.2740377,46.4716933],[-122.2780904,46.4738906],[-122.2907043,46.47586],[-122.2947571,46.4780573],[-122.3030909,46.4818823],[-122.2969544,46.4863911],[-122.2844546,46.4893004],[-122.2864239,46.4988907],[-122.294989,46.5028253],[-122.3085999,46.5102187],[-122.3210346,46.5146824],[-122.3282041,46.5113906],[-122.3389586,46.5030572],[-122.344871,46.5050267],[-122.3530904,46.5113906],[-122.357371,46.51336],[-122.3614237,46.5155572],[-122.369871,46.5175266],[-122.3747578,46.5201796],[-122.3844461,46.5196018],[-122.3905904,46.5238906],[-122.4032043,46.52586],[-122.4072571,46.5280572],[-122.4115377,46.5300266],[-122.4155904,46.5322239],[-122.419871,46.5341933],[-122.4239237,46.5363906],[-122.432371,46.53836],[-122.440041,46.5425266],[-122.4469541,46.5405572],[-122.4546242,46.5363905],[-122.4615376,46.53836],[-122.4655904,46.5405572],[-122.469871,46.5425267],[-122.482257,46.5530572],[-122.5032042,46.5550266],[-122.5083555,46.557822],[-122.5135067,46.5550266],[-122.5177873,46.5530572],[-122.5278744,46.5452406],[-122.5385638,46.5446059],[-122.5523902,46.5454278],[-122.5636205,46.5322241],[-122.566005,46.5169408],[-122.5760067,46.5091933],[-122.5802873,46.5072239],[-122.5879575,46.5030572],[-122.5948709,46.5050266],[-122.5989236,46.5072239],[-122.6073709,46.5091933],[-122.6129047,46.5121962],[-122.6382585,46.5137099],[-122.6427872,46.507224],[-122.6466121,46.4988905],[-122.6682514,46.5011204],[-122.6761659,46.5113298],[-122.6714866,46.5180313],[-122.7003232,46.5300266],[-122.7087621,46.5266819],[-122.7136205,46.519724],[-122.7162492,46.5139987],[-122.7351459,46.5256769],[-122.7529072,46.529811],[-122.7552877,46.5341934],[-122.7572854,46.5385388],[-122.7635067,46.5341933],[-122.7719539,46.5322239],[-122.7760067,46.5300266],[-122.7927873,46.5280572],[-122.8010066,46.5216933],[-122.8052872,46.5197239],[-122.8176733,46.5091933],[-122.8302873,46.5072239],[-122.83434,46.5050267],[-122.8386205,46.5030573],[-122.8553117,46.4882338],[-122.8625788,46.4886692],[-122.8655898,46.4821101],[-122.8666886,46.4811252],[-122.8712544,46.4826064],[-122.8851622,46.5112766],[-122.9198341,46.5133966],[-122.9218773,46.5145158],[-122.9218773,46.514516],[-122.9068134,46.5181864],[-122.899001,46.5301044],[-122.8947936,46.5363137],[-122.8911315,46.5438618],[-122.8802673,46.5473896],[-122.8845194,46.572316],[-122.8969176,46.58423],[-122.8989603,46.5905208],[-122.9010843,46.5946467],[-122.9048603,46.6024265],[-122.9156675,46.6050632],[-122.9197935,46.6071872],[-122.9281675,46.6092299],[-122.9374899,46.6163021],[-122.9302062,46.6258969],[-122.9312723,46.6498756],[-122.9289409,46.6519588],[-122.9323709,46.6550267],[-122.9343402,46.6572239],[-122.9386209,46.6591933],[-122.9405903,46.6634739],[-122.9427875,46.6654433],[-122.9447569,46.6676406],[-122.9469542,46.66961],[-122.9489236,46.6718072],[-122.9511209,46.6737766],[-122.9530903,46.6759739],[-122.9552875,46.6779433],[-122.9572569,46.6801406],[-122.9594542,46.68211],[-122.9614236,46.6843072],[-122.9657042,46.6862766],[-122.9676737,46.6988906],[-122.9698709,46.70086],[-122.9718403,46.7325538],[-122.9676737,46.736277],[-122.9657042,46.748891],[-122.9614236,46.7508604],[-122.9594544,46.7563247],[-122.9735207,46.762778],[-122.9760069,46.7655572],[-122.9782042,46.7675266],[-122.9801736,46.7697239],[-122.9823708,46.7716933],[-122.9843402,46.7738905],[-122.9865375,46.77586],[-122.9885069,46.7801405],[-122.9927875,46.7821099],[-122.9947569,46.7843072],[-122.9969542,46.7862766],[-122.9995582,46.7891858],[-123.0240046,46.7780979],[-123.0260065,46.7758599],[-123.0312721,46.7727917],[-123.0344949,46.7779027],[-123.0363829,46.7864313],[-123.0439026,46.7959286],[-123.0386614,46.7989317]]]}
}
