{
  "type": "Feature",
  "properties": {
    "id": "south-puget",
    "name": "South Puget Sound",
    "boundaryVersion": "mountain-led-v1",
    "derivation": "Selected GMBA broad basic ranges, plus retained historical footprint/approach neighborhoods where present, clipped to the existing complete statewide start footprint; remaining locations allocated by EPA ecoregions and the documented shoreline/state-edge repair. No mountain, elevation or terrain threshold determines eligibility.",
    "sources": {
      "gmba": {
        "authority": "Global Mountain Biodiversity Assessment (GMBA) / EarthEnv",
        "dataset": "GMBA Mountain Inventory v2.0, broad extent, basic non-overlapping ranges",
        "url": "https://data.earthenv.org/mountains/broad/GMBA_Inventory_v2.0_broad_basic.zip",
        "sha256": "sha256:638bae59339fb45ffe190079aa2fabdcd1d05fd00353863e9509bd7b16004ae0",
        "byteLength": 42672594,
        "reviewedAt": "2026-09-29T16:56:01Z",
        "coordinateReferenceSystem": "WGS84 (EPSG:4326)",
        "license": "Creative Commons Attribution 4.0 International",
        "datasetCitation": "Snethlage et al. (2022), GMBA Mountain Inventory v2, https://doi.org/10.48601/earthenv-t9k2-1407",
        "publicationCitation": "Snethlage et al. (2022), A hierarchical inventory of the world’s mountains for global comparative mountain science, Scientific Data, https://doi.org/10.1038/s41597-022-01256-y",
        "limitation": "Broad extent includes surrounding landscape and support polygons. Used to organize eligible starts, not to classify every included location as mountainous."
      },
      "epa": {
        "authority": "U.S. Environmental Protection Agency",
        "dataset": "Washington Level III Ecoregions",
        "url": "https://dmap-prod-oms-edc.s3.us-east-1.amazonaws.com/ORD/Ecoregions/wa/wa_eco_l3.zip",
        "metadataUrl": "https://dmap-prod-oms-edc.s3.us-east-1.amazonaws.com/ORD/Ecoregions/wa/wa_eco_l3.htm",
        "sha256": "sha256:e665f5a691b006feaf0c2d0ec8394c4e6d03de127267a21e054ae5bec4e6dae3",
        "byteLength": 1175130,
        "metadataDate": "2012-05-08",
        "reviewedAt": "2026-09-29T16:56:01Z",
        "license": "U.S. federal government public domain",
        "derivation": "Source NAD83 Albers Equal Area polygons transformed to WGS84 EPSG:4326 with pyshp 3.1.6 and pyproj 3.8.0; used only to allocate residual statewide coverage after the selected GMBA ranges and historical footprints."
      }
    },
    "statewideCoverage": {
      "path": "data/fixtures/coverage/washington-start-coverage.geojson",
      "sha256": "sha256:6f5274416c8dcf9bf05d2daff212a7344cdd4a73ffb461fec16d6a00084e4f3d",
      "properties": {
        "name": "Washington eligible-start coverage obligation",
        "basis": "Union of all twelve Washington effective start footprints at 8e95bc3, including the pinned Census 2025 statewide county inventory and retained historical footprints and approach neighborhoods. Used only as a gap-regression baseline; county assignments are superseded.",
        "sourceCommit": "8e95bc3",
        "license": "U.S. Census Bureau public domain; retained OpenStreetMap-derived boundaries ODbL 1.0; USDA Forest Service public domain. Original attribution retained in Git history."
      }
    },
    "gmbaSelection": [
      {
        "id": "17203",
        "name": "Capitol Hills",
        "path": "North America > American Cordillera (North America) > Pacific Coast Ranges > Oregon Coast Range > Northern Oregon Coast Range > Capitol Hills",
        "pathIds": "12159 > 12218 > 12385 > 12925 > 12926 > 17203"
      },
      {
        "id": "17204",
        "name": "Kitsap Peninsula",
        "path": "North America > American Cordillera (North America) > Pacific Coast Ranges > Oregon Coast Range > Northern Oregon Coast Range > Kitsap Peninsula",
        "pathIds": "12159 > 12218 > 12385 > 12925 > 12926 > 17204"
      },
      {
        "id": "17017",
        "name": "Seattle-Everett Area",
        "path": "North America > American Cordillera (North America) > Pacific Coast Ranges > Cascade Range (North America) > South Washington Cascades > Alpine Lakes Area > Seattle-Everett Area",
        "pathIds": "12159 > 12218 > 12385 > 11202 > 17010 > 17011 > 17017"
      },
      {
        "id": "17034",
        "name": "Highline-West Seattle",
        "path": "North America > American Cordillera (North America) > Pacific Coast Ranges > Cascade Range (North America) > South Washington Cascades > South Cascade Crest > Highline-West Seattle",
        "pathIds": "12159 > 12218 > 12385 > 11202 > 17010 > 17031 > 17034"
      }
    ],
    "epaResiduals": [
      "EPA Puget Lowland residual south of 47.6 degrees"
    ],
    "edgeRepair": {
      "parts": 434,
      "areaSquareDegrees": 0.009301706542851907,
      "method": "For each connected remaining part outside the EPA polygons, assign its representative point to the nearest post-EPA group by GEOS distance in EPSG:5070; tie-break by ascending region ID."
    },
    "limitation": "The source boundaries are geographic groupings with scale and vintage limitations, not legal access boundaries or proof that all trails are mapped. US-only limits and explicit exclusions still apply. Build costs and representative routes require a real-data build.",
    "authoringPrecision": {
      "method": "GEOS buffer of valid raw derived geometry by 3e-7 degrees with mitre joins and mitre_limit=2, then topology-preserving valid-output set_precision on a shared 1e-7-degree grid. No runtime normalization.",
      "implementation": "Shapely 2.1.2 / GEOS",
      "gridDegrees": 1e-07,
      "outwardBufferDegrees": 3e-07,
      "mitreLimit": 2,
      "verifiedMaximumOutwardDistanceDegrees": 8e-07,
      "maximumMeasuredOutputVertexDistanceDegrees": 6.92013424825697e-07,
      "missingRawAreaSquareDegrees": 0.0,
      "extraAreaSquareDegrees": 4.057623642046917e-06,
      "rawGeometryHash": "sha256:a8797bf335768bd08ce4581ce7fbac1eb13c47f7314afa173b9e214a712061b0",
      "finalGeometryHash": "sha256:89b9bf894a273118b634cc12356e5ada3d04bd7dadcb50fdab3e359fa709dcd3",
      "hashEncoding": "UTF-8 JSON geometry, compact comma/colon separators; numeric serialization from Python 3 json.dumps.",
      "reference": "https://libgeos.org/doxygen/classgeos_1_1precision_1_1GeometryPrecisionReducer.html"
    }
  },
  "geometry": {"type":"MultiPolygon","coordinates":[[[[-122.832255,47.1150364],[-122.8317969,47.1153794],[-122.83112,47.1158863],[-122.8299371,47.1167721],[-122.8298783,47.1168161],[-122.8305138,47.1202753],[-122.8305913,47.120697],[-122.8305397,47.1208024],[-122.8282143,47.125549],[-122.8282645,47.1256173],[-122.8297284,47.1276089],[-122.8298588,47.1277864],[-122.8298783,47.1278129],[-122.8295275,47.1302083],[-122.8294128,47.130992],[-122.8292263,47.1322652],[-122.8291303,47.1329211],[-122.8290576,47.133019],[-122.8286785,47.1335291],[-122.827527,47.1350784],[-122.8270783,47.135682],[-122.8274433,47.1365822],[-122.8275187,47.1367681],[-122.8286153,47.139473],[-122.8285739,47.1397651],[-122.8282573,47.1419957],[-122.8279959,47.1438379],[-122.8273397,47.1484617],[-122.8272643,47.148993],[-122.8272688,47.1491056],[-122.8272939,47.1497392],[-122.8273617,47.1514446],[-122.8274313,47.1531973],[-122.8274488,47.1536374],[-122.8277393,47.160953],[-122.8267484,47.1637435],[-122.8260753,47.1656391],[-122.8260421,47.1657187],[-122.8254185,47.1672133],[-122.8244552,47.1695219],[-122.8215132,47.1765732],[-122.8151868,47.1791024],[-122.8148739,47.1781455],[-122.8147134,47.1776549],[-122.8127844,47.1717568],[-122.8125277,47.1709721],[-122.8124212,47.170786],[-122.8091998,47.1651553],[-122.8046839,47.1646703],[-122.7987417,47.1593372],[-122.7968408,47.1538422],[-122.7932757,47.1525492],[-122.7914619,47.145458],[-122.7913737,47.1451132],[-122.7911558,47.1449748],[-122.7878087,47.1428502],[-122.7876731,47.1421427],[-122.7872681,47.1400301],[-122.7870957,47.1391309],[-122.7891409,47.137122],[-122.7892347,47.1370299],[-122.7890902,47.1365464],[-122.7883082,47.1339294],[-122.7880603,47.1330997],[-122.7879034,47.1325746],[-122.7878996,47.132562],[-122.7878483,47.1323904],[-122.7876678,47.1317862],[-122.7865576,47.1280711],[-122.7862598,47.1270742],[-122.7838469,47.1259663],[-122.7835701,47.1259572],[-122.7790171,47.1258079],[-122.7789069,47.1258043],[-122.7787801,47.1257291],[-122.7768717,47.1245972],[-122.7764825,47.1229087],[-122.7764757,47.122879],[-122.7771052,47.1215291],[-122.7772176,47.1212882],[-122.7746089,47.1204113],[-122.765312,47.1203023],[-122.7633678,47.1199343],[-122.7626004,47.1188823],[-122.762281,47.1184446],[-122.7621918,47.1183223],[-122.7614512,47.1181932],[-122.7598681,47.1179171],[-122.7595019,47.1178533],[-122.7592042,47.1176722],[-122.7559968,47.1157212],[-122.7543418,47.1130921],[-122.7537446,47.1121433],[-122.7536896,47.1120559],[-122.7535438,47.1118242],[-122.7502584,47.1104217],[-122.7500358,47.1103267],[-122.7409859,47.1064633],[-122.7409527,47.1064549],[-122.7354859,47.1050703],[-122.7354278,47.105039],[-122.7323413,47.1033766],[-122.7303757,47.1023178],[-122.7279734,47.1010239],[-122.7270177,47.1005092],[-122.7270179,47.1005079],[-122.7270932,47.1001019],[-122.727161,47.0997369],[-122.7276387,47.0971631],[-122.7257639,47.0939586],[-122.7257298,47.0939003],[-122.7217385,47.0937665],[-122.7211589,47.093747],[-122.7131731,47.0934793],[-122.713078,47.0935793],[-122.7124686,47.0942199],[-122.7111402,47.0956163],[-122.7110431,47.0957183],[-122.7052341,47.0957383],[-122.7032102,47.0957453],[-122.7031151,47.0958826],[-122.7022275,47.0971657],[-122.7015529,47.0981408],[-122.6996342,47.1009143],[-122.694403,47.1015863],[-122.6927044,47.101316],[-122.691383,47.1011058],[-122.6907819,47.1010101],[-122.6900098,47.1008873],[-122.6889192,47.0995004],[-122.6872864,47.0974241],[-122.6872008,47.0973153],[-122.6849163,47.0970637],[-122.6846951,47.0970393],[-122.6811982,47.0991917],[-122.6764792,47.1020962],[-122.6749113,47.1066251],[-122.6709406,47.1126438],[-122.6705012,47.1133098],[-122.6696822,47.1145512],[-122.6696551,47.1145805],[-122.6686499,47.1156694],[-122.6671571,47.1172864],[-122.6669923,47.117465],[-122.6661594,47.1183671],[-122.6658183,47.1187367],[-122.6580362,47.1271662],[-122.6558278,47.1288286],[-122.6534596,47.1306114],[-122.6506342,47.1327383],[-122.6450531,47.1350883],[-122.644391,47.1351245],[-122.6434798,47.1351744],[-122.6386404,47.1354391],[-122.6379233,47.1354783],[-122.6361691,47.1355743],[-122.6355708,47.136185],[-122.6355543,47.1362019],[-122.6340923,47.1376942],[-122.6328422,47.1389703],[-122.6320792,47.1393039],[-122.6277396,47.1412014],[-122.6270148,47.1415184],[-122.6261872,47.1418802],[-122.6259782,47.1421724],[-122.6239921,47.1449485],[-122.6219083,47.1478612],[-122.6218362,47.1479919],[-122.6190949,47.1529637],[-122.6179914,47.154965],[-122.6169173,47.1569131],[-122.6168195,47.1572232],[-122.6159607,47.1599486],[-122.6156914,47.1608031],[-122.6154913,47.161438],[-122.6157193,47.164304],[-122.6137512,47.1695552],[-122.6103089,47.1704853],[-122.6089878,47.1708422],[-122.6050847,47.1718967],[-122.6043201,47.1721033],[-122.6042295,47.172143],[-122.6033932,47.1725097],[-122.5999116,47.1740365],[-122.5972283,47.1752132],[-122.5969521,47.1753343],[-122.5965965,47.175377],[-122.5931753,47.1757877],[-122.5929121,47.1758193],[-122.5928532,47.175884],[-122.5927509,47.1759964],[-122.5908292,47.1781072],[-122.5849536,47.187258],[-122.5848303,47.1874501],[-122.5848303,47.1897111],[-122.5838529,47.1909659],[-122.5826913,47.1924571],[-122.5829983,47.1938646],[-122.5833731,47.1955836],[-122.5834205,47.1958009],[-122.5836423,47.1968179],[-122.5839773,47.199578],[-122.5837859,47.2001776],[-122.583604,47.2007473],[-122.582604,47.2038798],[-122.5809599,47.2090296],[-122.5805173,47.2104162],[-122.5788133,47.2120364],[-122.5775513,47.2132364],[-122.5770951,47.2136702],[-122.5722332,47.2182932],[-122.5720773,47.2184042],[-122.5703275,47.2196491],[-122.5681207,47.2212192],[-122.5672422,47.2218442],[-122.5669599,47.2224768],[-122.5648653,47.2271711],[-122.5648512,47.2279556],[-122.5647323,47.2345551],[-122.5640311,47.2356272],[-122.5635685,47.2363346],[-122.5634393,47.2365321],[-122.5634642,47.2366672],[-122.5639153,47.239114],[-122.5639153,47.2434711],[-122.5635227,47.2438896],[-122.5630041,47.2444426],[-122.5622511,47.2452453],[-122.5612526,47.2451099],[-122.5609698,47.2450715],[-122.5600505,47.2449468],[-122.5578509,47.2446485],[-122.5563091,47.2444393],[-122.5522684,47.248311],[-122.5523327,47.2484129],[-122.5529813,47.2494399],[-122.5534573,47.25186],[-122.5532624,47.2522567],[-122.5522683,47.2542802],[-122.5517359,47.254948],[-122.5493821,47.2579012],[-122.5446935,47.2637836],[-122.5444252,47.2641202],[-122.5341543,47.2751546],[-122.5330163,47.2763772],[-122.5311116,47.2803468],[-122.5297449,47.2831951],[-122.5296893,47.2833111],[-122.5296735,47.2834369],[-122.5295168,47.2846852],[-122.5287776,47.2905749],[-122.5287383,47.290888],[-122.5288683,47.2931129],[-122.533209,47.2992901],[-122.5368192,47.3044278],[-122.5420482,47.3107138],[-122.5426478,47.3113123],[-122.5477473,47.3164029],[-122.5475273,47.3172668],[-122.5474671,47.3175032],[-122.5474082,47.3177343],[-122.541335,47.3189323],[-122.5333379,47.3166203],[-122.5284196,47.3134878],[-122.5204236,47.3083952],[-122.5197329,47.3079553],[-122.5196246,47.307912],[-122.5185155,47.307469],[-122.514974,47.3060543],[-122.5147025,47.3062094],[-122.5130975,47.3071262],[-122.5126496,47.3073821],[-122.512383,47.3075343],[-122.511955,47.3073488],[-122.5078218,47.3055572],[-122.5070257,47.3028422],[-122.5069523,47.3027826],[-122.5065418,47.3024495],[-122.5057073,47.3017726],[-122.5035953,47.300059],[-122.4992727,47.2965521],[-122.4992735,47.2959273],[-122.4992742,47.2953244],[-122.4992747,47.2949222],[-122.4989235,47.2946984],[-122.4913827,47.2898944],[-122.4901988,47.2891402],[-122.4890843,47.2880633],[-122.4887317,47.2877226],[-122.4886728,47.2876656],[-122.4866688,47.2857293],[-122.4853672,47.2851196],[-122.4800219,47.2826159],[-122.4797879,47.2825063],[-122.4796362,47.2824096],[-122.4793933,47.2822548],[-122.4788578,47.2819136],[-122.4783233,47.2815729],[-122.4779735,47.28135],[-122.4773219,47.2809347],[-122.4769469,47.2806958],[-122.4716519,47.2773213],[-122.4698569,47.2770032],[-122.4656915,47.2762651],[-122.4653206,47.2761994],[-122.4646274,47.2760766],[-122.462919,47.2757739],[-122.4610759,47.2754473],[-122.4577144,47.2741575],[-122.4575723,47.274103],[-122.4541288,47.2727818],[-122.4531319,47.2723993],[-122.4453909,47.2674801],[-122.4445904,47.2669714],[-122.4441998,47.2667232],[-122.4406815,47.2624603],[-122.4403209,47.2620233],[-122.4395716,47.2619895],[-122.4367561,47.2618623],[-122.4340968,47.2630655],[-122.4332329,47.2634564],[-122.4331912,47.2634752],[-122.43194,47.2652301],[-122.4317721,47.2654655],[-122.4296262,47.2684752],[-122.4290424,47.268792],[-122.4288197,47.2689128],[-122.4260601,47.2704103],[-122.4215736,47.2702583],[-122.4213072,47.2702493],[-122.4211795,47.2705021],[-122.4200873,47.2726635],[-122.4192957,47.2742299],[-122.4184552,47.2758932],[-122.4144914,47.2798314],[-122.4118004,47.282505],[-122.4138254,47.2850161],[-122.4136734,47.2851324],[-122.410701,47.287407],[-122.4091994,47.288556],[-122.4092133,47.2885725],[-122.4137352,47.2939207],[-122.4231927,47.2971633],[-122.424235,47.2975207],[-122.4243862,47.2975114],[-122.4296733,47.2971862],[-122.432478,47.2970137],[-122.4326188,47.297065],[-122.4363351,47.2984207],[-122.4367881,47.2984563],[-122.4377665,47.2985333],[-122.4398061,47.2986937],[-122.4406817,47.2990069],[-122.4424046,47.299623],[-122.4437405,47.3001008],[-122.4446353,47.3004208],[-122.4446017,47.3010972],[-122.4444821,47.3035054],[-122.4444016,47.3051269],[-122.4443686,47.3057902],[-122.4443562,47.3060404],[-122.4443533,47.3060993],[-122.4443199,47.306104],[-122.4422727,47.3063967],[-122.4366789,47.3071965],[-122.4346172,47.3074913],[-122.433116,47.309817],[-122.4329533,47.3100691],[-122.432487,47.3115691],[-122.4324648,47.3116405],[-122.4318287,47.3136866],[-122.4311041,47.3160174],[-122.4299722,47.3196583],[-122.4297403,47.319639],[-122.4291598,47.3195905],[-122.423535,47.3191213],[-122.4182328,47.3202584],[-122.4176374,47.3203861],[-122.4146521,47.3210263],[-122.4034338,47.3224661],[-122.4028481,47.3225413],[-122.3961831,47.3268773],[-122.391022,47.3283403],[-122.3860039,47.3273553],[-122.3840789,47.3256023],[-122.3811001,47.3260913],[-122.3796708,47.3266416],[-122.3770982,47.3276322],[-122.3765026,47.3288006],[-122.3743436,47.3330362],[-122.3743242,47.3330743],[-122.3742731,47.3330887],[-122.3641681,47.3359533],[-122.3609784,47.3365937],[-122.3604081,47.3367082],[-122.3572086,47.3373506],[-122.3558328,47.3376268],[-122.3554525,47.3377032],[-122.3369341,47.3414213],[-122.3345484,47.3424876],[-122.3333759,47.3430117],[-122.3304334,47.3443268],[-122.3285598,47.3451642],[-122.3274232,47.3456722],[-122.3248333,47.3485211],[-122.3248352,47.3486866],[-122.324967,47.3599617],[-122.3249689,47.3601251],[-122.3249955,47.3623975],[-122.3250271,47.3650986],[-122.3250486,47.3669446],[-122.3250563,47.3676001],[-122.3245855,47.36879],[-122.3245546,47.368868],[-122.3239099,47.3704976],[-122.3238584,47.3706279],[-122.3240109,47.3707427],[-122.3257993,47.3720888],[-122.3259974,47.3722379],[-122.3252343,47.373821],[-122.3255314,47.3758859],[-122.326333,47.3814573],[-122.3272343,47.387721],[-122.3257343,47.391521],[-122.3258087,47.3917133],[-122.3271946,47.3952965],[-122.3273242,47.3956317],[-122.3276311,47.3957034],[-122.3305132,47.3963767],[-122.3310646,47.3978695],[-122.3321773,47.4008819],[-122.3333975,47.4038911],[-122.3346331,47.4069384],[-122.3352342,47.4084208],[-122.3402329,47.4113495],[-122.3480352,47.4159208],[-122.3509908,47.4226232],[-122.3511913,47.4230779],[-122.3511913,47.4307969],[-122.3517366,47.43179],[-122.3542813,47.4364239],[-122.3550417,47.4413187],[-122.3551353,47.4419207],[-122.3557942,47.4419964],[-122.3563036,47.442055],[-122.3604612,47.4425327],[-122.3623062,47.4451666],[-122.3625052,47.4454508],[-122.3670361,47.4476207],[-122.374389,47.4489451],[-122.3805278,47.4500509],[-122.382952,47.4504875],[-122.3831366,47.4505208],[-122.3831366,47.450521],[-122.3829491,47.4506127],[-122.3789598,47.4525637],[-122.3744864,47.4547514],[-122.3723622,47.4557903],[-122.3714932,47.4564794],[-122.3702756,47.4574452],[-122.3680363,47.4592211],[-122.3702063,47.467764],[-122.3687803,47.4727452],[-122.3641452,47.4771852],[-122.3639256,47.4775164],[-122.3615438,47.4811082],[-122.3613363,47.4814211],[-122.3616493,47.4852749],[-122.3622834,47.4858309],[-122.3649102,47.488134],[-122.3652362,47.4884198],[-122.3685422,47.4923408],[-122.3729801,47.4948955],[-122.3756069,47.4964077],[-122.3756521,47.4964337],[-122.3824555,47.5000172],[-122.3848931,47.5013011],[-122.3866372,47.5022198],[-122.3877062,47.5033072],[-122.3893261,47.5049549],[-122.389348,47.5049771],[-122.3939742,47.5096828],[-122.3945192,47.5108596],[-122.3953561,47.5126669],[-122.3956289,47.513256],[-122.3965382,47.5152198],[-122.3988055,47.517437],[-122.3952103,47.5201232],[-122.3952018,47.5201544],[-122.3950949,47.5205493],[-122.3946211,47.5222989],[-122.3939383,47.5248199],[-122.3945607,47.5252617],[-122.394807,47.5254367],[-122.3982532,47.5278835],[-122.4011044,47.5299079],[-122.399049,47.5325252],[-122.3967293,47.5354791],[-122.3976498,47.5389929],[-122.3978954,47.5399304],[-122.3980408,47.5404855],[-122.3991027,47.5445389],[-122.3994383,47.54582],[-122.3983383,47.55012],[-122.3991584,47.5515868],[-122.4002936,47.5536173],[-122.4006493,47.5542534],[-122.4023642,47.5573208],[-122.4027858,47.5578467],[-122.4039268,47.5592699],[-122.4051347,47.5607764],[-122.4060672,47.5619396],[-122.4068343,47.5628965],[-122.4089516,47.5655374],[-122.4097393,47.5665199],[-122.4097814,47.5675312],[-122.4098393,47.5689198],[-122.4105788,47.5693844],[-122.4109056,47.5695898],[-122.4152926,47.5723463],[-122.4161557,47.5728885],[-122.4172118,47.5735521],[-122.4178433,47.5739489],[-122.420874,47.5758532],[-122.4211396,47.57602],[-122.4211396,47.5760201],[-122.420917,47.5761112],[-122.4157862,47.5782114],[-122.4119304,47.5797896],[-122.4018392,47.5839203],[-122.3937019,47.590453],[-122.3913662,47.5923282],[-122.3874731,47.5954523],[-122.3871391,47.5957203],[-122.3863969,47.595473],[-122.3837292,47.5945839],[-122.3817377,47.5939202],[-122.3812589,47.5908892],[-122.3811747,47.5903562],[-122.3803873,47.589648],[-122.3800289,47.5893256],[-122.3783235,47.5877919],[-122.3761979,47.5858801],[-122.3761271,47.5858164],[-122.3754208,47.5851813],[-122.3734494,47.5843955],[-122.3701671,47.5830874],[-122.3701093,47.583151],[-122.3696385,47.5836695],[-122.3689047,47.5844776],[-122.36888,47.5845049],[-122.3685381,47.5848813],[-122.3684585,47.5848679],[-122.3674272,47.5846944],[-122.3672464,47.584664],[-122.3661151,47.5844736],[-122.3655679,47.5843816],[-122.3621251,47.5838023],[-122.362105,47.5838159],[-122.3585591,47.5862073],[-122.3584241,47.5862652],[-122.3567623,47.5869785],[-122.3559451,47.5873293],[-122.3558948,47.5873443],[-122.3553092,47.5875195],[-122.3532367,47.5881394],[-122.3530524,47.5881946],[-122.3480411,47.5896935],[-122.3461033,47.5902732],[-122.3443358,47.5908019],[-122.3430092,47.5911987],[-122.3429372,47.5912202],[-122.339527,47.5990815],[-122.3394909,47.5990821],[-122.3388273,47.5990639],[-122.3385636,47.599073],[-122.3377364,47.5990639],[-122.3374455,47.599073],[-122.3374094,47.5990911],[-122.3374094,47.5991091],[-122.3374185,47.5993637],[-122.3373911,47.5994093],[-122.3373638,47.5994366],[-122.3373182,47.5994458],[-122.3372091,47.5994458],[-122.3370455,47.5994548],[-122.3370002,47.599473],[-122.336973,47.5995002],[-122.3369549,47.5995455],[-122.3369639,47.5995817],[-122.336982,47.5996089],[-122.3370455,47.5996361],[-122.3374182,47.5997179],[-122.3376091,47.5997361],[-122.3380909,47.5997452],[-122.3381361,47.5997271],[-122.3381361,47.5997002],[-122.3381181,47.5996912],[-122.3378,47.5996821],[-122.3377454,47.599673],[-122.3376181,47.5996275],[-122.3375816,47.5996093],[-122.3375724,47.5995726],[-122.3375999,47.5995542],[-122.3376454,47.5995542],[-122.3378364,47.5995452],[-122.3380091,47.5995542],[-122.3387364,47.5995452],[-122.338782,47.5995543],[-122.3388003,47.5995817],[-122.3388185,47.5997545],[-122.3388275,47.5997815],[-122.3388727,47.5997815],[-122.3395364,47.599727],[-122.3396183,47.599727],[-122.3396457,47.5997452],[-122.3396639,47.5997726],[-122.3396603,47.6000003],[-122.3186569,47.6000003],[-122.3177715,47.6009577],[-122.3156068,47.6029597],[-122.3136048,47.6051244],[-122.3114401,47.6071263],[-122.3094382,47.609291],[-122.3072735,47.611293],[-122.3052715,47.6134577],[-122.3031068,47.6154597],[-122.3011048,47.6176244],[-122.285671,47.624908],[-122.2728577,47.6289607],[-122.2636047,47.6322078],[-122.2572734,47.6342097],[-122.2469381,47.6384578],[-122.2385234,47.6404597],[-122.2362855,47.6428767],[-122.1940409,47.6529394],[-122.16769,47.6550431],[-122.1511047,47.6572078],[-122.1239766,47.6593725],[-122.1001525,47.6584285],[-122.0684264,47.6512141],[-122.0580383,47.6475724],[-122.0386048,47.6509578],[-122.0239403,47.6529597],[-122.0219384,47.6699311],[-122.0261049,47.6737925],[-122.0281069,47.6759573],[-122.0302716,47.6779592],[-122.0322736,47.6801239],[-122.0344383,47.6821259],[-122.0364402,47.6842906],[-122.0386049,47.6862925],[-122.0406069,47.6884572],[-122.0448549,47.6904592],[-122.0468569,47.6926239],[-122.0490216,47.6946259],[-122.0516583,47.7002126],[-122.0719381,47.7050425],[-122.1113344,47.7233937],[-122.1135236,47.7280406],[-122.1156882,47.7300425],[-122.1180767,47.7326222],[-122.1302715,47.7383758],[-122.1322735,47.7405406],[-122.1344382,47.7425425],[-122.1364402,47.7447072],[-122.1386049,47.7467092],[-122.1406068,47.7488739],[-122.1427716,47.7508759],[-122.1447736,47.7634573],[-122.1469382,47.7654592],[-122.1489404,47.7678479],[-122.1447736,47.7717095],[-122.1427717,47.7865978],[-122.1469383,47.7904592],[-122.1489403,47.8157647],[-122.1447736,47.8196262],[-122.1427716,47.8301242],[-122.1406069,47.8321262],[-122.1386049,47.8363742],[-122.1364403,47.8383762],[-122.1344383,47.8509575],[-122.1322735,47.8529596],[-122.1302715,47.8551243],[-122.1260235,47.8571263],[-122.1240216,47.8592909],[-122.1218569,47.8612929],[-122.1198549,47.8634576],[-122.1176902,47.8654596],[-122.1156882,47.8676243],[-122.1135236,47.8696262],[-122.1115216,47.8738742],[-122.1093569,47.8758762],[-122.1073549,47.8780409],[-122.1051902,47.8800429],[-122.1031882,47.8822076],[-122.0989402,47.8842096],[-122.0969382,47.8863743],[-122.0947736,47.8883762],[-122.0937726,47.8936254],[-122.0863461,47.8906345],[-122.0845313,47.8736992],[-122.0779028,47.8655],[-122.0854426,47.856174],[-122.0780129,47.8531346],[-122.0678242,47.8445002],[-122.0655578,47.8448339],[-122.0575377,47.838889],[-122.0488463,47.8364679],[-122.0390237,47.8285293],[-122.0343974,47.8278457],[-122.0322326,47.8281672],[-122.0282815,47.8257827],[-122.0208555,47.822792],[-122.0198912,47.821673],[-122.0122048,47.8182428],[-121.9989031,47.8030775],[-121.996177,47.796966],[-121.9864033,47.7947443],[-121.9823912,47.7925064],[-121.9747048,47.7890762],[-121.9594743,47.7717134],[-121.9631651,47.7676483],[-121.9678079,47.7655771],[-121.9718199,47.7633392],[-121.9761412,47.7614104],[-121.9801533,47.7591725],[-121.9880592,47.7556447],[-121.9905698,47.7445893],[-121.9928078,47.7405773],[-121.9960223,47.733375],[-122.0072363,47.7283702],[-122.0053078,47.7237563],[-121.9946835,47.7113497],[-121.9975602,47.7061985],[-121.9905698,47.7030776],[-121.9870908,47.6952854],[-121.9757629,47.6864111],[-121.9676535,47.6883397],[-121.9604391,47.692364],[-121.9532246,47.6883397],[-121.9489033,47.686411],[-121.9365579,47.6758397],[-121.9241676,47.673024],[-121.9238909,47.6696097],[-121.9273455,47.6634168],[-121.9226987,47.6550834],[-121.9261411,47.6489107],[-121.9280698,47.6404227],[-121.9345354,47.6321668],[-121.9280209,47.6238457],[-121.9315121,47.6175835],[-121.9280698,47.6114109],[-121.9254983,47.6056493],[-121.9157611,47.6013036],[-121.9155576,47.5987764],[-121.9197364,47.5912896],[-121.9157246,47.5883398],[-121.9114033,47.586411],[-121.9032246,47.5800064],[-121.8960224,47.5767919],[-121.891168,47.5659113],[-121.8865579,47.5633398],[-121.8822366,47.5614111],[-121.8782246,47.5591731],[-121.8697367,47.5572444],[-121.8646058,47.554384],[-121.8583558,47.557867],[-121.8532246,47.5550064],[-121.8489033,47.5530777],[-121.8365579,47.5425064],[-121.8322367,47.5405777],[-121.8282246,47.5383398],[-121.8239033,47.5364111],[-121.8136291,47.527911],[-121.7919291,47.5296566],[-121.7896054,47.5269585],[-121.8136983,47.5009572],[-121.8219382,47.5029592],[-121.8406516,47.5111257],[-121.8635641,47.5120331],[-121.8854391,47.5111664],[-121.8968974,47.5116221],[-121.9132346,47.5109751],[-121.9281069,47.5238739],[-121.9434755,47.5275319],[-121.9552716,47.5321259],[-121.9643535,47.5383758],[-121.971938,47.5363739],[-121.9798116,47.5322072],[-121.9948548,47.5342092],[-121.9989401,47.5363739],[-122.0136048,47.5383758],[-122.0293518,47.5467091],[-122.0344379,47.5447072],[-122.0407491,47.5403614],[-122.0598695,47.5609996],[-122.0698549,47.5633759],[-122.0866232,47.5781992],[-122.0927307,47.5779592],[-122.1008808,47.5782806],[-122.1049172,47.5739267],[-122.139382,47.5786346],[-122.1442201,47.5838552],[-122.1552632,47.5842905],[-122.1614399,47.5821258],[-122.1771869,47.5791229],[-122.1864399,47.5758758],[-122.1971859,47.5738251],[-122.1967912,47.5639132],[-122.1989397,47.557126],[-122.2011044,47.5530407],[-122.2031063,47.5404593],[-122.2261368,47.5155002],[-122.2156063,47.503041],[-122.2146053,47.4957084],[-122.2202003,47.4908865],[-122.2274432,47.4824799],[-122.2344744,47.4780773],[-122.2479386,47.4665417],[-122.2468115,47.4529921],[-122.2479386,47.4415419],[-122.2469255,47.4382665],[-122.2282042,47.4300268],[-122.2179869,47.4268693],[-122.1927875,47.4154435],[-122.1761696,47.4115739],[-122.1737119,47.4088273],[-122.1460101,47.402382],[-122.1427874,47.3987768],[-122.1405901,47.3968074],[-122.1386207,47.3946101],[-122.1364235,47.3926407],[-122.1344541,47.3904435],[-122.1308161,47.387188],[-122.1386208,47.3822236],[-122.1405902,47.3800264],[-122.1511208,47.3738903],[-122.1530902,47.371693],[-122.1573708,47.3697236],[-122.1593401,47.3675264],[-122.1615374,47.365557],[-122.1635068,47.3633597],[-122.165704,47.3613904],[-122.1676734,47.3529431],[-122.1698707,47.3509737],[-122.1718401,47.3487764],[-122.1740373,47.346807],[-122.1760067,47.3362764],[-122.178204,47.3343071],[-122.1801734,47.3196098],[-122.18434,47.3158867],[-122.1823707,47.3050268],[-122.1791887,47.3040421],[-122.1791887,47.2894589],[-122.175022,47.2894589],[-122.175022,47.2790422],[-122.1708554,47.2790422],[-122.1701555,47.2714087],[-122.1673886,47.2700089],[-122.1659889,47.2651587],[-122.163222,47.263759],[-122.1618222,47.260992],[-122.1590553,47.2595923],[-122.1576556,47.2568254],[-122.1528053,47.2554257],[-122.1514056,47.2526587],[-122.1486386,47.251259],[-122.1472389,47.248492],[-122.1403053,47.245009],[-122.1389056,47.242242],[-122.1347388,47.2401342],[-122.1361386,47.2339083],[-122.1472389,47.2283419],[-122.1486386,47.2255749],[-122.1514056,47.2241752],[-122.1528053,47.2214082],[-122.1576556,47.2200085],[-122.1590553,47.2172416],[-122.1618222,47.2158419],[-122.163222,47.2130749],[-122.1659889,47.2116752],[-122.1673886,47.2068249],[-122.1701556,47.2054252],[-122.1715553,47.2026583],[-122.1743222,47.2012585],[-122.1757219,47.1964083],[-122.1784889,47.1950085],[-122.1798886,47.1901583],[-122.1826555,47.1887585],[-122.1840553,47.1839083],[-122.1889055,47.1825085],[-122.1903053,47.1776583],[-122.2055722,47.1700085],[-122.2069719,47.1672416],[-122.2097389,47.1658419],[-122.2111386,47.1630749],[-122.2159889,47.1616752],[-122.2173886,47.1589083],[-122.2187721,47.1582084],[-122.2198708,47.1572237],[-122.2396746,47.1542126],[-122.2426735,47.1508597],[-122.2874733,47.1405],[-122.3205014,47.125518],[-122.3239234,47.1216931],[-122.3261207,47.1197237],[-122.3280901,47.1175264],[-122.3323707,47.115557],[-122.3343401,47.1133598],[-122.3365373,47.1113904],[-122.3385067,47.1091931],[-122.340704,47.1072237],[-122.3426734,47.1050265],[-122.3448707,47.1030571],[-122.3468401,47.1008598],[-122.3490373,47.0988904],[-122.3510067,47.0966932],[-122.3532039,47.0947238],[-122.3551734,47.0883598],[-122.3594539,47.0863904],[-122.3614233,47.0758599],[-122.3636206,47.0738905],[-122.36559,47.0216932],[-122.371954,47.0176404],[-122.3739234,47.0154432],[-122.3761207,47.0134738],[-122.3780901,47.0112765],[-122.3802873,47.0093071],[-122.3822567,47.0050266],[-122.384454,47.0030571],[-122.3864234,47.0008598],[-122.390704,46.9988904],[-122.3926734,46.9966932],[-122.3948706,46.9947238],[-122.3968401,46.9925265],[-122.3990373,46.9905572],[-122.4010067,46.9862766],[-122.4032039,46.9843072],[-122.4051733,46.9716933],[-122.4073706,46.9697238],[-122.40934,46.9633599],[-122.4115373,46.9613905],[-122.4135067,46.9591932],[-122.4177873,46.9572238],[-122.4197567,46.9550265],[-122.4219539,46.9530572],[-122.4239233,46.9487766],[-122.4261206,46.9468071],[-122.42809,46.9446099],[-122.4302873,46.9426405],[-122.4322567,46.9404432],[-122.434454,46.9384738],[-122.4364234,46.9362765],[-122.4386206,46.9343072],[-122.44059,46.9279433],[-122.4427873,46.9259738],[-122.4447568,46.9237765],[-122.4615374,46.9218071],[-122.4643206,46.9186984],[-122.4844541,46.9155571],[-122.4979388,46.9123751],[-122.5115212,46.9113741],[-122.5224912,46.9090792],[-122.5501606,46.9114799],[-122.5676899,46.9176241],[-122.5740214,46.9196261],[-122.5760233,46.9217908],[-122.5823546,46.9237928],[-122.5885232,46.9259575],[-122.6375914,46.937367],[-122.7052712,46.9404594],[-122.7391985,46.9431775],[-122.7614804,46.9422945],[-122.7802304,46.9430392],[-122.8078549,46.9419446],[-122.8574032,46.933066],[-122.8844743,46.927406],[-122.8966286,46.9231416],[-122.8989399,46.9280409],[-122.9011046,46.9300429],[-122.9031067,46.934515],[-122.8989399,46.9383765],[-122.896938,46.9447079],[-122.8947733,46.9467099],[-122.8927347,46.9531471],[-122.8681537,46.9590025],[-122.8449197,46.969472],[-122.8427713,46.9717913],[-122.8406066,46.9737932],[-122.8386046,46.9759579],[-122.8364399,46.9779599],[-122.834438,46.9822079],[-122.8322733,46.9842098],[-122.8302714,46.9947079],[-122.8281066,46.9967098],[-122.8261048,47.0032648],[-122.8302713,47.0071262],[-122.8322734,47.0115983],[-122.8281066,47.0154598],[-122.8261047,47.0261814],[-122.8302714,47.0300428],[-122.8322733,47.0426242],[-122.834438,47.0446262],[-122.83644,47.0759576],[-122.8386047,47.0779595],[-122.8406066,47.0884575],[-122.8427713,47.0904595],[-122.8447733,47.0947075],[-122.8490213,47.0967094],[-122.8510232,47.0988741],[-122.853188,47.1008761],[-122.8551899,47.1030408],[-122.8583553,47.1040417],[-122.8656916,47.0998548],[-122.8738825,47.0883192],[-122.8844945,47.0760145],[-122.8905654,47.0653782],[-122.8947158,47.0466526],[-122.8969944,47.0426812],[-122.8993626,47.0372165],[-122.9070163,47.0308567],[-122.9030491,47.0239314],[-122.9011611,47.0112361],[-122.8988824,47.0072648],[-122.8969944,47.0029028],[-122.8934706,46.9967504],[-122.8969944,46.9905979],[-122.8988824,46.9862359],[-122.9011611,46.9822646],[-122.9038711,46.9760063],[-122.9178278,46.9739311],[-122.920733,46.9672297],[-122.9178277,46.9387383],[-122.9286758,46.9363335],[-122.9350436,46.9286677],[-122.9293145,46.9207087],[-122.9358819,46.9115818],[-122.9422011,46.8970106],[-122.9449111,46.8947646],[-122.9467991,46.886236],[-122.9556289,46.8583876],[-122.9594944,46.8551812],[-122.9613824,46.848736],[-122.9636611,46.8447646],[-122.9655491,46.8404026],[-122.967844,46.8364029],[-122.9668226,46.8264094],[-122.9727228,46.806939],[-122.9791073,46.8030978],[-122.987522,46.8079155],[-122.9926326,46.8049858],[-123.0178279,46.8030978],[-123.0217992,46.8008192],[-123.0386612,46.7989311],[-123.0439017,46.7959284],[-123.0363824,46.7864316],[-123.0344944,46.7779029],[-123.0312719,46.7727925],[-123.0260069,46.7758604],[-123.0240049,46.7780984],[-122.9995581,46.7891865],[-122.9969538,46.786277],[-122.9947565,46.7843076],[-122.9927871,46.7821104],[-122.9885065,46.780141],[-122.9865371,46.7758603],[-122.9843398,46.773891],[-122.9823704,46.7716937],[-122.9801732,46.7697243],[-122.9782038,46.767527],[-122.9760065,46.7655576],[-122.9735204,46.7627785],[-122.9594536,46.756325],[-122.9614231,46.7508599],[-122.9657037,46.7488906],[-122.9676731,46.7362767],[-122.9718397,46.7325536],[-122.9698703,46.7008603],[-122.9676731,46.6988909],[-122.9657037,46.6862771],[-122.9614232,46.6843077],[-122.9594538,46.6821104],[-122.9572565,46.680141],[-122.9552871,46.6779437],[-122.9530898,46.6759743],[-122.9511204,46.6737771],[-122.9489232,46.6718077],[-122.9469538,46.6696104],[-122.9447565,46.667641],[-122.9427871,46.6654437],[-122.9405898,46.6634743],[-122.9386204,46.6591938],[-122.9343399,46.6572244],[-122.9323704,46.6550271],[-122.92894,46.6519588],[-122.931272,46.6498752],[-122.9465838,46.6558567],[-122.9698708,46.6612766],[-122.9718402,46.6634739],[-122.9842546,46.6673109],[-123.003873,46.6688468],[-123.0027135,46.6726861],[-123.0011037,46.6754266],[-122.9984123,46.6783813],[-122.9956176,46.6823114],[-122.9944962,46.6856888],[-122.9946718,46.6916463],[-122.9951866,46.696863],[-122.9961285,46.7015066],[-122.9989446,46.7085644],[-123.0008847,46.7129263],[-123.0044983,46.7163265],[-123.0092731,46.719908],[-123.0121308,46.7229863],[-123.0131268,46.7240522],[-123.0170376,46.7304919],[-123.0207562,46.7391577],[-123.024569,46.746737],[-123.0280346,46.7561509],[-123.0302494,46.7659547],[-123.0319413,46.7724576],[-123.0423884,46.7672417],[-123.0521053,46.7665418],[-123.0921078,46.7675387],[-123.1168352,46.7779513],[-123.1323503,46.7803154],[-123.1485166,46.787127],[-123.1509866,46.7926609],[-123.1557472,46.7993787],[-123.1635636,46.798748],[-123.1665788,46.7989922],[-123.1739031,46.8030775],[-123.1824439,46.8056491],[-123.1905697,46.8114108],[-123.219891,46.8133395],[-123.2249731,46.8161756],[-123.2343969,46.8154147],[-123.2374121,46.8156588],[-123.2447364,46.8197441],[-123.2547503,46.8220187],[-123.2572366,46.8297827],[-123.2488382,46.8405045],[-123.2636411,46.8570896],[-123.2671689,46.8649956],[-123.2782243,46.8675062],[-123.2864031,46.8739108],[-123.2907243,46.8758395],[-123.2947366,46.8787897],[-123.2905699,46.8862566],[-123.2886412,46.8925837],[-123.3053078,46.9112563],[-123.3072365,46.9197442],[-123.31369,46.9279882],[-123.3099181,46.9347508],[-123.327618,46.9545788],[-123.3381281,46.9487154],[-123.3415788,46.9489921],[-123.3495013,46.9534111],[-123.3543556,46.9642917],[-123.3615576,46.9675061],[-123.3655696,46.9697441],[-123.3805477,46.9720268],[-123.3937723,46.9873754],[-123.3905983,46.9899146],[-123.3881487,47.0067523],[-123.371783,47.0091367],[-123.3669736,47.0119605],[-123.363039,47.0213027],[-123.3678444,47.0278863],[-123.3696999,47.0332982],[-123.3655332,47.0403865],[-123.3636778,47.0507989],[-123.3720111,47.0612196],[-123.3738666,47.0874649],[-123.3696999,47.0945532],[-123.3663307,47.1025408],[-123.3551164,47.10497],[-123.3511776,47.1072812],[-123.3467831,47.1091367],[-123.3428442,47.1114479],[-123.3329567,47.1135881],[-123.3303444,47.1197811],[-123.3209286,47.1309831],[-123.3134497,47.1341367],[-123.3095109,47.1364479],[-123.3030332,47.1383033],[-123.3011778,47.144781],[-123.2975727,47.150917],[-123.3012022,47.1570937],[-123.3007627,47.1606381],[-123.2884215,47.1633073],[-123.289162,47.1692642],[-123.2664405,47.1937354],[-123.2530331,47.1966366],[-123.2482643,47.2025896],[-123.2426164,47.20497],[-123.2386776,47.2072812],[-123.226764,47.2098608],[-123.2345356,47.2195814],[-123.2341978,47.2223283],[-123.2259498,47.2258033],[-123.222011,47.2281145],[-123.2134498,47.22997],[-123.2053443,47.2364478],[-123.1981872,47.2394628],[-123.2011778,47.2445529],[-123.2034117,47.2498467],[-123.2027037,47.2555191],[-123.1887592,47.2906956],[-123.1865945,47.3031143],[-123.1842833,47.3091364],[-123.1833555,47.3123756],[-123.1780695,47.3114112],[-123.1740575,47.3091732],[-123.1534481,47.3072445],[-123.1421202,47.3161189],[-123.1368955,47.3278174],[-123.1115211,47.3324479],[-123.1011411,47.3405778],[-123.0941099,47.3449804],[-123.0916889,47.347792],[-123.0929914,47.3563564],[-123.0824188,47.3556503],[-123.0805048,47.3524963],[-123.0751449,47.3528973],[-123.0728171,47.3519011],[-123.0720978,47.3515932],[-123.0704339,47.3496613],[-123.0688543,47.3496403],[-123.058312,47.3495003],[-123.047141,47.3495003],[-123.042799,47.3502743],[-123.042625,47.3503053],[-123.040281,47.349965],[-123.039298,47.3498223],[-123.0373535,47.3503673],[-123.0358857,47.3507787],[-123.032405,47.3517543],[-123.030266,47.3509493],[-123.0216807,47.3538581],[-123.0202841,47.3543313],[-123.0171942,47.3562633],[-123.0155058,47.3574307],[-123.0063718,47.3637466],[-123.0057852,47.3641523],[-123.0005561,47.3668893],[-122.9965579,47.3689006],[-122.9945818,47.3698948],[-122.9941161,47.370129],[-122.9938582,47.3702588],[-122.9925831,47.3709002],[-122.9922372,47.3710742],[-122.9886721,47.3744543],[-122.9840593,47.3746105],[-122.9839191,47.3746153],[-122.9833103,47.3748281],[-122.9794643,47.3761726],[-122.9783515,47.3765616],[-122.9779546,47.3767003],[-122.9774904,47.3768626],[-122.9773674,47.3769056],[-122.9765503,47.3771912],[-122.9765353,47.3772591],[-122.9760573,47.3794222],[-122.97338,47.3804763],[-122.9698949,47.3789613],[-122.9594381,47.3796053],[-122.9579658,47.3801369],[-122.9573612,47.3803552],[-122.948742,47.3834673],[-122.945177,47.3828243],[-122.9392617,47.3832685],[-122.9387591,47.3833063],[-122.9369062,47.3842346],[-122.9268751,47.3892603],[-122.919507,47.3899043],[-122.9114308,47.3890998],[-122.9114261,47.3890993],[-122.9114164,47.389108],[-122.9029983,47.3966402],[-122.8907482,47.4076013],[-122.8826671,47.4106573],[-122.8779131,47.4109793],[-122.8745862,47.4138742],[-122.8724472,47.4177342],[-122.8676936,47.4220759],[-122.872447,47.4235237],[-122.8732442,47.4232924],[-122.877438,47.4220757],[-122.8810546,47.4230548],[-122.8821921,47.4233627],[-122.886851,47.4238475],[-122.888371,47.4240057],[-122.8945509,47.4212717],[-122.9012059,47.4215937],[-122.9035826,47.4198249],[-122.9016806,47.4164479],[-122.9042959,47.4143567],[-122.9075515,47.4137397],[-122.909356,47.4133977],[-122.91309,47.4145177],[-122.9166549,47.4137127],[-122.9249739,47.4106567],[-122.9321039,47.4082447],[-122.9359068,47.4055097],[-122.9411359,47.4030967],[-122.943993,47.4026267],[-122.945652,47.4027747],[-122.9556437,47.4011046],[-122.9557269,47.4010907],[-122.9562529,47.4006313],[-122.9572979,47.3997187],[-122.9625269,47.3997187],[-122.9653799,47.3961787],[-122.96942,47.3963397],[-122.972272,47.3969837],[-122.9764366,47.3963267],[-122.9774949,47.3961597],[-122.9829677,47.3929608],[-122.9834427,47.3899039],[-122.9848689,47.3881337],[-122.988434,47.3886167],[-122.9922369,47.3868467],[-123.0045969,47.3829837],[-123.0131528,47.3786388],[-123.0160047,47.3754199],[-123.0164807,47.3725228],[-123.0193328,47.3699468],[-123.0217846,47.3645112],[-123.0219467,47.3641518],[-123.0236235,47.3621076],[-123.0242338,47.3613634],[-123.0243238,47.3612538],[-123.0295529,47.3588387],[-123.0339239,47.3587828],[-123.0421501,47.3586777],[-123.0473791,47.3615757],[-123.0516572,47.3639908],[-123.0531808,47.3653043],[-123.0568861,47.3684987],[-123.069483,47.3715567],[-123.071385,47.3710737],[-123.0739991,47.3726837],[-123.0785251,47.3729187],[-123.0816051,47.3747757],[-123.0856449,47.3747707],[-123.090874,47.3713957],[-123.0940796,47.373056],[-123.0926045,47.3977919],[-123.0941792,47.4241835],[-123.0908584,47.4334455],[-123.0892502,47.4343492],[-123.0857003,47.4390531],[-123.0855963,47.4412741],[-123.0824102,47.4440892],[-123.0813552,47.4459972],[-123.0771362,47.4477732],[-123.0749262,47.4516942],[-123.0694591,47.4534623],[-123.0670834,47.4552301],[-123.0685093,47.458284],[-123.0589372,47.4707762],[-123.0553232,47.4727093],[-123.0454542,47.4807772],[-123.0385612,47.4883262],[-123.0338073,47.4941081],[-123.0311933,47.502137],[-123.0316143,47.5113731],[-123.0237189,47.5203068],[-123.0176452,47.5271792],[-123.0141252,47.5286963],[-123.0115252,47.5312703],[-123.0083762,47.5321543],[-122.9964922,47.5443492],[-122.9891242,47.5525312],[-122.9838951,47.5586263],[-122.980092,47.5581453],[-122.9753383,47.5595892],[-122.9755763,47.562476],[-122.9765273,47.5663251],[-122.9712983,47.5711362],[-122.9693963,47.5778701],[-122.9651182,47.5852453],[-122.949193,47.5866883],[-122.9439651,47.5878103],[-122.9365961,47.5900543],[-122.9318432,47.5942222],[-122.9287531,47.5966263],[-122.9228112,47.5979083],[-122.9216233,47.6023961],[-122.9178272,47.6072072],[-122.9159184,47.609286],[-122.9190083,47.6136129],[-122.9196673,47.6176681],[-122.9171032,47.6207433],[-122.9093561,47.6230463],[-122.8961911,47.6254683],[-122.8916481,47.6283103],[-122.8748,47.6333173],[-122.869341,47.6331812],[-122.8683821,47.6331573],[-122.8647622,47.6346673],[-122.8633912,47.6352393],[-122.8595883,47.6387622],[-122.8569743,47.6448481],[-122.8553102,47.6475702],[-122.8408121,47.6525333],[-122.831148,47.6552673],[-122.8281948,47.6550563],[-122.8272636,47.6531739],[-122.8298778,47.6510918],[-122.8327298,47.6478898],[-122.8378707,47.639832],[-122.8364448,47.6372693],[-122.8334021,47.6378163],[-122.8289941,47.6411233],[-122.8234831,47.6423043],[-122.8080521,47.6504123],[-122.7971091,47.6545063],[-122.788292,47.6569473],[-122.7859945,47.6561172],[-122.785661,47.6559967],[-122.785458,47.6559233],[-122.7815155,47.6577234],[-122.7782152,47.6592303],[-122.7763251,47.6610413],[-122.7715231,47.6608833],[-122.7612891,47.6653703],[-122.7578251,47.6652923],[-122.7568208,47.6657648],[-122.7524712,47.6678112],[-122.7496194,47.6735148],[-122.7449923,47.682769],[-122.7464093,47.689067],[-122.7453073,47.69198],[-122.7464533,47.7011829],[-122.7490673,47.708541],[-122.7483393,47.7179311],[-122.7461598,47.7214138],[-122.7383863,47.7338351],[-122.7385233,47.7365902],[-122.7354886,47.7371602],[-122.7330122,47.7376253],[-122.7260122,47.7462722],[-122.7226863,47.7488272],[-122.7226695,47.7488958],[-122.7216552,47.7530393],[-122.7197123,47.7609761],[-122.7147862,47.7675123],[-122.7074622,47.7693433],[-122.704811,47.7719181],[-122.7017691,47.7748723],[-122.6931431,47.7760563],[-122.6895753,47.7790612],[-122.6851395,47.7948271],[-122.6848529,47.7958459],[-122.6840853,47.7985741],[-122.6820152,47.8008822],[-122.6785724,47.8025935],[-122.6785723,47.8025934],[-122.6801895,47.7946259],[-122.6835218,47.7915417],[-122.6801895,47.7884576],[-122.6781875,47.7758762],[-122.6719375,47.7729262],[-122.6739395,47.7654592],[-122.6781875,47.7634572],[-122.6801895,47.7487926],[-122.6823542,47.7467906],[-122.6843562,47.7362926],[-122.6865209,47.7342906],[-122.6885229,47.7321258],[-122.6906875,47.730124],[-122.6926895,47.7175426],[-122.6948542,47.7155406],[-122.6968561,47.7050426],[-122.6990209,47.7030406],[-122.7010228,47.6967092],[-122.7052709,47.6947072],[-122.7072728,47.6904592],[-122.7114394,47.6865978],[-122.7094376,47.6821263],[-122.6710913,47.6732112],[-122.6668066,47.6685887],[-122.6347428,47.6534561],[-122.6323543,47.6508763],[-122.6301896,47.6488744],[-122.6281876,47.6467096],[-122.6260229,47.6447077],[-122.6234391,47.6392308],[-122.6097348,47.6359675],[-122.5927282,47.6279422],[-122.593659,47.6235938],[-122.5941377,47.6213571],[-122.5965658,47.6100133],[-122.5966809,47.6094753],[-122.5981487,47.602618],[-122.5977617,47.6011662],[-122.5933628,47.5981912],[-122.5924943,47.5962997],[-122.5917097,47.594591],[-122.5967917,47.5878019],[-122.5963167,47.58572],[-122.6008732,47.5774222],[-122.6019165,47.5755222],[-122.6025598,47.5743508],[-122.6029652,47.5739286],[-122.6067808,47.5699551],[-122.6074898,47.5692168],[-122.6103519,47.5675477],[-122.6138571,47.5674357],[-122.6174141,47.5707807],[-122.6213049,47.5713407],[-122.6213541,47.571265],[-122.622598,47.5693542],[-122.6230597,47.5686449],[-122.6237427,47.5639539],[-122.6256909,47.56172],[-122.6263689,47.5609427],[-122.6363739,47.5598947],[-122.6424389,47.5565107],[-122.6523549,47.5557937],[-122.6552286,47.5544649],[-122.6570617,47.5536172],[-122.6680491,47.5485364],[-122.6722848,47.5465778],[-122.6759737,47.5419419],[-122.6759687,47.541851],[-122.6757877,47.5385308],[-122.6900619,47.5313807],[-122.6937292,47.5305875],[-122.6941629,47.5304937],[-122.6981897,47.5283338],[-122.6984497,47.5266902],[-122.696387,47.5262533],[-122.6893783,47.5264106],[-122.688946,47.5264203],[-122.684106,47.5270874],[-122.6840561,47.5270943],[-122.6836336,47.5272123],[-122.6742553,47.5298321],[-122.6701149,47.5309887],[-122.6672922,47.5317773],[-122.6630922,47.5385332],[-122.661052,47.5393743],[-122.6564006,47.5385098],[-122.6475311,47.5368613],[-122.6401691,47.5411197],[-122.6379431,47.5424073],[-122.6274133,47.5432605],[-122.6247622,47.5434753],[-122.6223132,47.5472533],[-122.62,47.5479543],[-122.6165378,47.5474718],[-122.6156374,47.5473463],[-122.6125847,47.5469208],[-122.607968,47.5462773],[-122.6063002,47.5468803],[-122.6050905,47.5483939],[-122.5951982,47.5607723],[-122.5931122,47.5614243],[-122.5898712,47.5658442],[-122.5819132,47.5711652],[-122.5807872,47.5735483],[-122.5763252,47.5746233],[-122.5739614,47.5774235],[-122.5694373,47.5827831],[-122.5696893,47.5836751],[-122.568292,47.5845983],[-122.567281,47.5842463],[-122.555527,47.5897171],[-122.554985,47.5899693],[-122.5503628,47.5890843],[-122.5484967,47.5867161],[-122.5500084,47.5790293],[-122.5500877,47.5786261],[-122.5493089,47.5780633],[-122.5489595,47.5780594],[-122.5453049,47.5780183],[-122.5449089,47.5775802],[-122.5444196,47.577039],[-122.5445059,47.576931],[-122.5455498,47.5756238],[-122.5481866,47.5740917],[-122.5514618,47.5721888],[-122.5526044,47.5700367],[-122.5526966,47.5698632],[-122.547803,47.5680673],[-122.5470467,47.5681139],[-122.5470422,47.5681141],[-122.543385,47.5683393],[-122.5356794,47.5662851],[-122.5330607,47.565587],[-122.5328177,47.5655222],[-122.5330827,47.5641717],[-122.5383518,47.5630577],[-122.5384924,47.5628718],[-122.5409566,47.5596139],[-122.5418543,47.5584269],[-122.5438406,47.5558008],[-122.5439766,47.555621],[-122.5437901,47.555274],[-122.5403857,47.5489411],[-122.5396687,47.543844],[-122.5403306,47.5423644],[-122.5423547,47.5378399],[-122.5473784,47.528681],[-122.5478627,47.5277979],[-122.5474916,47.5251516],[-122.5473151,47.5238927],[-122.5472687,47.5235622],[-122.5456998,47.5231064],[-122.5449799,47.5228973],[-122.5429821,47.5227685],[-122.52916,47.5218773],[-122.5254541,47.5234003],[-122.5211039,47.5233183],[-122.5196637,47.5219072],[-122.5178258,47.5172393],[-122.5175778,47.5172255],[-122.5173593,47.5172133],[-122.5170058,47.5171936],[-122.5168521,47.517185],[-122.5160132,47.5171383],[-122.5154102,47.5185693],[-122.5033238,47.5180403],[-122.5009588,47.5148712],[-122.4969694,47.5121492],[-122.4953145,47.51102],[-122.5040307,47.5038068],[-122.5042586,47.5012425],[-122.5043483,47.5002332],[-122.5043967,47.4996879],[-122.5111498,47.4921808],[-122.5147148,47.4899318],[-122.5159028,47.4873628],[-122.5185864,47.4858507],[-122.5187547,47.4857558],[-122.5187547,47.4812589],[-122.5208948,47.4775638],[-122.5230338,47.4753148],[-122.5287378,47.4722628],[-122.5316293,47.4697865],[-122.5323027,47.4692099],[-122.5320598,47.4680739],[-122.5308792,47.4625519],[-122.5307557,47.4619741],[-122.5299372,47.4561164],[-122.5299257,47.4560339],[-122.5314014,47.4548824],[-122.5330158,47.4536228],[-122.5339227,47.4521179],[-122.5352263,47.4499549],[-122.5352334,47.4499432],[-122.5356307,47.4492839],[-122.5334917,47.439157],[-122.5340357,47.4381448],[-122.5353927,47.43562],[-122.5318377,47.4303071],[-122.531839,47.4302679],[-122.531862,47.4296018],[-122.5318887,47.4288269],[-122.5353928,47.4242038],[-122.5397589,47.4206587],[-122.5401467,47.4203439],[-122.5398707,47.4179209],[-122.5445408,47.4115388],[-122.5462494,47.4108513],[-122.5470387,47.4105338],[-122.5470574,47.4103192],[-122.5472767,47.4077988],[-122.5502346,47.4067209],[-122.5503667,47.4066728],[-122.5504098,47.4063997],[-122.5508767,47.4034356],[-122.5512815,47.4008664],[-122.5519348,47.3967197],[-122.5522677,47.394607],[-122.552152,47.3939995],[-122.551524,47.3907021],[-122.5514722,47.3904301],[-122.5513177,47.3896191],[-122.5499404,47.3877051],[-122.5468018,47.3833432],[-122.5467683,47.3833247],[-122.5415638,47.3804492],[-122.5408605,47.37942],[-122.5398395,47.3779258],[-122.5386035,47.3761169],[-122.5384826,47.37594],[-122.5387357,47.3755777],[-122.5389792,47.375229],[-122.5418812,47.3710735],[-122.543285,47.3690635],[-122.5439818,47.3680658],[-122.5475238,47.3661746],[-122.5482278,47.3657988],[-122.5513975,47.3598013],[-122.5515357,47.3595399],[-122.5521543,47.3578123],[-122.5530697,47.3552556],[-122.5537748,47.3532862],[-122.5546308,47.3508955],[-122.5558397,47.3475188],[-122.5584053,47.3447403],[-122.5605583,47.3424085],[-122.5619842,47.3408642],[-122.5679547,47.3343978],[-122.5711815,47.3275545],[-122.5713398,47.3272187],[-122.5715542,47.3271819],[-122.5738953,47.3267791],[-122.5750973,47.3265724],[-122.5752025,47.3265543],[-122.5759846,47.3264198],[-122.5759549,47.3263139],[-122.5758233,47.3258451],[-122.574981,47.3228444],[-122.5746963,47.3218302],[-122.5737387,47.3184191],[-122.573445,47.3180902],[-122.5719862,47.3164563],[-122.5717968,47.3162442],[-122.5712388,47.3156192],[-122.5706178,47.3144778],[-122.5675241,47.3087912],[-122.5662908,47.3065242],[-122.5602152,47.301115],[-122.5595887,47.3005572],[-122.5556048,47.2970102],[-122.553346,47.2943208],[-122.5501337,47.2904962],[-122.548795,47.2878565],[-122.5475207,47.285344],[-122.5506048,47.2800858],[-122.5534884,47.2770278],[-122.5553536,47.2750497],[-122.5567206,47.2736],[-122.5579118,47.2723368],[-122.5588531,47.2714863],[-122.5593531,47.2710346],[-122.5631451,47.2676086],[-122.5655778,47.2654108],[-122.5719781,47.2605754],[-122.5769659,47.2568071],[-122.577231,47.2566068],[-122.5781749,47.2558937],[-122.5812006,47.2550862],[-122.5833644,47.2545087],[-122.585826,47.2538517],[-122.5868991,47.2543394],[-122.5879401,47.2548126],[-122.5902042,47.2558417],[-122.5910602,47.2562307],[-122.5913824,47.2565008],[-122.5957918,47.2601967],[-122.595964,47.2603411],[-122.5962392,47.2605717],[-122.5965306,47.260711],[-122.5967522,47.2608169],[-122.6001024,47.2624178],[-122.5988543,47.2668622],[-122.5943382,47.2689592],[-122.5924365,47.2720227],[-122.60028,47.2720227],[-122.6007278,47.2719518],[-122.6053052,47.271227],[-122.6074099,47.2708937],[-122.614303,47.2696037],[-122.6190561,47.2707327],[-122.6204731,47.2715174],[-122.6206453,47.2716128],[-122.6223069,47.272533],[-122.6224275,47.2725998],[-122.6227942,47.2728029],[-122.6307031,47.2771827],[-122.6316725,47.2772508],[-122.6327601,47.2773272],[-122.637595,47.2776667],[-122.6420542,47.2785876],[-122.6483061,47.2798787],[-122.6485291,47.2799247],[-122.6528194,47.2819038],[-122.6544711,47.2826657],[-122.6546915,47.2826527],[-122.6599371,47.2823427],[-122.6635621,47.2840187],[-122.66358,47.2840238],[-122.6650129,47.2844276],[-122.671346,47.2862127],[-122.6784758,47.2858897],[-122.6794136,47.283028],[-122.6794267,47.2829879],[-122.6808931,47.2800902],[-122.6808938,47.2800887],[-122.6809027,47.2800877],[-122.6863026,47.2794428],[-122.68632,47.2794407],[-122.6863357,47.2794422],[-122.6924261,47.2800257],[-122.694678,47.2809196],[-122.6958272,47.2813758],[-122.6973783,47.283969],[-122.6969723,47.284899],[-122.6954083,47.2884811],[-122.6951334,47.2891107],[-122.6912192,47.2980762],[-122.6895371,47.2985799],[-122.6867442,47.2994163],[-122.6866566,47.2995435],[-122.6842814,47.3029938],[-122.6841814,47.3031389],[-122.6898801,47.3071995],[-122.6902134,47.3074369],[-122.6900874,47.3078497],[-122.6894743,47.3098593],[-122.6894103,47.3100692],[-122.6890458,47.3103506],[-122.6874031,47.3116188],[-122.6842382,47.3140622],[-122.6806183,47.3183962],[-122.6797656,47.3201473],[-122.6785057,47.322735],[-122.6782393,47.323282],[-122.6794963,47.327833],[-122.6780012,47.3314982],[-122.6751491,47.3329483],[-122.669682,47.3324653],[-122.666117,47.3335923],[-122.6650706,47.332914],[-122.6633422,47.3317936],[-122.6606501,47.3300484],[-122.6605821,47.3301457],[-122.6597114,47.3313917],[-122.6585114,47.333109],[-122.6616012,47.3371357],[-122.6644607,47.3376199],[-122.6663551,47.3379407],[-122.6669875,47.3383693],[-122.6713463,47.3413238],[-122.6713394,47.3415128],[-122.6712676,47.3434653],[-122.6712563,47.3437742],[-122.6670682,47.3455113],[-122.6599371,47.3525973],[-122.6566101,47.3527583],[-122.6537492,47.3551602],[-122.6532122,47.3555094],[-122.6510995,47.3568831],[-122.6485291,47.3585543],[-122.6417351,47.3605033],[-122.6380712,47.3625792],[-122.6366949,47.3661532],[-122.6366453,47.3662822],[-122.6359686,47.3669846],[-122.6330792,47.3699842],[-122.6290392,47.3722382],[-122.628382,47.3730171],[-122.6261873,47.3756181],[-122.6273753,47.3796419],[-122.6278502,47.3823776],[-122.6285083,47.3822538],[-122.6294082,47.3820845],[-122.6364069,47.3807677],[-122.6448014,47.3769915],[-122.6499162,47.3746906],[-122.6501739,47.3745747],[-122.6592239,47.3719157],[-122.6658789,47.3712717],[-122.6682882,47.3691292],[-122.6689758,47.3685177],[-122.6715116,47.3677274],[-122.6718887,47.3676098],[-122.6725339,47.3674087],[-122.6767128,47.3665831],[-122.6772434,47.3664783],[-122.6822748,47.3654843],[-122.6839428,47.3651547],[-122.6852845,47.3634071],[-122.6853615,47.3633068],[-122.6868583,47.3613571],[-122.6870328,47.3611298],[-122.6875575,47.360626],[-122.6894677,47.3587918],[-122.6921848,47.3561828],[-122.6946358,47.3541157],[-122.7028418,47.351089],[-122.7039398,47.350684],[-122.7066978,47.3496667],[-122.7074667,47.3487175],[-122.708345,47.3476332],[-122.7100786,47.3454928],[-122.7110158,47.3443357],[-122.7113894,47.3442333],[-122.7178058,47.3424732],[-122.7186045,47.3422541],[-122.7191709,47.3420987],[-122.7198684,47.3416861],[-122.7222725,47.3402638],[-122.7254338,47.3383935],[-122.7255569,47.3383207],[-122.7256807,47.3383318],[-122.7281767,47.3385559],[-122.7296228,47.3386857],[-122.7305277,47.3369749],[-122.7305015,47.3366358],[-122.7302888,47.3338866],[-122.7302447,47.3333171],[-122.7284447,47.3317172],[-122.7280447,47.328817],[-122.7332757,47.3178408],[-122.736728,47.3141461],[-122.7424887,47.3079808],[-122.7439106,47.3049507],[-122.7481107,47.2959998],[-122.7516278,47.2911862],[-122.7520437,47.2906169],[-122.7523437,47.2808169],[-122.7540766,47.2794019],[-122.7573857,47.2766999],[-122.7573857,47.2739582],[-122.7568433,47.2737558],[-122.7564453,47.2736073],[-122.752632,47.2721843],[-122.7510993,47.2728815],[-122.749066,47.2738063],[-122.7464916,47.2725011],[-122.7477368,47.2705097],[-122.7480047,47.2700813],[-122.7500177,47.2668619],[-122.7500177,47.262991],[-122.7495603,47.2597364],[-122.7495417,47.2596044],[-122.7459772,47.2604103],[-122.7457196,47.2607162],[-122.7412241,47.2660563],[-122.7350435,47.2658943],[-122.7362418,47.2639291],[-122.736271,47.2638813],[-122.7378957,47.2612169],[-122.7378957,47.2554101],[-122.7338558,47.2500863],[-122.7248241,47.2487953],[-122.7221991,47.2509336],[-122.7212591,47.2516993],[-122.7184058,47.2515383],[-122.71815,47.2509014],[-122.7179796,47.2504773],[-122.7169796,47.2479879],[-122.7222087,47.2445998],[-122.7227535,47.2390518],[-122.7229217,47.2373388],[-122.7245959,47.2360599],[-122.7247513,47.2359412],[-122.7248236,47.2358859],[-122.7247895,47.2358047],[-122.7247577,47.2357292],[-122.7232368,47.2321147],[-122.7219718,47.2291082],[-122.7196491,47.2271666],[-122.7188817,47.2265251],[-122.719778,47.2212011],[-122.7198327,47.2208758],[-122.7200509,47.2207276],[-122.7279138,47.2153867],[-122.736457,47.2106521],[-122.7367956,47.2104645],[-122.7369447,47.2103818],[-122.7370168,47.2100269],[-122.7370279,47.2099725],[-122.7373837,47.2082208],[-122.7409859,47.2061837],[-122.7438976,47.2063815],[-122.7440992,47.2063952],[-122.7457402,47.2065067],[-122.7481163,47.2108659],[-122.748308,47.2144426],[-122.7483125,47.2145263],[-122.7485166,47.2183331],[-122.7485923,47.2197451],[-122.7491909,47.2188447],[-122.749517,47.2183542],[-122.750705,47.2165672],[-122.7539325,47.2117126],[-122.7544382,47.2109521],[-122.7552466,47.2097361],[-122.7532245,47.2085918],[-122.7530088,47.2084697],[-122.7523947,47.2081222],[-122.7503181,47.2010686],[-122.7497798,47.1992403],[-122.74574,47.1992403],[-122.7450967,47.1993595],[-122.7428216,47.1997811],[-122.740511,47.2002093],[-122.7404611,47.2001851],[-122.7403861,47.2001488],[-122.7397979,47.1998634],[-122.7384925,47.1992301],[-122.7443138,47.1926188],[-122.7471657,47.1892269],[-122.7462147,47.1855119],[-122.7478787,47.1834119],[-122.7474027,47.1809892],[-122.7440754,47.1785649],[-122.7512058,47.1754958],[-122.7521162,47.172547],[-122.7521567,47.1724158],[-122.7564349,47.1696787],[-122.7638029,47.1661237],[-122.7688297,47.1667572],[-122.7716192,47.1671087],[-122.7744283,47.1715607],[-122.7749743,47.1724259],[-122.7751829,47.1741698],[-122.7754763,47.1766219],[-122.7762683,47.1785753],[-122.7764104,47.1789259],[-122.7778523,47.1824819],[-122.7782304,47.1834144],[-122.7789829,47.1852701],[-122.7790152,47.1853497],[-122.7842441,47.1851887],[-122.7896485,47.1875844],[-122.7897102,47.1876118],[-122.7897168,47.1876218],[-122.7923445,47.1915971],[-122.7962177,47.1974569],[-122.7975132,47.1994168],[-122.8002035,47.2027722],[-122.8037755,47.2072271],[-122.8045218,47.2081579],[-122.8064693,47.2105869],[-122.806797,47.2126068],[-122.8075363,47.217163],[-122.8075118,47.217681],[-122.8074957,47.2180199],[-122.8073755,47.2205578],[-122.8072993,47.2221669],[-122.8087696,47.2237362],[-122.8103152,47.2253858],[-122.8106262,47.2257177],[-122.8187071,47.2278167],[-122.8239362,47.2310448],[-122.8277392,47.2387908],[-122.8327994,47.243412],[-122.8308847,47.2456198],[-122.8308384,47.2456732],[-122.8286903,47.2481501],[-122.8282323,47.2517451],[-122.8250041,47.2576338],[-122.8248762,47.257867],[-122.8227975,47.2616589],[-122.821884,47.2633253],[-122.8187073,47.2691201],[-122.8154034,47.2749103],[-122.8152802,47.2751263],[-122.8151799,47.2751532],[-122.8146895,47.275285],[-122.811807,47.2760597],[-122.8114032,47.2761683],[-122.8033712,47.2839492],[-122.8003674,47.2857506],[-122.796123,47.2882959],[-122.7955872,47.2886172],[-122.794963,47.2894299],[-122.7893692,47.2967132],[-122.7880828,47.2983639],[-122.7879535,47.2985297],[-122.7870593,47.2996771],[-122.7870861,47.2997909],[-122.7871389,47.3000162],[-122.7872275,47.3003933],[-122.7873159,47.3007701],[-122.7884427,47.3055698],[-122.7884963,47.3057978],[-122.788806,47.3059153],[-122.7907674,47.3066597],[-122.7910396,47.306763],[-122.7933054,47.3076228],[-122.7925633,47.310391],[-122.7927062,47.3109256],[-122.7927099,47.3109395],[-122.7949313,47.31925],[-122.794076,47.3220366],[-122.791693,47.3298005],[-122.7890482,47.3384173],[-122.7888832,47.3384229],[-122.7802479,47.3387173],[-122.7796892,47.338457],[-122.7792293,47.3382428],[-122.77858,47.3379403],[-122.7700405,47.3390882],[-122.7700399,47.3390886],[-122.7693276,47.3401437],[-122.7690635,47.3405349],[-122.7700302,47.340952],[-122.7707941,47.3412817],[-122.776921,47.3415708],[-122.7793383,47.3416848],[-122.780099,47.3417207],[-122.7953422,47.3461617],[-122.7961322,47.3469858],[-122.7968103,47.348268],[-122.7953032,47.3506002],[-122.7946321,47.3510013],[-122.7944175,47.3510529],[-122.7921728,47.3515924],[-122.7913122,47.3517993],[-122.7906703,47.352912],[-122.7913123,47.3556452],[-122.7862075,47.3579671],[-122.7880632,47.3603118],[-122.7883488,47.3606239],[-122.78908,47.3614232],[-122.7891701,47.3615216],[-122.7907409,47.3609167],[-122.7907677,47.3609147],[-122.793633,47.3606987],[-122.795525,47.3608437],[-122.7973809,47.3606747],[-122.8004159,47.3585947],[-122.801056,47.3586108],[-122.804272,47.3586917],[-122.8059139,47.3584987],[-122.806699,47.3578456],[-122.8073423,47.3586919],[-122.8068733,47.360829],[-122.8067073,47.3631939],[-122.8087022,47.3660658],[-122.8102821,47.3673047],[-122.8122772,47.3675297],[-122.8132053,47.3686529],[-122.8131564,47.3691712],[-122.8131274,47.3694777],[-122.8131093,47.3696699],[-122.8151324,47.3717008],[-122.8151843,47.3717529],[-122.8151923,47.3718051],[-122.8152689,47.3723071],[-122.8152703,47.3723159],[-122.8159186,47.3750003],[-122.8160183,47.3754129],[-122.8168715,47.3773861],[-122.8170163,47.3777209],[-122.8170993,47.3801981],[-122.8161852,47.3821122],[-122.8138573,47.3837452],[-122.8133354,47.3857991],[-122.8133143,47.385882],[-122.8133123,47.3859817],[-122.8132753,47.387854],[-122.8128485,47.3901659],[-122.8128272,47.3902811],[-122.8126103,47.391456],[-122.8132273,47.3930309],[-122.8131923,47.3950019],[-122.8140232,47.3961278],[-122.8142121,47.3962856],[-122.8152509,47.3971532],[-122.8154373,47.3973089],[-122.8151061,47.3987652],[-122.8151043,47.3987729],[-122.8151161,47.3987923],[-122.8166842,47.4013608],[-122.8172466,47.4017416],[-122.8181802,47.4023738],[-122.8189283,47.403612],[-122.8185964,47.4045119],[-122.8188768,47.4047309],[-122.8196771,47.4053557],[-122.8201386,47.4053948],[-122.821672,47.4055247],[-122.8227539,47.4050675],[-122.8230019,47.4049627],[-122.8235533,47.4046302],[-122.82375,47.4045117],[-122.8244992,47.4047368],[-122.8247482,47.4054687],[-122.82666,47.4058067],[-122.8284058,47.4051878],[-122.8287387,47.404344],[-122.8280737,47.4023742],[-122.8259118,47.3998982],[-122.8243318,47.3988852],[-122.8233347,47.396747],[-122.823357,47.3965929],[-122.8233749,47.3964689],[-122.8234174,47.3961745],[-122.8240827,47.3915689],[-122.8255787,47.3887539],[-122.8256932,47.387211],[-122.8257457,47.3865029],[-122.8279131,47.3826206],[-122.8283228,47.3818868],[-122.8285539,47.3816032],[-122.8286474,47.3814885],[-122.8289836,47.3810759],[-122.8309838,47.3786218],[-122.8313776,47.3781579],[-122.8322532,47.3771267],[-122.8328955,47.3763701],[-122.8323952,47.3761808],[-122.8304672,47.375451],[-122.8300689,47.3753003],[-122.8292061,47.3746836],[-122.8285717,47.3742302],[-122.8285129,47.3739669],[-122.8284975,47.3738983],[-122.8283661,47.3733108],[-122.8281947,47.372544],[-122.8286557,47.3696702],[-122.8285701,47.3696434],[-122.8276021,47.3693408],[-122.827575,47.3693323],[-122.8270075,47.3695583],[-122.826161,47.3698953],[-122.8255561,47.3698229],[-122.824925,47.3697475],[-122.8247477,47.3697263],[-122.8247792,47.3694915],[-122.8248136,47.3692354],[-122.8248511,47.3689565],[-122.8249315,47.3683577],[-122.8251637,47.366629],[-122.8246961,47.3635685],[-122.8246647,47.363363],[-122.8247999,47.3627738],[-122.8253617,47.3603249],[-122.8254275,47.3601985],[-122.8267876,47.357588],[-122.8266189,47.3573958],[-122.8246327,47.3551321],[-122.8252367,47.353398],[-122.8215587,47.3467991],[-122.821622,47.3457075],[-122.8216756,47.3447821],[-122.8217417,47.3436429],[-122.8218838,47.343392],[-122.8243572,47.3390232],[-122.8243648,47.3390098],[-122.8244419,47.3389442],[-122.8255097,47.3380349],[-122.825968,47.3376446],[-122.8290313,47.3350361],[-122.8294026,47.3347199],[-122.8284518,47.3319822],[-122.8220614,47.3296741],[-122.8208768,47.3292463],[-122.8197807,47.327801],[-122.8219458,47.3226946],[-122.8227633,47.3207664],[-122.8228026,47.3206738],[-122.8229998,47.3202088],[-122.8231989,47.3200701],[-122.825478,47.3184825],[-122.8255282,47.3184476],[-122.8271068,47.317348],[-122.831542,47.3142587],[-122.8330928,47.3149024],[-122.8338235,47.3152057],[-122.8346283,47.3155398],[-122.8342273,47.3173082],[-122.8334784,47.3179147],[-122.8328412,47.3184307],[-122.8308293,47.3200601],[-122.8309803,47.3235108],[-122.833357,47.3243167],[-122.8377218,47.3232817],[-122.8396227,47.3210259],[-122.8400977,47.3178039],[-122.8429508,47.3131308],[-122.8474669,47.3105527],[-122.8543585,47.3095858],[-122.8525867,47.3067619],[-122.8496058,47.3020112],[-122.8462776,47.3000771],[-122.8474668,47.2970138],[-122.8510319,47.2947567],[-122.8550718,47.2936288],[-122.8562607,47.2894369],[-122.8591128,47.2854068],[-122.8626779,47.2829877],[-122.8683818,47.2802468],[-122.8712833,47.2770673],[-122.8714717,47.2768609],[-122.8714168,47.2766896],[-122.8702838,47.2731523],[-122.8638658,47.2720233],[-122.8631527,47.270088],[-122.8652927,47.2655719],[-122.8660057,47.2605719],[-122.8676687,47.2565389],[-122.8683817,47.2513759],[-122.8702836,47.248634],[-122.867907,47.2460524],[-122.8636291,47.2492793],[-122.8596236,47.2504284],[-122.8596235,47.2504283],[-122.8641037,47.2434709],[-122.8648167,47.2392751],[-122.8612519,47.2365323],[-122.8573809,47.2354546],[-122.8564638,47.2351993],[-122.8559082,47.2342701],[-122.8549627,47.232689],[-122.8562607,47.2281391],[-122.8536827,47.2257442],[-122.8524578,47.2224902],[-122.8472287,47.2197462],[-122.8460397,47.2155482],[-122.8424748,47.2131272],[-122.8392427,47.2096981],[-122.8392755,47.2093253],[-122.8393396,47.2085962],[-122.8395197,47.2065489],[-122.8422378,47.2002088],[-122.8453395,47.1977997],[-122.8455647,47.1976248],[-122.8457927,47.1965362],[-122.8466957,47.1922248],[-122.8491205,47.1903639],[-122.8491297,47.1903568],[-122.8491305,47.1903449],[-122.8493088,47.1878046],[-122.8493092,47.1877983],[-122.8493677,47.1869649],[-122.8503353,47.1851804],[-122.8510317,47.1838958],[-122.851754,47.1829139],[-122.8530318,47.1811768],[-122.8561516,47.1769356],[-122.8566362,47.1762768],[-122.8572619,47.1754261],[-122.8581618,47.1742028],[-122.8631524,47.170487],[-122.8583544,47.1678399],[-122.8567814,47.166972],[-122.8526681,47.1647026],[-122.8520459,47.1643593],[-122.8490995,47.1631446],[-122.847704,47.1625693],[-122.847681,47.1625818],[-122.844139,47.1645083],[-122.8417617,47.1632152],[-122.8417617,47.1612761],[-122.8410281,47.1594798],[-122.8406061,47.1584464],[-122.8405737,47.1583671],[-122.8402589,47.1564429],[-122.8400977,47.155458],[-122.8408266,47.1535591],[-122.838613,47.1514278],[-122.8384345,47.1512559],[-122.8401913,47.1501604],[-122.8414894,47.149351],[-122.8441387,47.1476988],[-122.8439273,47.143248],[-122.8439007,47.1426881],[-122.8429937,47.14064],[-122.8438296,47.1383406],[-122.8442334,47.1372298],[-122.8444628,47.1365988],[-122.845561,47.1362707],[-122.8466017,47.1359598],[-122.8464057,47.1346981],[-122.8455201,47.1331578],[-122.8453006,47.1327759],[-122.8469383,47.1321097],[-122.8471618,47.1320188],[-122.8478026,47.1306052],[-122.8472755,47.1303791],[-122.846418,47.1300113],[-122.8460889,47.1300584],[-122.8442606,47.1303198],[-122.8429349,47.1305093],[-122.8419997,47.1294302],[-122.8418248,47.1290202],[-122.84151,47.1282825],[-122.8410347,47.1271686],[-122.8398607,47.1244171],[-122.8371853,47.1197962],[-122.8367708,47.1190802],[-122.8341538,47.1167367],[-122.8335926,47.1162342],[-122.832255,47.1150364]]],[[[-122.5188521,47.3333207],[-122.519671,47.3341001],[-122.522564,47.3368537],[-122.5233762,47.3376268],[-122.5238936,47.3384883],[-122.5281303,47.3455429],[-122.5261733,47.3580021],[-122.5260313,47.3589061],[-122.5254894,47.3608814],[-122.5248694,47.363142],[-122.5239372,47.3665402],[-122.5177993,47.3686792],[-122.5163313,47.3773239],[-122.5208472,47.3829568],[-122.5277403,47.3922899],[-122.5274269,47.3942485],[-122.5267333,47.3985821],[-122.5258339,47.3997383],[-122.5239813,47.4021201],[-122.5228126,47.4052023],[-122.5220353,47.4072522],[-122.5209626,47.4082462],[-122.5163851,47.4124878],[-122.5147023,47.4140471],[-122.5145653,47.4175422],[-122.5145057,47.419065],[-122.5144963,47.4193041],[-122.5132413,47.423336],[-122.5136613,47.4383919],[-122.5137387,47.4411691],[-122.5139244,47.4478248],[-122.5139448,47.4485564],[-122.5139543,47.4488981],[-122.5125009,47.4524549],[-122.5117209,47.4543635],[-122.5116001,47.4546593],[-122.5089746,47.4610845],[-122.5089633,47.4611122],[-122.5081213,47.4619978],[-122.5024522,47.4679612],[-122.4981297,47.475454],[-122.4978642,47.4759142],[-122.4919071,47.4787573],[-122.4835579,47.482742],[-122.4827423,47.4831312],[-122.479408,47.4946942],[-122.4787713,47.4969021],[-122.4785651,47.4982634],[-122.4784251,47.4991882],[-122.4779739,47.5021671],[-122.4779185,47.5025333],[-122.4775543,47.5049379],[-122.476922,47.5091134],[-122.4766336,47.5110173],[-122.4766243,47.5110793],[-122.4765937,47.5110755],[-122.4685589,47.5100783],[-122.4572459,47.5058483],[-122.4523996,47.5034711],[-122.4531008,47.5022568],[-122.4585748,47.4982188],[-122.4589422,47.4973417],[-122.4599804,47.4948639],[-122.4604416,47.4937631],[-122.4593255,47.4925716],[-122.4590497,47.4922771],[-122.4591063,47.491964],[-122.4592865,47.4909675],[-122.4600186,47.4869194],[-122.4600297,47.4868581],[-122.4599459,47.4867939],[-122.4525478,47.4811233],[-122.4474308,47.4782552],[-122.4471907,47.4777547],[-122.4449938,47.4731752],[-122.4445939,47.4729428],[-122.4371935,47.4686426],[-122.4347936,47.4672481],[-122.4342192,47.4669143],[-122.4333876,47.4664311],[-122.4394148,47.4586328],[-122.4399201,47.4579229],[-122.4420813,47.4548867],[-122.4430946,47.453463],[-122.4430129,47.4533582],[-122.4425456,47.4527587],[-122.4405222,47.4501634],[-122.4395357,47.4488981],[-122.4393812,47.4477474],[-122.4389674,47.4446655],[-122.4386077,47.441986],[-122.4392135,47.4399712],[-122.4398757,47.437769],[-122.4378212,47.4333275],[-122.4364037,47.4302632],[-122.4343385,47.4281596],[-122.4318809,47.4256564],[-122.4299357,47.4236751],[-122.4306538,47.4215078],[-122.4314959,47.421227],[-122.4356552,47.4198403],[-122.4357349,47.4198137],[-122.4370548,47.4189313],[-122.4380328,47.4182776],[-122.4389697,47.4176513],[-122.4399336,47.4170069],[-122.4375197,47.4126271],[-122.4375909,47.4098425],[-122.4376245,47.4085272],[-122.4376527,47.4074252],[-122.4273299,47.4021303],[-122.4247815,47.4019051],[-122.4074957,47.4003773],[-122.4068056,47.4003163],[-122.3950499,47.3992773],[-122.3904559,47.397013],[-122.3895053,47.3965445],[-122.374317,47.3890584],[-122.3736265,47.3887181],[-122.3738128,47.3884613],[-122.3749108,47.3869478],[-122.3784789,47.3853297],[-122.3822451,47.3845603],[-122.3898236,47.3830121],[-122.391025,47.3827667],[-122.3951265,47.3822393],[-122.3996591,47.3816565],[-122.4003649,47.3815657],[-122.4043839,47.3786117],[-122.4072434,47.3778267],[-122.4155872,47.3755362],[-122.4179568,47.3748857],[-122.4189827,47.373693],[-122.4212588,47.3710467],[-122.4225602,47.3707569],[-122.4278162,47.3695864],[-122.4295839,47.3691927],[-122.4330803,47.3676683],[-122.4333339,47.3675577],[-122.4359889,47.3663995],[-122.4378128,47.3656037],[-122.4387632,47.3647748],[-122.4429305,47.3611399],[-122.4447281,47.359572],[-122.4449197,47.3594049],[-122.4448365,47.3588345],[-122.4445517,47.3568798],[-122.4483948,47.3549878],[-122.4494745,47.3525084],[-122.4503035,47.3506048],[-122.4509127,47.3492059],[-122.4539948,47.3433377],[-122.457497,47.3425667],[-122.4586744,47.3427651],[-122.4663489,47.3440583],[-122.4697041,47.3446237],[-122.4756882,47.3470568],[-122.4771143,47.351083],[-122.4766791,47.3524233],[-122.4759243,47.3547482],[-122.4745003,47.3591341],[-122.4739793,47.3600604],[-122.4724044,47.3628608],[-122.4706972,47.3658962],[-122.4666733,47.3686062],[-122.4661813,47.3724961],[-122.4653648,47.3733806],[-122.4641001,47.3747507],[-122.4638041,47.3750714],[-122.4631286,47.3747512],[-122.4606576,47.3735798],[-122.456674,47.3716913],[-122.4531082,47.3724963],[-122.4448383,47.3819538],[-122.4424132,47.3847273],[-122.4381362,47.385762],[-122.4371006,47.3860125],[-122.4357581,47.3863373],[-122.4331435,47.388107],[-122.4371842,47.3906808],[-122.4390853,47.3945429],[-122.4395613,47.4041957],[-122.4426499,47.4045177],[-122.4478789,47.4021047],[-122.453958,47.4026307],[-122.4600009,47.4016217],[-122.4640418,47.3992088],[-122.4652252,47.3967049],[-122.4659427,47.395187],[-122.4655394,47.3939127],[-122.4645889,47.3909091],[-122.4645168,47.3906815],[-122.4641806,47.3908965],[-122.4602391,47.3934173],[-122.4597858,47.3935166],[-122.4583435,47.3938325],[-122.4570839,47.3941084],[-122.4521579,47.3951873],[-122.4488298,47.3924512],[-122.4473403,47.3912539],[-122.4458689,47.3900712],[-122.4457353,47.3899637],[-122.4450266,47.389394],[-122.449704,47.3847027],[-122.4499348,47.3844712],[-122.4514449,47.3829566],[-122.4564361,47.3848877],[-122.464992,47.3873017],[-122.4659521,47.3872791],[-122.4719435,47.3871379],[-122.4732689,47.3871067],[-122.4740764,47.3866475],[-122.4775947,47.3846468],[-122.4783018,47.3842447],[-122.4818853,47.3817209],[-122.4842437,47.3800598],[-122.4850327,47.376748],[-122.4851129,47.3764114],[-122.4854731,47.3748994],[-122.4860489,47.3724823],[-122.4878097,47.365091],[-122.4877526,47.3631999],[-122.4875717,47.3572019],[-122.4880929,47.3558679],[-122.4897107,47.3517269],[-122.4897695,47.3510872],[-122.4898467,47.350249],[-122.4906958,47.3410185],[-122.4908306,47.3395535],[-122.4911271,47.3363296],[-122.4912337,47.335171],[-122.4910657,47.3324279],[-122.4931259,47.3302537],[-122.5003443,47.3305152],[-122.5049131,47.3306807],[-122.5084881,47.3327227],[-122.5188521,47.3333207]]],[[[-122.4994563,47.5336948],[-122.4995579,47.5362964],[-122.4995673,47.5365359],[-122.5014775,47.5387244],[-122.5048729,47.5426144],[-122.5061953,47.5441294],[-122.5062944,47.544243],[-122.5062542,47.5443101],[-122.5058394,47.5450022],[-122.5049232,47.5465313],[-122.4954076,47.5457573],[-122.4914249,47.5454333],[-122.4853668,47.5436157],[-122.4812872,47.5423916],[-122.4808656,47.5422651],[-122.4795226,47.5418622],[-122.4798243,47.5411988],[-122.480008,47.540795],[-122.4803288,47.5400898],[-122.4842697,47.5380124],[-122.4852667,47.5374868],[-122.4852754,47.5371209],[-122.4853417,47.5343361],[-122.4841487,47.531688],[-122.484493,47.5311441],[-122.4851618,47.5300877],[-122.489149,47.5294767],[-122.4902594,47.5298078],[-122.4921833,47.5303813],[-122.4925581,47.5304931],[-122.4941945,47.5309809],[-122.4967541,47.5317441],[-122.4967731,47.5317497],[-122.4967993,47.5317687],[-122.4981897,47.5327767],[-122.4994563,47.5336948]]],[[[-122.4893983,47.5814328],[-122.4907365,47.581199],[-122.4959239,47.5802927],[-122.4985808,47.5778997],[-122.5039239,47.5753357],[-122.518367,47.5740797],[-122.5227522,47.5754227],[-122.5321662,47.5896118],[-122.5352422,47.5927891],[-122.5359289,47.5934984],[-122.5384201,47.5960717],[-122.5418622,47.596702],[-122.5445471,47.5971937],[-122.5466994,47.5990939],[-122.5462362,47.6000003],[-122.4986171,47.6000003],[-122.4983427,47.597867],[-122.4984787,47.5972298],[-122.499653,47.5969637],[-122.505854,47.5974327],[-122.5142109,47.5967957],[-122.5145306,47.5966179],[-122.5157331,47.5959491],[-122.5158546,47.5958816],[-122.5161255,47.5957309],[-122.5147399,47.5944383],[-122.5034939,47.5923533],[-122.4991909,47.5900243],[-122.4839379,47.5864183],[-122.4798706,47.5848302],[-122.4802778,47.5832677],[-122.4852549,47.5821567],[-122.4893983,47.5814328]]],[[[-122.5635229,47.603041],[-122.561521,47.6008764],[-122.5596621,47.6000003],[-122.5579097,47.6000003],[-122.558291,47.5993538],[-122.5616208,47.5937088],[-122.56764,47.5906767],[-122.5733122,47.5945828],[-122.5768473,47.6003909],[-122.5751744,47.6082735],[-122.5738282,47.6146164],[-122.5718562,47.6134577],[-122.5698543,47.6092096],[-122.5676896,47.6072077],[-122.5656876,47.605043],[-122.5635229,47.603041]]],[[[-122.6186072,47.2252388],[-122.6221842,47.2290058],[-122.6241482,47.2327231],[-122.6250973,47.2345197],[-122.6251882,47.2346918],[-122.6253842,47.2347933],[-122.6299062,47.2371368],[-122.6304121,47.2376097],[-122.6325107,47.2395714],[-122.6330032,47.2400318],[-122.6346962,47.2434058],[-122.6411132,47.2466328],[-122.6465102,47.2534819],[-122.6465802,47.2535708],[-122.6572722,47.2627138],[-122.6685712,47.2704468],[-122.6703483,47.273571],[-122.6696353,47.2764742],[-122.6670201,47.2776033],[-122.6647803,47.2775928],[-122.6638109,47.2775883],[-122.6570379,47.2751843],[-122.6506176,47.2752048],[-122.6495359,47.2752083],[-122.6491463,47.2749626],[-122.6418259,47.2703463],[-122.634458,47.2669593],[-122.6333643,47.2673031],[-122.631095,47.2680163],[-122.6304706,47.2679028],[-122.6284926,47.2675431],[-122.6281197,47.2674753],[-122.6280904,47.267277],[-122.627311,47.2620041],[-122.6270897,47.2605072],[-122.6253318,47.2598845],[-122.6224899,47.2588778],[-122.6215739,47.2585533],[-122.6208344,47.258091],[-122.6196172,47.2573301],[-122.618486,47.256623],[-122.6132043,47.2533212],[-122.6100839,47.2513706],[-122.6072998,47.2496302],[-122.6033327,47.244824],[-122.6018958,47.2430832],[-122.6009544,47.2426538],[-122.6001981,47.2423089],[-122.596899,47.2408041],[-122.5888596,47.2371372],[-122.5889781,47.236674],[-122.5897737,47.2335619],[-122.5904867,47.2277518],[-122.5950326,47.2247585],[-122.5976645,47.2230255],[-122.5983308,47.2225868],[-122.598559,47.2223112],[-122.6025389,47.2175057],[-122.6083131,47.2175827],[-122.6142362,47.2208718],[-122.6186072,47.2252388]]],[[[-122.6375747,47.1586911],[-122.6358843,47.1639592],[-122.6347719,47.1648287],[-122.6343397,47.1651665],[-122.6312518,47.1675802],[-122.6311299,47.1676755],[-122.631069,47.1675513],[-122.6308684,47.1671418],[-122.6306075,47.1666092],[-122.6301797,47.1657361],[-122.6293332,47.1625717],[-122.6292287,47.1621811],[-122.6288467,47.157941],[-122.6289035,47.1577789],[-122.628912,47.1577546],[-122.629174,47.1570069],[-122.6303877,47.1535428],[-122.6323539,47.1521106],[-122.6331151,47.1515562],[-122.6351708,47.1500588],[-122.6364338,47.1476448],[-122.6368759,47.1474237],[-122.6384849,47.1466192],[-122.6391221,47.1463006],[-122.639296,47.1466574],[-122.6402985,47.1487154],[-122.6406258,47.1493872],[-122.6406383,47.149413],[-122.6386493,47.1553421],[-122.6382457,47.1565997],[-122.6375747,47.1586911]]],[[[-122.6926901,47.1930387],[-122.693271,47.1934798],[-122.6948754,47.1946983],[-122.6967301,47.1961067],[-122.7018811,47.1978757],[-122.7045471,47.1981023],[-122.7129827,47.1988194],[-122.7152691,47.1990137],[-122.7161877,47.1993485],[-122.7220981,47.2015027],[-122.7260373,47.20391],[-122.7268683,47.2044178],[-122.7268683,47.2073942],[-122.7215529,47.2100485],[-122.7213729,47.2101384],[-122.7197272,47.2109602],[-122.7172698,47.2156733],[-122.7166952,47.2167752],[-122.7148717,47.2182273],[-122.7146544,47.2184003],[-122.7128124,47.2198671],[-122.7121966,47.2203575],[-122.7098022,47.2222642],[-122.7087915,47.2232629],[-122.7071883,47.2248472],[-122.7045732,47.2309803],[-122.702477,47.2311863],[-122.691772,47.2311863],[-122.6884048,47.2317984],[-122.685226,47.2323763],[-122.6848274,47.2322877],[-122.6798708,47.2311863],[-122.6760518,47.2261383],[-122.6755078,47.2259638],[-122.668056,47.2235742],[-122.6674947,47.2233942],[-122.6686837,47.2158072],[-122.6683406,47.2156564],[-122.6646429,47.2140313],[-122.6620293,47.2141923],[-122.6625043,47.2174211],[-122.659645,47.2192923],[-122.6493194,47.2158457],[-122.6487188,47.2156453],[-122.6484461,47.2152568],[-122.6441797,47.2091792],[-122.643255,47.2075604],[-122.6417997,47.2050131],[-122.6422937,47.2015551],[-122.6423947,47.2008478],[-122.6427907,47.2005841],[-122.6474003,47.1975142],[-122.6477509,47.1972807],[-122.6572749,47.1935227],[-122.6745305,47.1914773],[-122.6753933,47.191375],[-122.677716,47.1910997],[-122.678725,47.1912467],[-122.684231,47.1920487],[-122.687698,47.1925537],[-122.6887602,47.1926569],[-122.691831,47.1929552],[-122.6926901,47.1930387]]],[[[-122.7333332,47.1460178],[-122.7339196,47.1463512],[-122.7417462,47.1508016],[-122.7429284,47.1514739],[-122.7417372,47.1550452],[-122.7384495,47.1564566],[-122.7375791,47.1568303],[-122.7336869,47.1586592],[-122.7323821,47.1592723],[-122.7271535,47.1607272],[-122.7297683,47.1636359],[-122.7298433,47.1669431],[-122.729577,47.1673689],[-122.72451,47.1754722],[-122.7238922,47.1764602],[-122.7217236,47.1773932],[-122.718563,47.1787528],[-122.7176462,47.1791473],[-122.7108082,47.1853833],[-122.709922,47.1858165],[-122.7067131,47.1873853],[-122.7057298,47.1875306],[-122.6957789,47.1890013],[-122.692655,47.1844535],[-122.6925758,47.1843383],[-122.6863278,47.1825525],[-122.6855823,47.1823395],[-122.6816559,47.1812173],[-122.6739267,47.1746751],[-122.6740434,47.1710972],[-122.6741497,47.167837],[-122.6740194,47.1645584],[-122.6740005,47.1640821],[-122.6734367,47.1498978],[-122.6772397,47.1484428],[-122.6774777,47.1450481],[-122.6774389,47.1449877],[-122.6758766,47.1425542],[-122.6754975,47.1419638],[-122.6825399,47.1402682],[-122.6833004,47.1400851],[-122.6842491,47.1398567],[-122.6884111,47.1434317],[-122.6948287,47.1437547],[-122.6953427,47.1401749],[-122.6969677,47.1356711],[-122.6968652,47.1355427],[-122.6963029,47.1348381],[-122.6929627,47.1306531],[-122.6931226,47.1302268],[-122.6938772,47.1282159],[-122.6947478,47.1258957],[-122.6973016,47.1252216],[-122.6988277,47.1248187],[-122.702434,47.1238667],[-122.7027737,47.1240022],[-122.7048203,47.1248186],[-122.7119982,47.1276817],[-122.7126141,47.1282541],[-122.7180509,47.1333063],[-122.7221622,47.1371267],[-122.7297682,47.1406828],[-122.7333332,47.1460178]]],[[[-122.8192541,47.6851207],[-122.8298992,47.6891147],[-122.8332775,47.6924811],[-122.8292372,47.6950402],[-122.8270973,47.699999],[-122.8275843,47.7051061],[-122.8094378,47.7072077],[-122.7855487,47.7094945],[-122.7813411,47.7119682],[-122.781341,47.7119681],[-122.7822067,47.7072009],[-122.7831267,47.7036781],[-122.7790858,47.7004792],[-122.7722627,47.6948921],[-122.7722247,47.6917078],[-122.7848849,47.6873337],[-122.8011529,47.6853767],[-122.809171,47.6822307],[-122.8136601,47.6825377],[-122.8192541,47.6851207]]],[[[-122.8281588,47.2659888],[-122.8322077,47.2617978],[-122.8341088,47.2567968],[-122.8364048,47.2559132],[-122.838051,47.2552797],[-122.8418584,47.2576599],[-122.8416419,47.2580305],[-122.841465,47.2583334],[-122.8402893,47.260346],[-122.8403472,47.2605576],[-122.8404094,47.2607845],[-122.8413773,47.26432],[-122.8408926,47.2656975],[-122.8400512,47.2680882],[-122.8355352,47.2698623],[-122.8352821,47.2701016],[-122.8345487,47.2707953],[-122.832336,47.2728884],[-122.8288799,47.2709913],[-122.8253145,47.2705072],[-122.8281588,47.2659888]]],[[[-122.884531,46.0611999],[-122.8821791,46.0573018],[-122.8803644,46.0486999],[-122.8780125,46.0448018],[-122.8759902,46.0375427],[-122.8720311,46.0278666],[-122.868693,46.0242572],[-122.868121,46.0236386],[-122.8681213,46.0236383],[-122.8776617,46.0309508],[-122.8780923,46.0312808],[-122.8813279,46.0459738],[-122.8830753,46.0539089],[-122.8832779,46.0548289],[-122.8844783,46.0602799],[-122.8859336,46.0620177],[-122.9028721,46.0822446],[-122.902872,46.0822449],[-122.9001765,46.0811422],[-122.8863458,46.0656352],[-122.884531,46.0611999]]],[[[-122.9626855,46.1048198],[-122.9666951,46.1076187],[-122.9983279,46.1297005],[-122.9983276,46.1297009],[-122.9947565,46.1280579],[-122.9865371,46.121694],[-122.9822565,46.1197246],[-122.9740371,46.1133607],[-122.9697566,46.1113913],[-122.9657038,46.109194],[-122.9614232,46.1072246],[-122.9573705,46.1050273],[-122.9530899,46.1030579],[-122.9490372,46.1008607],[-122.9405899,46.0988913],[-122.933518,46.0950502],[-122.9261205,46.0946107],[-122.9250218,46.0936259],[-122.9241145,46.09245],[-122.9155126,46.0906353],[-122.9093313,46.0856391],[-122.9092678,46.0855877],[-122.909268,46.0855874],[-122.9304616,46.0932173],[-122.9374153,46.0957207],[-122.9396764,46.0965347],[-122.9617343,46.1044759],[-122.9620035,46.1045728],[-122.9626811,46.1048167],[-122.9626855,46.1048198]],[[-122.9396245,46.0966087],[-122.9410535,46.0971163],[-122.9396272,46.0966094],[-122.9396245,46.0966087]]],[[[-123.0330955,46.672339],[-123.0329288,46.6716575],[-123.03434,46.6718072],[-123.0676858,46.6744195],[-123.0679464,46.6780221],[-123.0648249,46.6784681],[-123.0569407,46.6783676],[-123.0446709,46.6766963],[-123.0362235,46.6749335],[-123.0330955,46.672339]]],[[[-123.0542651,47.505511],[-123.0535087,47.507324],[-123.0532126,47.5070911],[-123.0542646,47.5055108],[-123.0542651,47.505511]]],[[[-123.4865206,47.1551241],[-123.4878944,47.1522089],[-123.4904593,47.155693],[-123.4953255,47.1616637],[-123.5018047,47.1661573],[-123.5083701,47.1687653],[-123.5129949,47.1710709],[-123.5156351,47.1743808],[-123.4982723,47.1785173],[-123.4942765,47.1828305],[-123.4701595,47.1942115],[-123.4659236,47.198781],[-123.4598159,47.1990252],[-123.4136037,47.1966895],[-123.4136036,47.1966894],[-123.4174452,47.192738],[-123.4239394,47.1904593],[-123.4368218,47.1873913],[-123.444854,47.1822074],[-123.4470513,47.1798352],[-123.4632174,47.1722058],[-123.4656059,47.169626],[-123.4719373,47.1655408],[-123.4741346,47.1631685],[-123.482354,47.1592907],[-123.4843559,47.1571261],[-123.4865206,47.1551241]]]]}
}
