{
  "type": "Feature",
  "properties": {
    "id": "southwest-cascades",
    "name": "Southwest Cascades",
    "boundaryVersion": "mountain-led-v1",
    "derivation": "Selected GMBA broad basic ranges, plus retained historical footprint/approach neighborhoods where present, clipped to the existing complete statewide start footprint; remaining locations allocated by EPA ecoregions and the documented shoreline/state-edge repair. No mountain, elevation or terrain threshold determines eligibility.",
    "sources": {
      "gmba": {
        "authority": "Global Mountain Biodiversity Assessment (GMBA) / EarthEnv",
        "dataset": "GMBA Mountain Inventory v2.0, broad extent, basic non-overlapping ranges",
        "url": "https://data.earthenv.org/mountains/broad/GMBA_Inventory_v2.0_broad_basic.zip",
        "sha256": "sha256:638bae59339fb45ffe190079aa2fabdcd1d05fd00353863e9509bd7b16004ae0",
        "byteLength": 42672594,
        "reviewedAt": "2026-09-29T16:56:01Z",
        "coordinateReferenceSystem": "WGS84 (EPSG:4326)",
        "license": "Creative Commons Attribution 4.0 International",
        "datasetCitation": "Snethlage et al. (2022), GMBA Mountain Inventory v2, https://doi.org/10.48601/earthenv-t9k2-1407",
        "publicationCitation": "Snethlage et al. (2022), A hierarchical inventory of the world’s mountains for global comparative mountain science, Scientific Data, https://doi.org/10.1038/s41597-022-01256-y",
        "limitation": "Broad extent includes surrounding landscape and support polygons. Used to organize eligible starts, not to classify every included location as mountainous."
      },
      "epa": {
        "authority": "U.S. Environmental Protection Agency",
        "dataset": "Washington Level III Ecoregions",
        "url": "https://dmap-prod-oms-edc.s3.us-east-1.amazonaws.com/ORD/Ecoregions/wa/wa_eco_l3.zip",
        "metadataUrl": "https://dmap-prod-oms-edc.s3.us-east-1.amazonaws.com/ORD/Ecoregions/wa/wa_eco_l3.htm",
        "sha256": "sha256:e665f5a691b006feaf0c2d0ec8394c4e6d03de127267a21e054ae5bec4e6dae3",
        "byteLength": 1175130,
        "metadataDate": "2012-05-08",
        "reviewedAt": "2026-09-29T16:56:01Z",
        "license": "U.S. federal government public domain",
        "derivation": "Source NAD83 Albers Equal Area polygons transformed to WGS84 EPSG:4326 with pyshp 3.1.6 and pyproj 3.8.0; used only to allocate residual statewide coverage after the selected GMBA ranges and historical footprints."
      }
    },
    "statewideCoverage": {
      "path": "data/fixtures/coverage/washington-start-coverage.geojson",
      "sha256": "sha256:6f5274416c8dcf9bf05d2daff212a7344cdd4a73ffb461fec16d6a00084e4f3d",
      "properties": {
        "name": "Washington eligible-start coverage obligation",
        "basis": "Union of all twelve Washington effective start footprints at 8e95bc3, including the pinned Census 2025 statewide county inventory and retained historical footprints and approach neighborhoods. Used only as a gap-regression baseline; county assignments are superseded.",
        "sourceCommit": "8e95bc3",
        "license": "U.S. Census Bureau public domain; retained OpenStreetMap-derived boundaries ODbL 1.0; USDA Forest Service public domain. Original attribution retained in Git history."
      }
    },
    "retainedFootprint": {
      "path": "data/regions/southwest-cascades/boundary.geojson",
      "sha256": "sha256:d8e6d4813742239b23500886b78b6dd5ce3ea91ff6b0ee826121b4694ecaf92e",
      "properties": {
        "id": "southwest-cascades",
        "name": "Southwest Cascades build boundary",
        "boundaryVersion": "southwest-cascades-boundary-v1",
        "reviewedOsmSnapshot": "washington-260801",
        "sourceNamedAreaIds": [
          "osm:relation/2455766",
          "osm:relation/6109129",
          "osm:relation/6109074",
          "osm:relation/6109053"
        ],
        "excludedNamedAreaIds": [
          "osm:relation/7320420",
          "osm:relation/6109176"
        ]
      },
      "approachNeighborhoods": "Union of the existing catalog approach circles, using their unchanged explicit radius or approachRadiusMeters and the shared 32-vertex spherical neighborhood definition."
    },
    "gmbaSelection": [
      {
        "id": "17019",
        "name": "Columbia Gorge North",
        "path": "North America > American Cordillera (North America) > Pacific Coast Ranges > Cascade Range (North America) > South Washington Cascades > Columbia Gorge North",
        "pathIds": "12159 > 12218 > 12385 > 11202 > 17010 > 17019"
      },
      {
        "id": "17021",
        "name": "Mount Adams Area",
        "path": "North America > American Cordillera (North America) > Pacific Coast Ranges > Cascade Range (North America) > South Washington Cascades > Mount Adams Area",
        "pathIds": "12159 > 12218 > 12385 > 11202 > 17010 > 17021"
      },
      {
        "id": "17030",
        "name": "Mount Saint Helens Area",
        "path": "North America > American Cordillera (North America) > Pacific Coast Ranges > Cascade Range (North America) > South Washington Cascades > Mount Saint Helens Area",
        "pathIds": "12159 > 12218 > 12385 > 11202 > 17010 > 17030"
      }
    ],
    "epaResiduals": [
      "EPA Willamette Valley residual",
      "EPA Cascades residual",
      "EPA Eastern Cascades Slopes and Foothills residual"
    ],
    "edgeRepair": {
      "parts": 61,
      "areaSquareDegrees": 1.9526199712452063e-05,
      "method": "For each connected remaining part outside the EPA polygons, assign its representative point to the nearest post-EPA group by GEOS distance in EPSG:5070; tie-break by ascending region ID."
    },
    "limitation": "The source boundaries are geographic groupings with scale and vintage limitations, not legal access boundaries or proof that all trails are mapped. US-only limits and explicit exclusions still apply. Build costs and representative routes require a real-data build.",
    "authoringPrecision": {
      "method": "GEOS buffer of valid raw derived geometry by 3e-7 degrees with mitre joins and mitre_limit=2, then topology-preserving valid-output set_precision on a shared 1e-7-degree grid. No runtime normalization.",
      "implementation": "Shapely 2.1.2 / GEOS",
      "gridDegrees": 1e-07,
      "outwardBufferDegrees": 3e-07,
      "mitreLimit": 2,
      "verifiedMaximumOutwardDistanceDegrees": 8e-07,
      "maximumMeasuredOutputVertexDistanceDegrees": 6.949461830771656e-07,
      "missingRawAreaSquareDegrees": 0.0,
      "extraAreaSquareDegrees": 1.8657740716372405e-06,
      "rawGeometryHash": "sha256:0d40b970933d9703a9005eacc700aba609938b420db81275372f3e9b5a521aa3",
      "finalGeometryHash": "sha256:9b807461f93d18f2a30031084050254e3255a5a727d7eba426e5c21276d8323b",
      "hashEncoding": "UTF-8 JSON geometry, compact comma/colon separators; numeric serialization from Python 3 json.dumps.",
      "reference": "https://libgeos.org/doxygen/classgeos_1_1precision_1_1GeometryPrecisionReducer.html"
    }
  },
  "geometry": {"type":"MultiPolygon","coordinates":[[[[-122.8458753,45.9957858],[-122.8503006,46.0038261],[-122.8561582,46.0144688],[-122.8642847,46.0206976],[-122.8681218,46.0236386],[-122.8720316,46.0278663],[-122.8759908,46.0375425],[-122.878013,46.0448016],[-122.8803649,46.0486997],[-122.8821797,46.0573016],[-122.8845316,46.0611996],[-122.8863464,46.0656348],[-122.9001768,46.0811417],[-122.9028717,46.0822441],[-122.9029551,46.0823436],[-122.9041192,46.0837337],[-122.9092685,46.0855876],[-122.9155129,46.0906347],[-122.9241148,46.0924495],[-122.9250225,46.0936258],[-122.9176898,46.0967103],[-122.9136045,46.098875],[-122.9051898,46.100877],[-122.9011045,46.1030417],[-122.8896221,46.105776],[-122.8958311,46.1148006],[-122.9073545,46.1175431],[-122.9114398,46.1197078],[-122.9174905,46.1225602],[-122.9197733,46.1325865],[-122.9156066,46.1404601],[-122.9134663,46.1761373],[-122.9051898,46.1800436],[-122.8969381,46.1881692],[-122.909438,46.2029598],[-122.9114399,46.2072079],[-122.915033,46.2139911],[-122.8906066,46.2404601],[-122.8886047,46.2450864],[-122.8927713,46.2529598],[-122.8947733,46.2572079],[-122.8992573,46.2637223],[-122.9078305,46.2677709],[-122.9155983,46.2674616],[-122.9197734,46.2712623],[-122.9101135,46.28386],[-122.9136047,46.2904599],[-122.9156066,46.3030412],[-122.9178487,46.3072771],[-122.91769,46.311334],[-122.9180562,46.3206316],[-122.921938,46.3279598],[-122.9252786,46.3350357],[-122.9341572,46.3392268],[-122.93644,46.3492531],[-122.9322733,46.3571267],[-122.9302714,46.361753],[-122.9345153,46.3697771],[-122.9343566,46.3738339],[-122.9345153,46.3778908],[-122.9322733,46.3821267],[-122.9302714,46.3950863],[-122.9344625,46.4030088],[-122.9205585,46.419045],[-122.9093565,46.4217102],[-122.9007384,46.4283222],[-122.896938,46.4363748],[-122.8781066,46.4571267],[-122.8761047,46.4613747],[-122.87394,46.46546],[-122.871938,46.4697081],[-122.8697733,46.4737933],[-122.866689,46.4811257],[-122.8655903,46.4821104],[-122.8625792,46.4886698],[-122.8553119,46.4882344],[-122.8386209,46.5030578],[-122.8343402,46.5050272],[-122.8302875,46.5072245],[-122.8176736,46.5091939],[-122.8052875,46.5197244],[-122.8010069,46.5216938],[-122.7927875,46.5280578],[-122.7760069,46.5300272],[-122.7719542,46.5322245],[-122.7635069,46.5341939],[-122.7572852,46.5385397],[-122.7552871,46.5341937],[-122.7529068,46.5298115],[-122.7351457,46.5256774],[-122.7162494,46.5139995],[-122.713621,46.5197243],[-122.7087625,46.5266824],[-122.7003232,46.5300272],[-122.6714857,46.5180316],[-122.6761651,46.5113298],[-122.6682511,46.501121],[-122.6466125,46.4988912],[-122.6427877,46.5072243],[-122.6382588,46.5137105],[-122.6129045,46.5121968],[-122.6073707,46.5091939],[-122.5989234,46.5072245],[-122.5948707,46.5050272],[-122.5879576,46.5030578],[-122.5802876,46.5072245],[-122.576007,46.5091938],[-122.5660055,46.5169411],[-122.5636211,46.5322243],[-122.5523905,46.5454284],[-122.5385638,46.5446065],[-122.5278747,46.5452412],[-122.5177876,46.5530578],[-122.513507,46.5550272],[-122.5083555,46.5578227],[-122.5032041,46.5550272],[-122.4822568,46.5530578],[-122.4698707,46.5425272],[-122.4655901,46.5405578],[-122.4615374,46.5383605],[-122.4546243,46.5363912],[-122.4469543,46.5405578],[-122.4400409,46.5425272],[-122.4323707,46.5383605],[-122.4239235,46.5363911],[-122.4198707,46.5341938],[-122.4155901,46.5322244],[-122.4115374,46.5300272],[-122.4072568,46.5280578],[-122.4032041,46.5258605],[-122.3905902,46.5238911],[-122.384446,46.5196024],[-122.3747577,46.5201802],[-122.3698708,46.5175272],[-122.3614235,46.5155578],[-122.3573707,46.5133605],[-122.3530901,46.5113911],[-122.3512938,46.5100003],[-122.3299993,46.5100003],[-122.3282044,46.5113911],[-122.3210346,46.514683],[-122.3085996,46.5102193],[-122.3081965,46.5100003],[-122.1099999,46.5100003],[-122.0597603,46.4741149],[-122.0577168,46.4743225],[-122.0490782,46.4674865],[-122.0447162,46.4655985],[-122.0374941,46.459881],[-122.0304584,46.4595459],[-122.0285988,46.4597351],[-122.0285366,46.4594544],[-121.8645133,46.4516433],[-121.8600003,46.4900003],[-121.5899999,46.4900003],[-121.5399997,46.4700002],[-121.5399997,46.3624564],[-121.5385844,46.3613139],[-121.5239605,46.3592713],[-121.4873191,46.3530213],[-121.4802107,46.3550639],[-121.4760033,46.3572286],[-121.4698144,46.3571025],[-121.4657536,46.3654765],[-121.44551,46.3658915],[-121.4406678,46.3633972],[-121.4361552,46.3612081],[-121.4284485,46.353188],[-121.4240012,46.3508972],[-121.4114605,46.3488546],[-121.4031678,46.3425639],[-121.3697938,46.3405213],[-121.3573345,46.3300639],[-121.3367251,46.327826],[-121.3086123,46.3196879],[-121.2927108,46.3217306],[-121.2887068,46.3258973],[-121.2781272,46.3238546],[-121.2633976,46.3114891],[-121.2580592,46.3224955],[-121.2510441,46.3258972],[-121.2469181,46.3280213],[-121.2385441,46.3300639],[-121.2344182,46.3321879],[-121.2302108,46.3342305],[-121.2260848,46.3363546],[-121.2177108,46.3383972],[-121.2135848,46.3405212],[-121.2054428,46.3444722],[-121.188585,46.363633],[-121.1906276,46.3696875],[-121.1941067,46.3764422],[-121.1866236,46.3842306],[-121.1593773,46.3821879],[-121.1482731,46.3793437],[-121.1427515,46.3821879],[-121.1302108,46.3842305],[-121.1246646,46.3870871],[-121.1185244,46.3806986],[-121.1010806,46.3771261],[-121.0715966,46.3737773],[-121.0618147,46.3739767],[-121.049982,46.3699239],[-121.021918,46.3633972],[-120.9927107,46.3571879],[-120.9766666,46.3530782],[-120.9701522,46.352944],[-120.9585272,46.35578],[-120.9531683,46.3613546],[-120.9427109,46.3633972],[-120.9354395,46.3671408],[-120.928168,46.3633972],[-120.9239607,46.3613546],[-120.9198347,46.3592305],[-120.9156273,46.3571879],[-120.9115014,46.3550639],[-120.8989607,46.3530212],[-120.8885318,46.3446025],[-120.8843773,46.3446879],[-120.8783754,46.3261982],[-120.8733545,46.3209697],[-120.8637882,46.3258973],[-120.8595318,46.3221658],[-120.8498028,46.2974995],[-120.8479391,46.295709],[-120.8507266,46.2925918],[-120.8594547,46.2905573],[-120.8635074,46.2883601],[-120.867788,46.2863907],[-120.8843407,46.2716934],[-120.8926495,46.2678768],[-120.8927959,46.2654519],[-120.8886211,46.2577735],[-120.8955672,46.2530573],[-120.9157049,46.2550267],[-120.9233749,46.2591934],[-120.9469547,46.257224],[-120.9510074,46.2550268],[-120.9552879,46.2530574],[-120.967674,46.2425268],[-120.9719546,46.2405574],[-120.9760074,46.2383601],[-120.9844546,46.2363907],[-120.9885073,46.2341934],[-120.9961082,46.2307023],[-121.0054058,46.2135922],[-121.0101503,46.1982316],[-121.0213685,46.1930843],[-121.0242168,46.1808447],[-121.0331443,46.1767472],[-121.0364239,46.1696103],[-121.0386211,46.1655575],[-121.0409812,46.1554174],[-121.0537946,46.1524389],[-121.0677878,46.1363908],[-121.0697572,46.1321103],[-121.0731181,46.1259174],[-121.0677877,46.1161069],[-121.0843406,46.1008602],[-121.0922018,46.097251],[-121.0947572,46.086277],[-121.1011211,46.0780575],[-121.1030905,46.073777],[-121.1053202,46.0696674],[-121.1019267,46.0634174],[-121.1052878,46.0572242],[-121.1089987,46.049139],[-121.1135073,46.0466935],[-121.1177879,46.0447241],[-121.1218406,46.0425268],[-121.1261212,46.0405574],[-121.130174,46.0383602],[-121.1344545,46.0363908],[-121.1385073,46.0341935],[-121.146812,46.0303809],[-121.1479391,46.0123758],[-121.1465231,46.0046082],[-121.1323915,45.992507],[-121.1247051,45.9890768],[-121.1219748,45.9800071],[-121.1033631,45.9775738],[-121.102472,45.9664935],[-121.1053081,45.9614113],[-121.1072368,45.9529234],[-121.1094748,45.9489113],[-121.1123109,45.9364354],[-121.1231917,45.9425065],[-121.1322366,45.9390399],[-121.1268373,45.9312481],[-121.1197369,45.9280784],[-121.1125227,45.9240542],[-121.1018538,45.9300071],[-121.0908183,45.9270163],[-121.0902649,45.9201353],[-121.0928081,45.915578],[-121.0962871,45.9077858],[-121.1051536,45.9008399],[-121.1134502,45.8971371],[-121.1139588,45.8907817],[-121.0989035,45.8739116],[-121.0963319,45.86815],[-121.0905703,45.8655784],[-121.0865583,45.8633404],[-121.0780703,45.8614117],[-121.0740582,45.8591738],[-121.066856,45.8559592],[-121.063434,45.8482891],[-121.060439,45.8457092],[-121.0631289,45.8425879],[-121.0719749,45.8405778],[-121.0801536,45.8341732],[-121.0886416,45.8322445],[-121.0926536,45.8300066],[-121.0969749,45.8280779],[-121.1041894,45.8240535],[-121.1117048,45.8282446],[-121.1188784,45.8199195],[-121.1446637,45.8219906],[-121.1509869,45.8175066],[-121.1636416,45.8155778],[-121.1676536,45.8133399],[-121.1719749,45.8114112],[-121.1801536,45.8050066],[-121.1844749,45.8030779],[-121.1926536,45.7966732],[-121.2040305,45.7940894],[-121.2094747,45.7864114],[-121.2114034,45.7779234],[-121.2136901,45.773822],[-121.2071879,45.7655131],[-121.2094747,45.7614114],[-121.2117575,45.7513608],[-121.2207134,45.748663],[-121.2303081,45.7364113],[-121.2330343,45.7302996],[-121.2428082,45.7280779],[-121.2468202,45.7258399],[-121.2511415,45.7239112],[-121.2593202,45.7175066],[-121.2636415,45.7155779],[-121.2676536,45.71334],[-121.2719748,45.7114112],[-121.2759869,45.7091733],[-121.2803081,45.7072446],[-121.2884869,45.70084],[-121.2928082,45.6989112],[-121.2979389,45.6957091],[-121.2952495,45.6926984],[-121.2905906,45.6905581],[-121.2865378,45.6883609],[-121.2780906,45.6863915],[-121.2740379,45.6841942],[-121.2614239,45.6822248],[-121.2573712,45.6800275],[-121.2447573,45.6780581],[-121.2419255,45.6765228],[-121.2419172,45.6765183],[-121.2419173,45.6765179],[-121.2511831,45.6783897],[-121.2818463,45.6857111],[-121.2873231,45.6870187],[-121.294454,45.6907185],[-121.2958887,45.6914628],[-121.310345,45.6989632],[-121.3121981,45.6999247],[-121.3164722,45.7007644],[-121.3237101,45.7021864],[-121.3325099,45.7039153],[-121.33777,45.7049487],[-121.3434304,45.7046498],[-121.3445148,45.7045925],[-121.3512605,45.7042363],[-121.351267,45.7042359],[-121.3514139,45.7042282],[-121.3654704,45.7034858],[-121.369977,45.7032478],[-121.3725739,45.7031107],[-121.372703,45.7030655],[-121.3834517,45.6992974],[-121.401739,45.6928867],[-121.4042744,45.6930147],[-121.4224674,45.6939329],[-121.423592,45.6939897],[-121.4237297,45.6940156],[-121.4412247,45.6973031],[-121.4628491,45.7013667],[-121.4670654,45.703629],[-121.4814896,45.7113683],[-121.4836731,45.7125399],[-121.4869528,45.7142996],[-121.4915051,45.7167422],[-121.4946869,45.7184494],[-121.4946879,45.7184499],[-121.4991531,45.7208457],[-121.5095066,45.7225525],[-121.511088,45.7228132],[-121.5213353,45.7245025],[-121.522392,45.7246767],[-121.5236859,45.7249018],[-121.5319831,45.7263453],[-121.533106,45.7265407],[-121.5342524,45.7262849],[-121.5377108,45.7255131],[-121.5483448,45.7231399],[-121.559061,45.7207484],[-121.5627271,45.7199302],[-121.5706823,45.7181549],[-121.5747014,45.717258],[-121.6093203,45.7095322],[-121.6310584,45.7046809],[-121.631167,45.7046567],[-121.638119,45.7047361],[-121.6675892,45.7050729],[-121.668362,45.7050817],[-121.6698735,45.7046835],[-121.6759586,45.7030805],[-121.6819144,45.7015115],[-121.6842874,45.7008863],[-121.691621,45.6989544],[-121.707358,45.6948087],[-121.7073767,45.6948082],[-121.7117116,45.6946879],[-121.728659,45.6942176],[-121.735104,45.6940387],[-121.735325,45.6940756],[-121.7477087,45.6961431],[-121.7481722,45.6962205],[-121.7634873,45.6987774],[-121.7746221,45.7006364],[-121.7917647,45.7034985],[-121.811304,45.7067607],[-121.8209241,45.7044386],[-121.8381127,45.7002897],[-121.8582052,45.6954399],[-121.8671669,45.6932767],[-121.8756952,45.6877299],[-121.8779084,45.6862905],[-121.887689,45.6799292],[-121.9018547,45.6707158],[-121.9012361,45.6653137],[-121.9008971,45.6623531],[-121.9008577,45.6620089],[-121.90184,45.6609999],[-121.9044478,45.6583214],[-121.9073946,45.6552946],[-121.9082668,45.6543987],[-121.9133574,45.6524615],[-121.9220287,45.6491616],[-121.935149,45.6441687],[-121.9354842,45.6441844],[-121.9514162,45.6449309],[-121.951838,45.6449507],[-121.9557338,45.6435587],[-121.9607477,45.636644],[-121.9612578,45.6359406],[-121.9635468,45.6327838],[-121.9797969,45.6248387],[-121.9830379,45.6228117],[-121.990453,45.6203407],[-121.9970453,45.6181439],[-122.0036899,45.6159297],[-122.0117439,45.6155974],[-122.022571,45.6151507],[-122.0443739,45.6095157],[-122.0518053,45.6061438],[-122.0618606,45.6015812],[-122.0816611,45.5925969],[-122.0927232,45.5875775],[-122.1001759,45.5841959],[-122.1016749,45.5835157],[-122.1112684,45.5816232],[-122.1123552,45.5814089],[-122.112356,45.5814087],[-122.1261967,45.5826167],[-122.1261967,45.5825727],[-122.1262,45.5825731],[-122.12949,45.5829667],[-122.1295463,45.5829453],[-122.129548,45.5829447],[-122.1385055,45.5841945],[-122.14075,45.5845077],[-122.1547416,45.5822883],[-122.1553463,45.5821924],[-122.16683,45.5803709],[-122.1836949,45.5776957],[-122.1975274,45.567282],[-122.2016999,45.5641407],[-122.2214005,45.5573107],[-122.2224944,45.5569315],[-122.2287247,45.5547715],[-122.2478329,45.5481469],[-122.2489118,45.5477728],[-122.2489929,45.5477447],[-122.2595309,45.5450978],[-122.2626249,45.5443207],[-122.2641358,45.5441428],[-122.266701,45.5438407],[-122.2793712,45.5437059],[-122.282453,45.5436731],[-122.29482,45.5435416],[-122.294901,45.5435407],[-122.2949659,45.543549],[-122.3301256,45.548064],[-122.3315021,45.5482407],[-122.3390705,45.5557735],[-122.3418119,45.5585021],[-122.3446634,45.5613402],[-122.3528022,45.5694407],[-122.3683094,45.5731061],[-122.3721893,45.5740231],[-122.3730382,45.5742238],[-122.380302,45.5759407],[-122.3834359,45.5755592],[-122.3846931,45.5754061],[-122.3915402,45.5745726],[-122.3918019,45.5745407],[-122.3971004,45.5726045],[-122.4012229,45.5710981],[-122.4047106,45.5698235],[-122.4100594,45.567869],[-122.4107059,45.5676327],[-122.4112846,45.567549],[-122.416934,45.5667313],[-122.4182127,45.5665462],[-122.4381544,45.5636599],[-122.438674,45.5635847],[-122.4538911,45.5673127],[-122.4539155,45.5673256],[-122.4552619,45.5680383],[-122.4718834,45.5768356],[-122.4746591,45.5783047],[-122.4757782,45.5786547],[-122.4793151,45.5797607],[-122.4794965,45.5798101],[-122.4851752,45.5813543],[-122.4919985,45.5832098],[-122.4922591,45.5832807],[-122.4922778,45.5832845],[-122.494807,45.5837959],[-122.4960191,45.584041],[-122.5003838,45.5849236],[-122.5053532,45.5859284],[-122.5139353,45.5876637],[-122.5213516,45.5891633],[-122.5236681,45.5896317],[-122.5302133,45.5915396],[-122.5399461,45.5943766],[-122.5424497,45.5951064],[-122.5459815,45.5961359],[-122.5479177,45.5967003],[-122.5481491,45.5967677],[-122.549439,45.5970459],[-122.5499553,45.5971572],[-122.5502117,45.5972125],[-122.5512791,45.5974427],[-122.5544036,45.5981165],[-122.5814061,45.6039397],[-122.582326,45.6041002],[-122.5860056,45.6047422],[-122.5878288,45.6050604],[-122.5889179,45.6052504],[-122.602606,45.6076387],[-122.6077182,45.6078986],[-122.6152186,45.60828],[-122.6217432,45.6086118],[-122.6349629,45.6092839],[-122.6415888,45.6096208],[-122.6434965,45.6097178],[-122.643907,45.6097387],[-122.651578,45.6117859],[-122.6575756,45.6133865],[-122.6583318,45.6135883],[-122.6676572,45.616077],[-122.6750081,45.6180387],[-122.6750939,45.6180746],[-122.6753276,45.6181725],[-122.6784047,45.619461],[-122.6816581,45.6208234],[-122.6910081,45.6247387],[-122.6911852,45.6248396],[-122.6913817,45.6249515],[-122.6955947,45.6273505],[-122.7103433,45.6357489],[-122.7121566,45.6367814],[-122.7133091,45.6374377],[-122.7144249,45.6377392],[-122.7178406,45.638662],[-122.7313598,45.6423143],[-122.7328469,45.6427161],[-122.7335772,45.6429134],[-122.7381091,45.6441377],[-122.7399778,45.6450829],[-122.7435404,45.6468849],[-122.7588671,45.6546375],[-122.7593972,45.6549056],[-122.7624142,45.6564317],[-122.763607,45.657035],[-122.7638099,45.6571376],[-122.7638102,45.6571378],[-122.7642971,45.6581979],[-122.7717981,45.6745295],[-122.7745113,45.6804369],[-122.7726815,45.6980031],[-122.7725113,45.6996371],[-122.772441,45.6998341],[-122.7621898,45.7285768],[-122.7601083,45.734413],[-122.7603015,45.7379728],[-122.7609744,45.7503749],[-122.7613673,45.7576152],[-122.7614513,45.7591629],[-122.7695323,45.7805828],[-122.7706463,45.7818397],[-122.7775864,45.78967],[-122.7789841,45.7912469],[-122.7913089,45.8051525],[-122.7956053,45.8099999],[-122.7957233,45.8149518],[-122.7957296,45.815216],[-122.795926,45.8234566],[-122.7959633,45.8250241],[-122.7937697,45.8291245],[-122.7888666,45.8382899],[-122.7856963,45.8442161],[-122.7855562,45.849108],[-122.7855153,45.850536],[-122.785438,45.8532505],[-122.7853745,45.8554781],[-122.7852999,45.8580969],[-122.7851646,45.8628435],[-122.7851216,45.864353],[-122.7850263,45.8676989],[-122.7862549,45.8692631],[-122.7918074,45.8763324],[-122.7946753,45.8799838],[-122.7980913,45.8843328],[-122.7990832,45.8864316],[-122.8001386,45.8886647],[-122.8083512,45.9060408],[-122.8096439,45.9087759],[-122.810063,45.9096627],[-122.8115103,45.912725],[-122.8115061,45.9127408],[-122.8112045,45.9138574],[-122.8108366,45.9152201],[-122.8096553,45.919595],[-122.8065092,45.9312462],[-122.8061933,45.932416],[-122.8072139,45.9361514],[-122.8118418,45.9530905],[-122.8122156,45.9544588],[-122.8122739,45.9546722],[-122.8139983,45.9609838],[-122.8192595,45.9653985],[-122.828295,45.9729801],[-122.833421,45.9772812],[-122.8366166,45.9799625],[-122.837637,45.9808188],[-122.8376382,45.9808198],[-122.8385783,45.9825278],[-122.842664,45.9899511],[-122.8458753,45.9957858]]],[[[-121.2145117,45.6694773],[-121.2129172,45.6691063],[-121.2099579,45.6657124],[-121.2113861,45.6651353],[-121.2145118,45.6694772],[-121.2145117,45.6694773]]],[[[-121.2276018,45.6736265],[-121.227602,45.6736261],[-121.231711,45.6744561],[-121.2317109,45.6744567],[-121.2316369,45.6744451],[-121.2280906,45.6738915],[-121.2276081,45.6736298],[-121.2276018,45.6736265]]]]}
}
