{
  "type": "Feature",
  "properties": {
    "id": "spokane-palouse",
    "name": "Spokane and Palouse",
    "boundaryVersion": "mountain-led-v1",
    "derivation": "Selected GMBA broad basic ranges, plus retained historical footprint/approach neighborhoods where present, clipped to the existing complete statewide start footprint; remaining locations allocated by EPA ecoregions and the documented shoreline/state-edge repair. No mountain, elevation or terrain threshold determines eligibility.",
    "sources": {
      "gmba": {
        "authority": "Global Mountain Biodiversity Assessment (GMBA) / EarthEnv",
        "dataset": "GMBA Mountain Inventory v2.0, broad extent, basic non-overlapping ranges",
        "url": "https://data.earthenv.org/mountains/broad/GMBA_Inventory_v2.0_broad_basic.zip",
        "sha256": "sha256:638bae59339fb45ffe190079aa2fabdcd1d05fd00353863e9509bd7b16004ae0",
        "byteLength": 42672594,
        "reviewedAt": "2026-09-29T16:56:01Z",
        "coordinateReferenceSystem": "WGS84 (EPSG:4326)",
        "license": "Creative Commons Attribution 4.0 International",
        "datasetCitation": "Snethlage et al. (2022), GMBA Mountain Inventory v2, https://doi.org/10.48601/earthenv-t9k2-1407",
        "publicationCitation": "Snethlage et al. (2022), A hierarchical inventory of the world’s mountains for global comparative mountain science, Scientific Data, https://doi.org/10.1038/s41597-022-01256-y",
        "limitation": "Broad extent includes surrounding landscape and support polygons. Used to organize eligible starts, not to classify every included location as mountainous."
      },
      "epa": {
        "authority": "U.S. Environmental Protection Agency",
        "dataset": "Washington Level III Ecoregions",
        "url": "https://dmap-prod-oms-edc.s3.us-east-1.amazonaws.com/ORD/Ecoregions/wa/wa_eco_l3.zip",
        "metadataUrl": "https://dmap-prod-oms-edc.s3.us-east-1.amazonaws.com/ORD/Ecoregions/wa/wa_eco_l3.htm",
        "sha256": "sha256:e665f5a691b006feaf0c2d0ec8394c4e6d03de127267a21e054ae5bec4e6dae3",
        "byteLength": 1175130,
        "metadataDate": "2012-05-08",
        "reviewedAt": "2026-09-29T16:56:01Z",
        "license": "U.S. federal government public domain",
        "derivation": "Source NAD83 Albers Equal Area polygons transformed to WGS84 EPSG:4326 with pyshp 3.1.6 and pyproj 3.8.0; used only to allocate residual statewide coverage after the selected GMBA ranges and historical footprints."
      }
    },
    "statewideCoverage": {
      "path": "data/fixtures/coverage/washington-start-coverage.geojson",
      "sha256": "sha256:6f5274416c8dcf9bf05d2daff212a7344cdd4a73ffb461fec16d6a00084e4f3d",
      "properties": {
        "name": "Washington eligible-start coverage obligation",
        "basis": "Union of all twelve Washington effective start footprints at 8e95bc3, including the pinned Census 2025 statewide county inventory and retained historical footprints and approach neighborhoods. Used only as a gap-regression baseline; county assignments are superseded.",
        "sourceCommit": "8e95bc3",
        "license": "U.S. Census Bureau public domain; retained OpenStreetMap-derived boundaries ODbL 1.0; USDA Forest Service public domain. Original attribution retained in Git history."
      }
    },
    "gmbaSelection": [
      {
        "id": "16228",
        "name": "Eastern Washington Plateau",
        "path": "North America > American Cordillera (North America) > Intermountain West > Columbia Plateau > North Columbia Plateau > Eastern Washington Plateau",
        "pathIds": "12159 > 12218 > 12543 > 12544 > 16215 > 16228"
      },
      {
        "id": "16229",
        "name": "Hoodoo Mountains",
        "path": "North America > American Cordillera (North America) > Intermountain West > Columbia Plateau > North Columbia Plateau > Hoodoo Mountains",
        "pathIds": "12159 > 12218 > 12543 > 12544 > 16215 > 16229"
      },
      {
        "id": "16230",
        "name": "The Palouse",
        "path": "North America > American Cordillera (North America) > Intermountain West > Columbia Plateau > North Columbia Plateau > The Palouse",
        "pathIds": "12159 > 12218 > 12543 > 12544 > 16215 > 16230"
      },
      {
        "id": "16243",
        "name": "Craig Mountains",
        "path": "North America > American Cordillera (North America) > Intermountain West > Columbia Plateau > Western Idaho Ranges > Craig Mountains",
        "pathIds": "12159 > 12218 > 12543 > 12544 > 16242 > 16243"
      }
    ],
    "epaResiduals": [],
    "edgeRepair": {
      "parts": 0,
      "areaSquareDegrees": 0,
      "method": "For each connected remaining part outside the EPA polygons, assign its representative point to the nearest post-EPA group by GEOS distance in EPSG:5070; tie-break by ascending region ID."
    },
    "limitation": "The source boundaries are geographic groupings with scale and vintage limitations, not legal access boundaries or proof that all trails are mapped. US-only limits and explicit exclusions still apply. Build costs and representative routes require a real-data build.",
    "authoringPrecision": {
      "method": "GEOS buffer of valid raw derived geometry by 3e-7 degrees with mitre joins and mitre_limit=2, then topology-preserving valid-output set_precision on a shared 1e-7-degree grid. No runtime normalization.",
      "implementation": "Shapely 2.1.2 / GEOS",
      "gridDegrees": 1e-07,
      "outwardBufferDegrees": 3e-07,
      "mitreLimit": 2,
      "verifiedMaximumOutwardDistanceDegrees": 8e-07,
      "maximumMeasuredOutputVertexDistanceDegrees": 7.081833344744574e-07,
      "missingRawAreaSquareDegrees": 0.0,
      "extraAreaSquareDegrees": 3.927244787674884e-06,
      "rawGeometryHash": "sha256:43fac33f4cdbfbc724b96989ec9fbe371b3a1018e2aa88c10392f070223f0837",
      "finalGeometryHash": "sha256:29f16ba7abc4465743fdefe8d76cad4d5a81aa7ff91062eb0f78da93a81c25af",
      "hashEncoding": "UTF-8 JSON geometry, compact comma/colon separators; numeric serialization from Python 3 json.dumps.",
      "reference": "https://libgeos.org/doxygen/classgeos_1_1precision_1_1GeometryPrecisionReducer.html"
    }
  },
  "geometry": {"type":"MultiPolygon","coordinates":[[[[-116.9159885,45.9954127],[-116.9160322,45.9954142],[-116.9179202,45.9969378],[-116.9178956,45.9981492],[-116.9178952,45.9981493],[-116.9171798,45.9965752],[-116.9159884,45.9954128],[-116.9159885,45.9954127]]],[[[-116.9343222,46.1542683],[-116.9343223,46.1542684],[-116.9342572,46.1547058],[-116.9232831,46.1638244],[-116.9240075,46.1709508],[-116.9240074,46.1709508],[-116.9239578,46.1709202],[-116.9218697,46.1678081],[-116.9212577,46.164795],[-116.9226478,46.1607438],[-116.9305998,46.1568217],[-116.9343222,46.1542683]]],[[[-116.9303567,46.032392],[-116.9300912,46.0277875],[-116.9300914,46.0277874],[-116.9302533,46.0279803],[-116.9322361,46.0401535],[-116.9322359,46.0401536],[-116.9317057,46.0396512],[-116.9296797,46.034678],[-116.9303567,46.032392]]],[[[-116.9478127,46.126214],[-116.9478129,46.1262142],[-116.9469972,46.1280985],[-116.9363853,46.1404032],[-116.9344666,46.1532984],[-116.934466,46.1532983],[-116.9354727,46.142448],[-116.9339487,46.13892],[-116.9358328,46.1356838],[-116.9405928,46.1324258],[-116.9429508,46.1292738],[-116.9478127,46.126214]]],[[[-116.9405525,46.1832906],[-116.9470711,46.1892746],[-116.9470708,46.189275],[-116.9417238,46.1850342],[-116.9405521,46.1832909],[-116.9405525,46.1832906]]],[[[-116.9430046,46.0581772],[-116.9441091,46.0627052],[-116.9441088,46.0627053],[-116.9426557,46.0610001],[-116.9430042,46.0581772],[-116.9430046,46.0581772]]],[[[-116.9552628,46.1022368],[-116.9595479,46.0990577],[-116.9740579,46.0977067],[-116.9769569,46.0966697],[-116.9788228,46.0957308],[-116.9803864,46.0942067],[-116.9803866,46.0942068],[-116.9799481,46.0985047],[-116.9580649,46.1009583],[-116.9553306,46.1072652],[-116.953052,46.1112365],[-116.9511639,46.1197651],[-116.9507237,46.1205325],[-116.9507233,46.1205323],[-116.9509797,46.118853],[-116.9512647,46.1111609],[-116.9552628,46.1022368]]],[[[-116.9560307,46.2259759],[-116.9571959,46.2238616],[-116.9571963,46.2238617],[-116.9556966,46.2322792],[-116.9556963,46.2322792],[-116.9552637,46.23088],[-116.9560307,46.2259759]]],[[[-116.9651426,46.2109786],[-116.9651428,46.2109787],[-116.965552,46.2132099],[-116.9573727,46.2235418],[-116.9573723,46.2235416],[-116.9594277,46.2198118],[-116.9651426,46.2109786]]],[[[-116.9865528,46.2964028],[-116.9846297,46.2927051],[-116.9849097,46.2897379],[-116.9857413,46.2884363],[-116.9857415,46.2884363],[-116.9865532,46.2964026],[-116.9865528,46.2964028]]],[[[-116.9880112,46.2978267],[-116.9880114,46.2978263],[-116.9949138,46.3008194],[-116.9988851,46.303098],[-117.0006588,46.3038657],[-117.0006587,46.3038662],[-116.9972599,46.3031513],[-116.9897938,46.2993953],[-116.9880112,46.2978267]]],[[[-117.0290594,46.339454],[-117.0277438,46.3387513],[-117.0238438,46.3359762],[-117.0231487,46.3347591],[-117.0231391,46.334634],[-117.0227057,46.32899],[-117.0231578,46.327376],[-117.0231582,46.3273761],[-117.0238853,46.3322648],[-117.0290596,46.3394537],[-117.0290594,46.339454]]],[[[-117.0311143,46.3404324],[-117.043618,46.3422932],[-117.0436179,46.3422938],[-117.0344499,46.3413203],[-117.0311142,46.3404329],[-117.0311143,46.3404324]]],[[[-119.192789,47.8113905],[-119.1822584,47.8237766],[-119.1802891,47.8322238],[-119.1780918,47.8362765],[-119.1761224,47.8405571],[-119.1739251,47.8446099],[-119.1719557,47.8488905],[-119.1697584,47.8529432],[-119.167789,47.8572238],[-119.1655918,47.8612765],[-119.1619948,47.8691094],[-119.1469556,47.8822239],[-119.142675,47.8841933],[-119.1350048,47.88836],[-119.1239248,47.8863906],[-119.119872,47.8841933],[-119.1155914,47.8822239],[-119.1089346,47.8775772],[-119.0990106,47.880641],[-119.0968418,47.9175225],[-119.080289,47.9322239],[-119.0718417,47.9341933],[-119.0671623,47.9367324],[-119.0583528,47.9362075],[-119.0468417,47.93836],[-119.0427889,47.9405573],[-119.0010083,47.9425267],[-118.9969556,47.9447239],[-118.9885084,47.9466933],[-118.9812735,47.9519587],[-118.9740794,47.9466526],[-118.9697174,47.9447646],[-118.9624421,47.940598],[-118.9384677,47.942486],[-118.9341504,47.9449599],[-118.9300081,47.9445368],[-118.9134677,47.9466526],[-118.9094963,47.9489313],[-118.8926344,47.9508193],[-118.888663,47.9530979],[-118.871801,47.954986],[-118.8646069,47.9591079],[-118.8574128,47.954986],[-118.8488842,47.9530979],[-118.8449128,47.9508193],[-118.8405508,47.9489312],[-118.8199128,47.9299859],[-118.8155508,47.9280979],[-118.8115795,47.9258193],[-118.8072175,47.9239313],[-118.8032461,47.9216526],[-118.7988842,47.9197646],[-118.7918407,47.9157282],[-118.7885653,47.9153945],[-118.7864127,47.9156143],[-118.7824128,47.9133193],[-118.7697175,47.9114313],[-118.7657462,47.9091527],[-118.7447176,47.9072646],[-118.7374422,47.903098],[-118.7218011,47.904986],[-118.7178298,47.9072646],[-118.7116735,47.9099338],[-118.7094966,47.9197644],[-118.7072179,47.9237358],[-118.7038569,47.9314914],[-118.6969965,47.9364313],[-118.6926345,47.9383193],[-118.6886631,47.940598],[-118.6812737,47.941542],[-118.6655916,47.9405573],[-118.6615388,47.93836],[-118.6572582,47.9363906],[-118.6532055,47.9341933],[-118.6405916,47.9322239],[-118.6365389,47.9300267],[-118.6004591,47.9280573],[-118.5917515,47.9327895],[-118.580232,47.9321059],[-118.5593295,47.9333511],[-118.5532055,47.9300266],[-118.5489249,47.9280572],[-118.5408193,47.9223971],[-118.5384796,47.8950248],[-118.5389638,47.8869031],[-118.5361767,47.8817682],[-118.5280916,47.8780573],[-118.5240389,47.87586],[-118.5046258,47.8738906],[-118.4969558,47.8780573],[-118.4637729,47.8802871],[-118.4577424,47.8770115],[-118.4552888,47.8612765],[-118.4530915,47.8572238],[-118.4511221,47.8529432],[-118.4486767,47.8484348],[-118.4405917,47.8447239],[-118.436539,47.8425267],[-118.423925,47.8405573],[-118.4198723,47.83836],[-118.3837926,47.8363906],[-118.3761225,47.8405573],[-118.371842,47.8425267],[-118.3677892,47.8447239],[-118.3620805,47.8473484],[-118.359456,47.8530571],[-118.3572588,47.8571099],[-118.3552894,47.8613905],[-118.3530921,47.8654432],[-118.3511227,47.8780571],[-118.3489254,47.8821099],[-118.3458574,47.8894586],[-118.3384517,47.8924697],[-118.3345129,47.8947809],[-118.3301183,47.8966364],[-118.3261795,47.8989476],[-118.3203162,47.9014174],[-118.3166134,47.9102146],[-118.309285,47.913303],[-118.3053462,47.9156142],[-118.3009517,47.9174697],[-118.2970129,47.9197809],[-118.2926183,47.9216363],[-118.2886795,47.9239475],[-118.284285,47.925803],[-118.2803462,47.9281142],[-118.2759517,47.9299697],[-118.2720129,47.9322809],[-118.2634517,47.9341364],[-118.2553462,47.9406142],[-118.246785,47.9424697],[-118.2396968,47.9466364],[-118.2113682,47.9447809],[-118.2074293,47.9424697],[-118.2001009,47.9393813],[-118.1970125,47.9320529],[-118.186368,47.9197808],[-118.1832796,47.9124606],[-118.1574293,47.888303],[-118.1530348,47.8864476],[-118.149096,47.8841364],[-118.1378817,47.8817072],[-118.1345125,47.8737196],[-118.123868,47.8614474],[-118.1220125,47.8528862],[-118.1197013,47.8489474],[-118.1171582,47.8343398],[-118.1004631,47.8319066],[-118.0957715,47.8207696],[-118.0731073,47.7998916],[-118.0635615,47.7987035],[-118.0467851,47.8008031],[-118.0428463,47.8031143],[-118.0301184,47.8049697],[-118.0261796,47.8072809],[-118.0121661,47.8093236],[-118.0095131,47.8156141],[-118.0072019,47.8195529],[-118.0039792,47.8271946],[-117.997013,47.8322809],[-117.9926185,47.8341364],[-117.9855302,47.8383031],[-117.9738682,47.8364476],[-117.9699294,47.8341364],[-117.9613682,47.8322809],[-117.9574294,47.8299697],[-117.9447016,47.8281143],[-117.9376134,47.8239476],[-117.9301185,47.8258031],[-117.9261797,47.8281142],[-117.9217852,47.8299697],[-117.9136797,47.8364476],[-117.8926185,47.8383031],[-117.8886797,47.8406142],[-117.8842852,47.8424697],[-117.8740759,47.8506322],[-117.8666905,47.847792],[-117.8657261,47.846673],[-117.8572382,47.8447443],[-117.8490595,47.8383397],[-117.8364049,47.836411],[-117.8177322,47.8197443],[-117.7884885,47.821673],[-117.7759518,47.8324071],[-117.7707394,47.831992],[-117.7634885,47.834173],[-117.7594764,47.836411],[-117.7384885,47.8383397],[-117.7344765,47.8405776],[-117.7301552,47.8425063],[-117.7261431,47.8447443],[-117.7218219,47.846673],[-117.7178098,47.848911],[-117.7100991,47.8523533],[-117.6989053,47.8654229],[-117.6963948,47.8764702],[-117.6781125,47.8925064],[-117.6703119,47.8889296],[-117.6655714,47.8822441],[-117.6635166,47.8510226],[-117.6448929,47.834173],[-117.6322383,47.8322443],[-117.6282262,47.8300063],[-117.6205398,47.8265761],[-117.6072381,47.8114108],[-117.6053094,47.7966729],[-117.5989048,47.7864108],[-117.5930088,47.7731988],[-117.5766434,47.7470677],[-117.5596879,47.7444839],[-117.5462031,47.7328628],[-117.5375238,47.7227918],[-117.5406081,47.7080458],[-117.5367631,47.7062841],[-117.5194169,47.7029719],[-117.503796,47.6947078],[-117.4885252,47.6967097],[-117.4806515,47.7008764],[-117.472029,47.6940809],[-117.4770948,47.6845067],[-117.449092,47.6818212],[-117.4488845,47.6765554],[-117.4610629,47.672698],[-117.4572748,47.6655409],[-117.4552729,47.6612929],[-117.4489415,47.653041],[-117.4469396,47.6487929],[-117.4364415,47.6363743],[-117.4339269,47.6205784],[-117.4281897,47.6175431],[-117.4172969,47.6149511],[-117.4136063,47.6071263],[-117.4031082,47.5947076],[-117.4011062,47.5862929],[-117.3947749,47.578041],[-117.3927729,47.5737929],[-117.386417,47.5655083],[-117.3893873,47.5598933],[-117.3740677,47.5562434],[-117.3739415,47.5529634],[-117.380936,47.5438409],[-117.3698644,47.5386164],[-117.3697748,47.5363009],[-117.3727207,47.5307266],[-117.3585567,47.5273535],[-117.3489415,47.515541],[-117.3469111,47.4879897],[-117.343774,47.4790424],[-117.3261067,47.4947078],[-117.3218587,47.4967097],[-117.3110228,47.5050228],[-117.3031898,47.5008764],[-117.2822751,47.4988745],[-117.2781898,47.4967098],[-117.2697751,47.4947078],[-117.2656898,47.4925431],[-117.2447751,47.4905412],[-117.2406898,47.4883764],[-117.2322751,47.4863745],[-117.2281898,47.4842098],[-117.2239417,47.4822078],[-117.219706,47.4799658],[-117.2136431,47.4802059],[-117.2072385,47.4757951],[-117.2011187,47.4760392],[-117.1822629,47.4591284],[-117.1761431,47.4593726],[-117.1687742,47.4542986],[-117.1608316,47.4597632],[-117.1447751,47.4572078],[-117.1406898,47.4550431],[-117.132275,47.4530411],[-117.1293413,47.4468196],[-117.1072751,47.4447078],[-117.0981403,47.4377011],[-117.0927734,47.4405412],[-117.0843587,47.4425431],[-117.0764851,47.4467098],[-117.0614418,47.4447078],[-117.0573565,47.4425431],[-117.0531085,47.4405412],[-117.0488727,47.4382992],[-117.0415689,47.4385881],[-117.0399504,47.4382026],[-117.0399477,47.4348959],[-117.0399477,47.434885],[-117.0399497,47.412412],[-117.0399127,47.4051631],[-117.0398817,47.399085],[-117.0401757,47.3749],[-117.040069,47.3660279],[-117.0398429,47.347214],[-117.0398427,47.347201],[-117.0399161,47.310542],[-117.0400187,47.259272],[-117.039951,47.2402191],[-117.0398987,47.225515],[-117.0398877,47.203282],[-117.0398707,47.181858],[-117.0398357,47.154734],[-117.0398244,47.13399],[-117.0398208,47.127269],[-117.0398185,47.1230792],[-117.039801,47.0910291],[-117.0398006,47.0901573],[-117.0397781,47.0489375],[-117.0397337,46.9673426],[-117.0397303,46.9610961],[-117.0397038,46.9123769],[-117.0396826,46.873429],[-117.0396568,46.8260087],[-117.0396567,46.825798],[-117.0397156,46.8222314],[-117.0398173,46.8160734],[-117.0398277,46.815443],[-117.039534,46.7367313],[-117.0395179,46.7324027],[-117.0395179,46.7324012],[-117.0394789,46.7219432],[-117.0394663,46.7185863],[-117.0394057,46.7023328],[-117.0393977,46.700186],[-117.0394922,46.6422947],[-117.0394991,46.6380833],[-117.0395273,46.6208117],[-117.0395274,46.6207666],[-117.0396565,46.5417092],[-117.0397707,46.471779],[-117.0397627,46.46957],[-117.0397407,46.462704],[-117.0397518,46.4569513],[-117.039757,46.4542879],[-117.0397947,46.4347221],[-117.0398118,46.4259041],[-117.0398127,46.4254251],[-117.0396523,46.4252856],[-117.0365618,46.4225962],[-117.0356623,46.4205342],[-117.0356259,46.4204506],[-117.0346957,46.418318],[-117.0347721,46.4175705],[-117.0347723,46.4175705],[-117.0416912,46.4269587],[-117.0427531,46.4279799],[-117.070886,46.4285537],[-117.0760455,46.4258966],[-117.0802528,46.423854],[-117.0843788,46.42173],[-117.1081053,46.4196181],[-117.1117187,46.4196914],[-117.1197957,46.423854],[-117.1240031,46.4258966],[-117.128129,46.4280206],[-117.1679563,46.4300633],[-117.1760455,46.4258966],[-117.1997719,46.4237848],[-117.2090292,46.423976],[-117.2114625,46.4488541],[-117.2344199,46.4738134],[-117.2364625,46.5113542],[-117.2385865,46.5154801],[-117.2406291,46.5196874],[-117.2427532,46.5238134],[-117.2447958,46.5321874],[-117.2575195,46.5469415],[-117.2656697,46.5508966],[-117.2697957,46.5530206],[-117.2740031,46.5550633],[-117.2947957,46.573854],[-117.299003,46.5758966],[-117.3031289,46.5780206],[-117.3323363,46.5800632],[-117.340629,46.5863539],[-117.3448364,46.5883966],[-117.3614623,46.6030206],[-117.3656697,46.6050633],[-117.3805868,46.6179296],[-117.380188,46.6374161],[-117.3866292,46.646913],[-117.3948363,46.6508966],[-117.3989622,46.6530206],[-117.4156696,46.6550632],[-117.4239623,46.6613539],[-117.4323363,46.6633965],[-117.4462036,46.675034],[-117.4495565,46.6887872],[-117.4573363,46.6925632],[-117.4656289,46.6988539],[-117.4858964,46.7008965],[-117.4968786,46.6925632],[-117.501086,46.6905206],[-117.505212,46.6883965],[-117.513586,46.6863539],[-117.517712,46.6842298],[-117.5677527,46.6821872],[-117.5718787,46.6800632],[-117.6215696,46.6780205],[-117.6364622,46.6905206],[-117.6406696,46.6925632],[-117.6489622,46.6988539],[-117.6531695,46.7008965],[-117.6572955,46.7030205],[-117.6846228,46.7050632],[-117.6958574,46.699277],[-117.7031288,46.7030205],[-117.7221228,46.7050632],[-117.7302119,46.7008965],[-117.7344192,46.6988539],[-117.759,46.6764216],[-117.7614617,46.6613134],[-117.7804519,46.6403009],[-117.7885859,46.6363539],[-117.7927119,46.6342299],[-117.7969192,46.6321873],[-117.8010452,46.6300632],[-117.8510859,46.6280206],[-117.8616652,46.6194839],[-117.8656284,46.6113134],[-117.8678379,46.6070245],[-117.8760858,46.6030206],[-117.8843785,46.5967299],[-117.8927525,46.5946873],[-117.8968785,46.5925632],[-117.9077266,46.5904433],[-117.9696162,46.5917087],[-117.9771073,46.5878472],[-117.9854406,46.59214],[-117.9958573,46.586777],[-118.0041906,46.5910698],[-118.0104406,46.5878472],[-118.0187739,46.59214],[-118.0260451,46.5883966],[-118.0427525,46.5863539],[-118.0510451,46.5800632],[-118.0927524,46.5780206],[-118.1093784,46.5633966],[-118.1469191,46.5613539],[-118.1510451,46.5592299],[-118.1759436,46.5570163],[-118.198962,46.5780206],[-118.2031694,46.5800633],[-118.2156286,46.5905206],[-118.2208572,46.5915419],[-118.2240393,46.5925266],[-118.228092,46.5947239],[-118.2365392,46.5966933],[-118.240592,46.5988906],[-118.2448726,46.60086],[-118.2489253,46.6030572],[-118.2558384,46.6050266],[-118.2635084,46.6008599],[-118.2705275,46.5986911],[-118.2980708,46.600331],[-118.303092,46.6030572],[-118.3073726,46.6050266],[-118.3114253,46.6072239],[-118.335005,46.6091932],[-118.3426751,46.6050266],[-118.3594557,46.6030572],[-118.3635084,46.60086],[-118.3677889,46.5988906],[-118.380175,46.58836],[-118.3886223,46.5863905],[-118.3926751,46.5841933],[-118.4162551,46.5822239],[-118.4239252,46.5863905],[-118.4323725,46.5883599],[-118.4405919,46.5947239],[-118.4448725,46.5966933],[-118.4489252,46.5988905],[-118.4697421,46.6008599],[-118.4885083,46.5841933],[-118.5052889,46.5822239],[-118.5093417,46.5800266],[-118.5219556,46.5780572],[-118.5385083,46.56336],[-118.5456452,46.5600804],[-118.5489248,46.5529434],[-118.5556998,46.544195],[-118.5636222,46.5405572],[-118.5676749,46.53836],[-118.5719555,46.5363906],[-118.5760083,46.5341933],[-118.5844555,46.5322239],[-118.6120189,46.5065526],[-118.6155915,46.4987768],[-118.6177887,46.4947241],[-118.6197581,46.4862768],[-118.6219879,46.4821672],[-118.6197581,46.4780576],[-118.6177887,46.4636735],[-118.6282054,46.450974],[-118.6322581,46.4446101],[-118.6399932,46.4346249],[-118.6350046,46.4254452],[-118.6474356,46.4108332],[-118.6552888,46.407224],[-118.6718416,46.3925267],[-118.6802888,46.3905573],[-118.6869253,46.3859228],[-118.6905914,46.3779435],[-118.6990429,46.3676406],[-118.7344555,46.3655573],[-118.7550201,46.3470353],[-118.757258,46.3279436],[-118.7604402,46.3227918],[-118.7615229,46.3237931],[-118.7635248,46.3259578],[-118.7656895,46.3279597],[-118.7676915,46.3301244],[-118.7698562,46.3321264],[-118.7718581,46.3342911],[-118.7740229,46.3362931],[-118.7760249,46.3488745],[-118.7781896,46.3508764],[-118.7801915,46.3592911],[-118.7823562,46.361293],[-118.7843581,46.3634577],[-118.7886062,46.3654597],[-118.7906081,46.3676244],[-118.7927729,46.3696264],[-118.7947748,46.3759578],[-118.8052728,46.3821263],[-118.8076613,46.3847061],[-118.8198561,46.3904597],[-118.8218581,46.3926244],[-118.8240228,46.3946264],[-118.8260248,46.3967911],[-118.8281895,46.3987931],[-118.8301915,46.4030411],[-118.8323562,46.4050431],[-118.8343582,46.4155411],[-118.8385249,46.4194027],[-118.8365229,46.4238748],[-118.8343582,46.4258767],[-118.8323562,46.4384581],[-118.8301915,46.4404601],[-118.8281895,46.4426248],[-118.8260249,46.4446267],[-118.8240229,46.4572081],[-118.8218582,46.45921],[-118.8198562,46.4717915],[-118.8156082,46.4737934],[-118.8136063,46.4988747],[-118.8094397,46.5027361],[-118.8114415,46.5072077],[-118.8156083,46.5110693],[-118.8136062,46.5155414],[-118.8114415,46.5175433],[-118.8094396,46.5301247],[-118.8072748,46.5321267],[-118.8052729,46.5342914],[-118.8031081,46.5362934],[-118.8011062,46.5384581],[-118.7989415,46.5404601],[-118.7969395,46.5426248],[-118.7906082,46.5467101],[-118.7886062,46.5509581],[-118.7843581,46.5529601],[-118.7823562,46.5551248],[-118.7801915,46.5571267],[-118.7781896,46.5655414],[-118.7760249,46.5675433],[-118.7740229,46.5801247],[-118.7718581,46.5821267],[-118.7698562,46.5842914],[-118.7676915,46.5862934],[-118.7656895,46.5884581],[-118.7635248,46.59046],[-118.7615228,46.5926248],[-118.7449905,46.6004251],[-118.7427729,46.6051247],[-118.7406082,46.6071267],[-118.7369175,46.6111144],[-118.7198561,46.6176248],[-118.6993687,46.6233336],[-118.6969395,46.6259581],[-118.6864415,46.6321267],[-118.6831415,46.6356912],[-118.6682734,46.6392312],[-118.6656896,46.644708],[-118.6635249,46.64671],[-118.6615229,46.6488747],[-118.6593582,46.6508767],[-118.6573562,46.6530414],[-118.6551915,46.6550434],[-118.6531896,46.6572081],[-118.6468582,46.6612934],[-118.6441482,46.664219],[-118.6344395,46.6676248],[-118.6281081,46.6696268],[-118.6138015,46.6755065],[-118.5720168,46.6864521],[-118.5551915,46.6904601],[-118.5525263,46.6933409],[-118.5139154,46.7021219],[-118.4677321,46.7039489],[-118.4391555,46.7028177],[-118.4198562,46.7072081],[-118.3824009,46.7101989],[-118.3596798,46.7165343],[-118.3573564,46.7238747],[-118.3531084,46.7258767],[-118.3511064,46.7363746],[-118.3489416,46.7383767],[-118.3469397,46.7405414],[-118.344775,46.7425433],[-118.342773,46.744708],[-118.3406084,46.74671],[-118.3379268,46.7523944],[-118.3159134,46.760797],[-118.2873814,46.7667621],[-118.2552118,46.7680398],[-118.2239414,46.7655414],[-118.2120315,46.7630471],[-118.1677729,46.7612934],[-118.1541905,46.7602924],[-118.1426915,46.7592914],[-118.1210322,46.7547586],[-118.1011063,46.7592914],[-118.0560176,46.7628925],[-117.9959996,46.7605122],[-117.9683385,46.754726],[-117.9569004,46.750718],[-117.9531895,46.74671],[-117.9290239,46.7353088],[-117.9261065,46.7384581],[-117.9218584,46.74046],[-117.9198565,46.7426247],[-117.9135251,46.74671],[-117.9115232,46.7488747],[-117.9093585,46.7508766],[-117.9073566,46.7613746],[-117.9051918,46.7633766],[-117.9031899,46.7655414],[-117.9010252,46.7675433],[-117.8990232,46.769708],[-117.8968585,46.77171],[-117.8948565,46.7738747],[-117.8906085,46.7758767],[-117.8886065,46.7780414],[-117.8803341,46.78338],[-117.8528195,46.7899351],[-117.8364417,46.7925434],[-117.8173092,46.8011656],[-117.8010251,46.8050434],[-117.797717,46.808616],[-117.769775,46.8112934],[-117.7426266,46.8174701],[-117.7114295,46.8199604],[-117.681852,46.8324196],[-117.6780719,46.8365009],[-117.6529986,46.8424742],[-117.6198361,46.8451231],[-117.5964312,46.8441954],[-117.5583574,46.8470274],[-117.5173866,46.8439797],[-117.4885658,46.8451231],[-117.4579384,46.8439065],[-117.4299356,46.846824],[-117.4261067,46.850958],[-117.423942,46.8529599],[-117.4219401,46.857208],[-117.4197753,46.8592099],[-117.4177734,46.8613747],[-117.4156087,46.8633766],[-117.4136068,46.8676246],[-117.411442,46.8696266],[-117.4094401,46.8717913],[-117.4072754,46.8737932],[-117.4052734,46.8842913],[-117.4010253,46.8862933],[-117.3990234,46.888458],[-117.3968587,46.8904599],[-117.3948568,46.8947079],[-117.392692,46.8967099],[-117.3901122,46.8994972],[-117.3739421,46.9071266],[-117.3719401,46.9155412],[-117.3697754,46.9175432],[-117.3677734,46.9217913],[-117.3656087,46.9237932],[-117.3636069,46.9286878],[-117.4123696,46.9400281],[-117.42065,46.9429293],[-117.439392,46.947393],[-117.442692,46.9509575],[-117.45319,46.9571261],[-117.455192,46.9592909],[-117.4573567,46.9612928],[-117.4593586,46.9634575],[-117.4636067,46.9654594],[-117.4656087,46.9676242],[-117.4677734,46.9696261],[-117.4697753,46.9717909],[-117.47194,46.9737928],[-117.473942,46.9759575],[-117.4761067,46.9779595],[-117.4781087,46.9822075],[-117.4802734,46.9842095],[-117.4822753,46.9863742],[-117.48444,46.9883761],[-117.486442,46.9905408],[-117.4886067,46.9925428],[-117.4906087,46.9967908],[-117.4948567,46.9987928],[-117.4968587,47.0113742],[-117.4990234,47.0133762],[-117.5010254,47.0259576],[-117.50319,47.0279595],[-117.5051922,47.0303482],[-117.5010254,47.0342098],[-117.4990234,47.0488745],[-117.4968587,47.0508765],[-117.4948567,47.0613746],[-117.4906087,47.0633765],[-117.4886067,47.0676245],[-117.486442,47.0696265],[-117.48444,47.0717912],[-117.4822753,47.0737932],[-117.4802734,47.0780412],[-117.4781086,47.0800432],[-117.4761067,47.0822079],[-117.473942,47.0842099],[-117.47194,47.0863746],[-117.4697753,47.0883765],[-117.4677734,47.0905412],[-117.4656087,47.0925432],[-117.4636067,47.0947079],[-117.4256265,47.1122902],[-117.4133502,47.1161761],[-117.3843586,47.1217099],[-117.3823567,47.1238746],[-117.3565428,47.1300229],[-117.3124632,47.1335426],[-117.2220582,47.1267108],[-117.2198569,47.1405412],[-117.2176922,47.1425431],[-117.2156902,47.1551245],[-117.2135255,47.1571264],[-117.2115236,47.1650607],[-117.2423869,47.1796277],[-117.2453532,47.18283],[-117.2615234,47.1904594],[-117.2635254,47.1926241],[-117.2656901,47.1946261],[-117.2676921,47.1967908],[-117.2698568,47.1987927],[-117.2718587,47.2009574],[-117.2823568,47.2071261],[-117.284432,47.2115246],[-117.2927734,47.2154593],[-117.2947754,47.2176241],[-117.2969401,47.219626],[-117.2989421,47.2217908],[-117.3011068,47.2237927],[-117.3031087,47.2259574],[-117.3052734,47.2279594],[-117.3072754,47.2301241],[-117.3094402,47.2321261],[-117.3114421,47.2447075],[-117.3136068,47.2467094],[-117.315739,47.2601047],[-117.3150839,47.2766698],[-117.3102745,47.2811253],[-117.3136068,47.2842094],[-117.3156087,47.286374],[-117.3198567,47.288376],[-117.3218587,47.2905407],[-117.3240235,47.2925427],[-117.3260254,47.2967908],[-117.3281902,47.2987927],[-117.3301921,47.3092908],[-117.3323568,47.3112927],[-117.3343588,47.3259575],[-117.3376915,47.3290419],[-117.3343588,47.3321264],[-117.3323568,47.3426244],[-117.3301921,47.3446264],[-117.3281902,47.3551244],[-117.3260254,47.3571264],[-117.3240234,47.3592911],[-117.3218587,47.3612931],[-117.3198567,47.3634578],[-117.3156087,47.3654598],[-117.3136067,47.3676245],[-117.3031087,47.3737931],[-117.3011067,47.3759578],[-117.2947754,47.3800431],[-117.2927734,47.3842911],[-117.2885254,47.3862931],[-117.2865237,47.3895927],[-117.3046956,47.3981701],[-117.3072754,47.4009574],[-117.3094401,47.4029593],[-117.311442,47.405124],[-117.3136068,47.407126],[-117.3156087,47.411374],[-117.3198568,47.413376],[-117.3208578,47.4248752],[-117.3199301,47.4406143],[-117.3155354,47.4424698],[-117.31368,47.444781],[-117.3113689,47.4466364],[-117.3095135,47.4537731],[-117.3331012,47.4605194],[-117.3437742,47.4623749],[-117.3511228,47.4633596],[-117.3851195,47.4659312],[-117.388509,47.4697236],[-117.3979856,47.4726532],[-117.4219562,47.4758596],[-117.4467242,47.4811493],[-117.4687741,47.479835],[-117.4962847,47.4814748],[-117.526013,47.4883108],[-117.5413207,47.4950491],[-117.544759,47.4988902],[-117.5529499,47.50265],[-117.5551757,47.5051403],[-117.5573729,47.5071097],[-117.5593423,47.5093069],[-117.5615396,47.5112763],[-117.563509,47.5134736],[-117.5657063,47.515443],[-117.5676757,47.5176403],[-117.5698729,47.5196097],[-117.5718423,47.5218069],[-117.5740397,47.5237764],[-117.5760091,47.5363903],[-117.5802896,47.5383596],[-117.582259,47.5447236],[-117.5844563,47.546693],[-117.5864257,47.5488902],[-117.588623,47.5508597],[-117.5905924,47.5551403],[-117.5927896,47.5571096],[-117.5952757,47.5598887],[-117.6073729,47.5654429],[-117.6093423,47.5676402],[-117.6115396,47.5696096],[-117.613509,47.5718069],[-117.6157063,47.5737763],[-117.6176757,47.5759736],[-117.619873,47.577943],[-117.6218424,47.6033868],[-117.6176757,47.60711],[-117.6157063,47.6093073],[-117.613509,47.6112767],[-117.6115396,47.6155573],[-117.6093423,47.6175267],[-117.6073729,47.619724],[-117.599182,47.6234838],[-117.5969563,47.625974],[-117.594759,47.6279434],[-117.5927896,47.6301406],[-117.5905923,47.63211],[-117.5881061,47.6348892],[-117.576009,47.6404434],[-117.5729328,47.6438817],[-117.5489296,47.6504939],[-117.509973,47.6535456],[-117.5073731,47.6596366],[-117.5115396,47.6633596],[-117.513509,47.6655569],[-117.5157063,47.6675263],[-117.5176757,47.6718068],[-117.5219563,47.6737762],[-117.5239257,47.6759735],[-117.526123,47.677943],[-117.5280924,47.6884736],[-117.5302897,47.690443],[-117.5322591,47.6947235],[-117.5344563,47.6966929],[-117.5364256,47.6988901],[-117.5615394,47.7008595],[-117.5854327,47.705962],[-117.5947589,47.7093068],[-117.6185951,47.7162851],[-117.6663041,47.7126718],[-117.6760087,47.7091928],[-117.6926184,47.7046152],[-117.7037429,47.7006235],[-117.7074213,47.6965098],[-117.7330725,47.6905405],[-117.76571,47.6879852],[-117.7977696,47.6898976],[-117.8012649,47.6859833],[-117.819075,47.6778126],[-117.8448725,47.6718068],[-117.8468419,47.6696095],[-117.8746089,47.6674326],[-117.9027666,47.6691131],[-117.9051755,47.6718068],[-117.9189732,47.6758594],[-117.9218418,47.6696096],[-117.9261224,47.6676402],[-117.9280918,47.6654429],[-117.930289,47.6634735],[-117.9322584,47.6612763],[-117.9344557,47.6593069],[-117.9364251,47.6571096],[-117.9469965,47.6509531],[-117.9782057,47.6426402],[-117.9801752,47.6404429],[-118.0142451,47.6377736],[-118.0291906,47.6386647],[-118.0583572,47.6369272],[-118.1090165,47.6399464],[-118.1115882,47.6428233],[-118.1366573,47.6486582],[-118.1751663,47.6661223],[-118.1976271,47.6567799],[-118.2226556,47.6509572],[-118.2570958,47.6482594],[-118.2906692,47.6502614],[-118.3163325,47.6557464],[-118.3371008,47.6637339],[-118.340592,47.6676402],[-118.3427893,47.6696096],[-118.3449214,47.6719899],[-118.3615392,47.6758595],[-118.3844234,47.6862355],[-118.3864254,47.6884735],[-118.3886226,47.6904429],[-118.390592,47.6926402],[-118.396956,47.6966929],[-118.3989254,47.7009735],[-118.4011226,47.7029429],[-118.403092,47.7051402],[-118.4118647,47.7107228],[-118.4765781,47.7150685],[-118.5051101,47.7216277],[-118.5120763,47.7241261],[-118.515592,47.7280568],[-118.5190871,47.7311817],[-118.5396071,47.729957],[-118.5647454,47.7314584],[-118.5929396,47.7374806],[-118.6177566,47.7487355],[-118.6197586,47.7509735],[-118.6219559,47.7529429],[-118.6239253,47.7572235],[-118.6302892,47.7612762],[-118.6322586,47.7634735],[-118.6344559,47.7654429],[-118.6364253,47.7676402],[-118.6386225,47.7696096],[-118.6405919,47.7718068],[-118.6448725,47.7737762],[-118.6468419,47.7780567],[-118.8240389,47.7800261],[-118.8580356,47.7825978],[-118.8615879,47.7865732],[-118.8782056,47.7904428],[-118.8885084,47.7947234],[-118.9011507,47.7986296],[-118.920454,47.7901336],[-118.9365387,47.7863901],[-118.9385081,47.7841928],[-118.9562653,47.7792978],[-118.9593414,47.7758595],[-118.9675323,47.7720998],[-118.9697581,47.7696095],[-118.976122,47.7655568],[-118.9780914,47.7633595],[-118.9844553,47.7593068],[-118.9864247,47.7550262],[-118.9946156,47.7512664],[-118.9968414,47.7487762],[-118.9990386,47.7468068],[-119.001008,47.7446096],[-119.0032053,47.7426402],[-119.0051747,47.7404429],[-119.007372,47.7384735],[-119.0093414,47.7362762],[-119.0115386,47.7343068],[-119.0135081,47.7321095],[-119.021699,47.7283498],[-119.0239247,47.7258596],[-119.0275136,47.7226491],[-119.0490387,47.7176401],[-119.0600453,47.7130625],[-119.063508,47.7091929],[-119.0657053,47.7072235],[-119.0676747,47.7050262],[-119.0698719,47.7030568],[-119.0718414,47.7008596],[-119.0761219,47.6988902],[-119.0780913,47.6925263],[-119.0802885,47.6905569],[-119.0822579,47.6800263],[-119.0844553,47.6780569],[-119.0864247,47.6758596],[-119.0886219,47.6738902],[-119.0905913,47.6696096],[-119.0927886,47.6676402],[-119.0952748,47.664861],[-119.1120677,47.6571543],[-119.1508248,47.6481374],[-119.1530912,47.6380303],[-119.1489246,47.6343072],[-119.1469551,47.6234468],[-119.1511218,47.6197236],[-119.1530912,47.6071097],[-119.1552886,47.6051402],[-119.157258,47.602943],[-119.1594552,47.6009736],[-119.1604401,47.5998747],[-119.1733553,47.6082041],[-119.2120069,47.6243256],[-119.2330112,47.6473888],[-119.2405917,47.6655569],[-119.2643018,47.6911754],[-119.2733432,47.7108734],[-119.277213,47.7143323],[-119.2614251,47.73211],[-119.2594557,47.7363906],[-119.2280917,47.7696099],[-119.2261223,47.7738905],[-119.2155917,47.7862766],[-119.2123121,47.7934137],[-119.2015333,47.7983616],[-119.1947584,47.8071099],[-119.192789,47.8113905]]],[[[-117.0404218,46.399324],[-117.0386639,46.407265],[-117.0363853,46.4112364],[-117.0349601,46.4157361],[-117.0349596,46.415736],[-117.0355447,46.4100119],[-117.0362073,46.4083955],[-117.0364547,46.4077918],[-117.0382817,46.4060398],[-117.0404213,46.3993239],[-117.0404218,46.399324]]],[[[-117.0494738,46.3768198],[-117.0517748,46.3756407],[-117.0530545,46.3746945],[-117.0575158,46.3713958],[-117.0596677,46.3691707],[-117.0596678,46.3691707],[-117.0597048,46.3695331],[-117.0447186,46.3862364],[-117.0428306,46.394765],[-117.0406802,46.3985128],[-117.0406797,46.3985127],[-117.0414668,46.3960423],[-117.0414979,46.3959447],[-117.0417367,46.3951949],[-117.0419497,46.3921599],[-117.0469147,46.3795768],[-117.0494738,46.3768198]]],[[[-119.3240024,46.7571876],[-119.319795,46.7633969],[-119.3147169,46.7711403],[-119.3052483,46.7906551],[-119.3041904,46.8436255],[-119.30229,46.8456765],[-119.2606803,46.8648008],[-119.2406079,46.8675433],[-119.2278108,46.87796],[-119.211441,46.8759581],[-119.2104397,46.8748754],[-119.2115711,46.8736952],[-119.2240749,46.8676325],[-119.2218779,46.865521],[-119.2198353,46.863397],[-119.2036529,46.8594501],[-119.1969187,46.857147],[-119.1772654,46.8523537],[-119.1533518,46.840753],[-119.1510853,46.838397],[-119.1489613,46.8363543],[-119.1469186,46.8342303],[-119.1447946,46.8321877],[-119.142752,46.8300636],[-119.1406279,46.828021],[-119.1385853,46.825897],[-119.1364613,46.8238543],[-119.1344187,46.8217303],[-119.1302112,46.8196877],[-119.1281686,46.8113136],[-119.1260446,46.809271],[-119.1240019,46.8050636],[-119.1218779,46.803021],[-119.1198353,46.800897],[-119.1177112,46.7988543],[-119.1156686,46.7946469],[-119.1135445,46.7926043],[-119.1115019,46.7821469],[-119.1073352,46.778143],[-119.1093779,46.7717299],[-119.1115019,46.7696873],[-119.1135445,46.75923],[-119.1156686,46.7571873],[-119.1177113,46.7550632],[-119.1198352,46.7530206],[-119.1218779,46.74673],[-119.124002,46.7446873],[-119.1260446,46.7425632],[-119.1281686,46.7405206],[-119.1302113,46.7383965],[-119.1344186,46.7363539],[-119.1364612,46.7300633],[-119.1385853,46.7280206],[-119.1406279,46.7258966],[-119.142752,46.7238539],[-119.1447946,46.7217299],[-119.1469186,46.7196873],[-119.1489612,46.71548],[-119.1510853,46.7134373],[-119.1531279,46.7113132],[-119.1594186,46.7071873],[-119.1614613,46.7050632],[-119.1697254,46.7010552],[-119.1718779,46.6988132],[-119.1823353,46.6926039],[-119.1855254,46.6892877],[-119.2044993,46.6815891],[-119.2540883,46.6700534],[-119.2781484,46.6695611],[-119.293395,46.6698703],[-119.3257111,46.6657403],[-119.3414663,46.6654188],[-119.3677521,46.6675632],[-119.3781281,46.6696872],[-119.3974233,46.6720472],[-119.452107,46.6852919],[-119.4529574,46.6906916],[-119.4562738,46.6957089],[-119.4530836,46.6987728],[-119.4552646,46.7030046],[-119.4383496,46.7219501],[-119.4302115,46.725897],[-119.4169464,46.737034],[-119.411502,46.7342304],[-119.3985016,46.7321145],[-119.3340894,46.7334288],[-119.3240024,46.7571876]]]]}
}
