{
  "type": "Feature",
  "properties": {
    "id": "willapa-hills",
    "name": "Willapa Hills and Lower Columbia",
    "boundaryVersion": "mountain-led-v1",
    "derivation": "Selected GMBA broad basic ranges, plus retained historical footprint/approach neighborhoods where present, clipped to the existing complete statewide start footprint; remaining locations allocated by EPA ecoregions and the documented shoreline/state-edge repair. No mountain, elevation or terrain threshold determines eligibility.",
    "sources": {
      "gmba": {
        "authority": "Global Mountain Biodiversity Assessment (GMBA) / EarthEnv",
        "dataset": "GMBA Mountain Inventory v2.0, broad extent, basic non-overlapping ranges",
        "url": "https://data.earthenv.org/mountains/broad/GMBA_Inventory_v2.0_broad_basic.zip",
        "sha256": "sha256:638bae59339fb45ffe190079aa2fabdcd1d05fd00353863e9509bd7b16004ae0",
        "byteLength": 42672594,
        "reviewedAt": "2026-09-29T16:56:01Z",
        "coordinateReferenceSystem": "WGS84 (EPSG:4326)",
        "license": "Creative Commons Attribution 4.0 International",
        "datasetCitation": "Snethlage et al. (2022), GMBA Mountain Inventory v2, https://doi.org/10.48601/earthenv-t9k2-1407",
        "publicationCitation": "Snethlage et al. (2022), A hierarchical inventory of the world’s mountains for global comparative mountain science, Scientific Data, https://doi.org/10.1038/s41597-022-01256-y",
        "limitation": "Broad extent includes surrounding landscape and support polygons. Used to organize eligible starts, not to classify every included location as mountainous."
      },
      "epa": {
        "authority": "U.S. Environmental Protection Agency",
        "dataset": "Washington Level III Ecoregions",
        "url": "https://dmap-prod-oms-edc.s3.us-east-1.amazonaws.com/ORD/Ecoregions/wa/wa_eco_l3.zip",
        "metadataUrl": "https://dmap-prod-oms-edc.s3.us-east-1.amazonaws.com/ORD/Ecoregions/wa/wa_eco_l3.htm",
        "sha256": "sha256:e665f5a691b006feaf0c2d0ec8394c4e6d03de127267a21e054ae5bec4e6dae3",
        "byteLength": 1175130,
        "metadataDate": "2012-05-08",
        "reviewedAt": "2026-09-29T16:56:01Z",
        "license": "U.S. federal government public domain",
        "derivation": "Source NAD83 Albers Equal Area polygons transformed to WGS84 EPSG:4326 with pyshp 3.1.6 and pyproj 3.8.0; used only to allocate residual statewide coverage after the selected GMBA ranges and historical footprints."
      }
    },
    "statewideCoverage": {
      "path": "data/fixtures/coverage/washington-start-coverage.geojson",
      "sha256": "sha256:6f5274416c8dcf9bf05d2daff212a7344cdd4a73ffb461fec16d6a00084e4f3d",
      "properties": {
        "name": "Washington eligible-start coverage obligation",
        "basis": "Union of all twelve Washington effective start footprints at 8e95bc3, including the pinned Census 2025 statewide county inventory and retained historical footprints and approach neighborhoods. Used only as a gap-regression baseline; county assignments are superseded.",
        "sourceCommit": "8e95bc3",
        "license": "U.S. Census Bureau public domain; retained OpenStreetMap-derived boundaries ODbL 1.0; USDA Forest Service public domain. Original attribution retained in Git history."
      }
    },
    "gmbaSelection": [
      {
        "id": "17206",
        "name": "Willapa Hills",
        "path": "North America > American Cordillera (North America) > Pacific Coast Ranges > Oregon Coast Range > Northern Oregon Coast Range > Willapa Hills",
        "pathIds": "12159 > 12218 > 12385 > 12925 > 12926 > 17206"
      }
    ],
    "epaResiduals": [
      "EPA Coast Range residual south of 47 degrees"
    ],
    "edgeRepair": {
      "parts": 140,
      "areaSquareDegrees": 0.0026754384215512818,
      "method": "For each connected remaining part outside the EPA polygons, assign its representative point to the nearest post-EPA group by GEOS distance in EPSG:5070; tie-break by ascending region ID."
    },
    "limitation": "The source boundaries are geographic groupings with scale and vintage limitations, not legal access boundaries or proof that all trails are mapped. US-only limits and explicit exclusions still apply. Build costs and representative routes require a real-data build.",
    "authoringPrecision": {
      "method": "GEOS buffer of valid raw derived geometry by 3e-7 degrees with mitre joins and mitre_limit=2, then topology-preserving valid-output set_precision on a shared 1e-7-degree grid. No runtime normalization.",
      "implementation": "Shapely 2.1.2 / GEOS",
      "gridDegrees": 1e-07,
      "outwardBufferDegrees": 3e-07,
      "mitreLimit": 2,
      "verifiedMaximumOutwardDistanceDegrees": 8e-07,
      "maximumMeasuredOutputVertexDistanceDegrees": 7.139962870400371e-07,
      "missingRawAreaSquareDegrees": 0.0,
      "extraAreaSquareDegrees": 1.953356999881647e-06,
      "rawGeometryHash": "sha256:c7f7e5f89802b4b39b8c97c5bdbe585da9d26e4f9741c73433268f54b0ee8b9e",
      "finalGeometryHash": "sha256:9f3bbb3d714207515443d9bf6c859f750446f4d65a5daf3508bc6d6462ab4ebb",
      "hashEncoding": "UTF-8 JSON geometry, compact comma/colon separators; numeric serialization from Python 3 json.dumps.",
      "reference": "https://libgeos.org/doxygen/classgeos_1_1precision_1_1GeometryPrecisionReducer.html"
    }
  },
  "geometry": {"type":"MultiPolygon","coordinates":[[[[-124.0762623,46.2964979],[-124.0793524,46.2991183],[-124.0799075,46.299589],[-124.0713843,46.3055042],[-124.0688737,46.3134501],[-124.0677979,46.3168547],[-124.0646243,46.3268991],[-124.0642591,46.3303688],[-124.0633693,46.3388236],[-124.0633126,46.3393619],[-124.0620435,46.3514205],[-124.0603192,46.367805],[-124.0594914,46.3756701],[-124.0583513,46.386503],[-124.0579948,46.3952846],[-124.0574253,46.409315],[-124.0571517,46.4666487],[-124.0571268,46.4718677],[-124.0571213,46.4730205],[-124.0570338,46.491345],[-124.0570243,46.493338],[-124.0570529,46.493702],[-124.0574919,46.4992985],[-124.0575831,46.5004612],[-124.0585461,46.5127359],[-124.0595069,46.5249818],[-124.059579,46.5259018],[-124.0596668,46.527021],[-124.0596804,46.5271936],[-124.059971,46.5308981],[-124.0607566,46.5409108],[-124.0610905,46.5451674],[-124.0613554,46.5485438],[-124.0615644,46.5512076],[-124.0617597,46.5536975],[-124.0618584,46.5549552],[-124.061953,46.5561612],[-124.0619533,46.556165],[-124.0619595,46.5562084],[-124.0633092,46.5656485],[-124.0636883,46.5683001],[-124.0684203,46.601397],[-124.0684221,46.6014426],[-124.0685003,46.6034105],[-124.0685558,46.604805],[-124.0686888,46.6081511],[-124.0694963,46.6284627],[-124.0695821,46.6306213],[-124.0695833,46.6306511],[-124.0695821,46.6306535],[-124.0643412,46.6412562],[-124.0578538,46.645246],[-124.0578371,46.6452563],[-124.0578305,46.6452565],[-124.0509027,46.6454993],[-124.0503207,46.6420251],[-124.0490703,46.6408113],[-124.0464979,46.6383143],[-124.0353068,46.6359513],[-124.0340806,46.6311508],[-124.0440118,46.6273978],[-124.0457978,46.6242767],[-124.0513478,46.6238347],[-124.0523644,46.6200334],[-124.0523667,46.6200251],[-124.052355,46.6200123],[-124.0460328,46.6131002],[-124.0408663,46.6062483],[-124.0408625,46.6062432],[-124.0408617,46.6062421],[-124.0408559,46.6062246],[-124.0404634,46.6050401],[-124.0396339,46.6025375],[-124.0383307,46.598605],[-124.0383288,46.5985992],[-124.0322898,46.5952182],[-124.0314028,46.5941566],[-124.0308291,46.5934701],[-124.0295526,46.5919424],[-124.0287988,46.5910402],[-124.0257031,46.5860231],[-124.0256513,46.5859391],[-124.0247308,46.5844474],[-124.0235657,46.5825591],[-124.0235657,46.5825578],[-124.0235654,46.5825436],[-124.0234629,46.5780245],[-124.0234526,46.5775675],[-124.0234283,46.5764938],[-124.0233703,46.573938],[-124.0233453,46.5728331],[-124.0233399,46.5725954],[-124.0232599,46.5690649],[-124.0232448,46.5683987],[-124.0231484,46.5641431],[-124.0231477,46.564113],[-124.0231493,46.5640949],[-124.025455,46.5379748],[-124.025458,46.5379412],[-124.025584,46.5365136],[-124.0259459,46.5324138],[-124.0260088,46.5317012],[-124.0260187,46.531589],[-124.0257688,46.529507],[-124.0238229,46.5132975],[-124.0238219,46.5132895],[-124.0236814,46.5121186],[-124.0236807,46.5121128],[-124.0274837,46.5097708],[-124.0277583,46.508286],[-124.0283477,46.5050979],[-124.0283634,46.5050576],[-124.0288883,46.5037065],[-124.0302954,46.5000848],[-124.030746,46.498925],[-124.031615,46.4966881],[-124.0317367,46.496375],[-124.0310871,46.4925724],[-124.031053,46.4923728],[-124.0309588,46.4918211],[-124.0309131,46.4915537],[-124.0307944,46.4908585],[-124.0302438,46.4876359],[-124.030046,46.4864778],[-124.0300058,46.4862422],[-124.0260317,46.4629781],[-124.0253439,46.4593654],[-124.0171597,46.416382],[-124.0162087,46.394421],[-124.0160876,46.3924166],[-124.0152577,46.3786811],[-124.0071769,46.3714663],[-123.9950561,46.3739263],[-123.9848351,46.3786813],[-123.976517,46.3796653],[-123.96392,46.3767143],[-123.958055,46.3779371],[-123.9536992,46.3788453],[-123.9522733,46.3817971],[-123.9515603,46.390158],[-123.9520363,46.402616],[-123.9498964,46.4103186],[-123.95774,46.4091717],[-123.9653461,46.4086797],[-123.9667723,46.4101549],[-123.9670093,46.4157269],[-123.9700993,46.424411],[-123.9653464,46.433257],[-123.9700992,46.4391537],[-123.9884012,46.4450497],[-123.9917283,46.4488169],[-123.9906153,46.463019],[-123.9908703,46.4657379],[-123.9941813,46.4688679],[-123.9926803,46.4886171],[-123.9883862,46.4970082],[-123.983688,46.4985423],[-123.9790527,46.4973782],[-123.9792127,46.4899491],[-123.9770598,46.4874583],[-123.9720007,46.4861422],[-123.9717627,46.479922],[-123.9708297,46.4753702],[-123.9680439,46.4734973],[-123.9567889,46.4691193],[-123.9477569,46.4673193],[-123.942528,46.4651903],[-123.9394394,46.4671551],[-123.9406273,46.4709199],[-123.9436673,46.4771969],[-123.9425783,46.4878322],[-123.9319781,46.4932263],[-123.9266923,46.4943232],[-123.9269913,46.4968101],[-123.9230483,46.5014461],[-123.9211923,46.5077309],[-123.9242826,46.5111672],[-123.9242825,46.5111673],[-123.9181181,46.5114443],[-123.9172654,46.5119892],[-123.9134281,46.5144413],[-123.9122218,46.5141653],[-123.9102788,46.5092772],[-123.907398,46.5076633],[-123.8998272,46.5105223],[-123.8955393,46.5140722],[-123.8955362,46.5141059],[-123.8951373,46.518498],[-123.8967033,46.5226649],[-123.8972423,46.52848],[-123.8976634,46.5315118],[-123.8981313,46.5348802],[-123.8942542,46.5370282],[-123.8932923,46.5396099],[-123.8957053,46.5425709],[-123.8945793,46.547268],[-123.8961812,46.5502537],[-123.9033211,46.5519097],[-123.9081252,46.5533057],[-123.9169022,46.5626328],[-123.9202472,46.5673428],[-123.9225663,46.5701769],[-123.9223323,46.5770569],[-123.9288612,46.5888748],[-123.9391392,46.5963257],[-123.9536992,46.6051478],[-123.9544501,46.6063042],[-123.9591753,46.6135809],[-123.9591139,46.6169581],[-123.9589234,46.6274297],[-123.9589143,46.62793],[-123.9606424,46.6363642],[-123.9585501,46.636834],[-123.956896,46.6372053],[-123.9527488,46.6363283],[-123.9508468,46.6317582],[-123.9441919,46.6270253],[-123.9361113,46.6270253],[-123.9363493,46.6330639],[-123.9406164,46.6408621],[-123.9331651,46.6459893],[-123.9219132,46.6502622],[-123.9209163,46.653576],[-123.9206623,46.6681419],[-123.9232694,46.6727081],[-123.9155961,46.6786493],[-123.9042391,46.6790813],[-123.8956011,46.6836723],[-123.8649021,46.6986853],[-123.8603799,46.6999789],[-123.851356,46.7025603],[-123.839613,46.7015133],[-123.8365561,46.7019548],[-123.8330071,46.7024673],[-123.8291243,46.7047722],[-123.8292403,46.708985],[-123.8293563,46.7133559],[-123.8334701,46.7183217],[-123.840251,46.7182027],[-123.8470891,46.7185607],[-123.8487252,46.7198978],[-123.8548552,46.7253537],[-123.8621491,46.7277487],[-123.8707821,46.7283267],[-123.8766802,46.7306568],[-123.8796973,46.7349797],[-123.8871394,46.745643],[-123.8853014,46.7486059],[-123.8874737,46.7497219],[-123.8887601,46.7503827],[-123.893054,46.7502037],[-123.898641,46.7502047],[-123.9107158,46.7467147],[-123.9163708,46.7413218],[-123.9188057,46.7388289],[-123.9176707,46.7346442],[-123.9151308,46.7332372],[-123.9128497,46.7306471],[-123.9121047,46.7281989],[-123.9135099,46.7266797],[-123.916874,46.7267387],[-123.9208963,46.726257],[-123.921407,46.7261958],[-123.929073,46.7252777],[-123.9486831,46.7253687],[-123.968564,46.7361057],[-123.9749938,46.7333908],[-123.9796547,46.724658],[-123.9786475,46.7222651],[-123.9751567,46.7139712],[-123.9685099,46.7069096],[-123.9668854,46.7051838],[-123.973663,46.7033527],[-123.9875211,46.7075067],[-123.9942419,46.7079287],[-123.998854,46.7059577],[-124.0023422,46.7074467],[-124.0057644,46.7103349],[-124.0048434,46.7123209],[-124.0065542,46.7138998],[-124.016412,46.718926],[-124.0170841,46.7192687],[-124.0174598,46.7192208],[-124.0179816,46.7191544],[-124.0210901,46.7187584],[-124.0229974,46.7185155],[-124.0291271,46.7177347],[-124.0298534,46.7181195],[-124.0350683,46.7208821],[-124.0366972,46.721745],[-124.0372814,46.7220545],[-124.0378141,46.7223367],[-124.0393417,46.7228239],[-124.0407581,46.7232756],[-124.041518,46.7235179],[-124.0434741,46.7241417],[-124.0447335,46.7245222],[-124.0473571,46.7253147],[-124.0561391,46.7291067],[-124.0631171,46.7336637],[-124.0809831,46.7350027],[-124.0921762,46.7416238],[-124.0965153,46.7462019],[-124.0950413,46.756812],[-124.0954989,46.764626],[-124.095699,46.7680437],[-124.0957455,46.7688368],[-124.0964153,46.7802758],[-124.0964247,46.7804357],[-124.0964667,46.7811531],[-124.0966405,46.7841218],[-124.0966553,46.784374],[-124.0966563,46.7843796],[-124.0970245,46.786494],[-124.097798,46.7909356],[-124.0981276,46.792828],[-124.0983433,46.7940669],[-124.0990421,46.7980796],[-124.1007744,46.8080268],[-124.1010349,46.8095224],[-124.1012323,46.8106559],[-124.1031214,46.8177564],[-124.1036358,46.81969],[-124.1080783,46.8363879],[-124.1080906,46.8364184],[-124.1084516,46.8373137],[-124.1169314,46.858342],[-124.1170575,46.8586547],[-124.1216143,46.869955],[-124.122372,46.871834],[-124.1260973,46.8810719],[-124.1328033,46.8963869],[-124.133182,46.8981886],[-124.1343673,46.9038278],[-124.1354812,46.9043204],[-124.1382256,46.9055339],[-124.1382255,46.9055343],[-124.1381143,46.9055293],[-124.1301863,46.9051732],[-124.129298,46.9051333],[-124.1220002,46.9056753],[-124.1184602,46.9113492],[-124.1181861,46.9115412],[-124.1166566,46.9126123],[-124.1157971,46.9132143],[-124.1129855,46.9128359],[-124.1106897,46.9125269],[-124.1106409,46.9125203],[-124.1060879,46.9091304],[-124.1038806,46.9074871],[-124.1012787,46.9055499],[-124.0994929,46.9042203],[-124.0991332,46.904079],[-124.0949208,46.9024249],[-124.0929608,46.9016552],[-124.0928567,46.901403],[-124.0904225,46.8955021],[-124.0904217,46.8955],[-124.0913149,46.8918827],[-124.0916703,46.8904433],[-124.0925037,46.8870679],[-124.0950866,46.882699],[-124.0919699,46.8795046],[-124.0896717,46.8771491],[-124.0892857,46.8677162],[-124.0758543,46.8625481],[-124.0731207,46.8614963],[-124.073113,46.8614933],[-124.0708771,46.8621581],[-124.0681667,46.8629639],[-124.0680697,46.8629927],[-124.0663491,46.8635043],[-124.0663438,46.8635059],[-124.0662696,46.8635286],[-124.061064,46.8651233],[-124.0610512,46.8651273],[-124.0610213,46.8651538],[-124.0550853,46.8704292],[-124.053415,46.8764196],[-124.0529506,46.8780853],[-124.052395,46.8800783],[-124.0519506,46.8816722],[-124.0517103,46.8825338],[-124.0493186,46.8911122],[-124.0492793,46.8912532],[-124.0463442,46.8939723],[-124.0447783,46.8946698],[-124.0397995,46.8968877],[-124.0370026,46.8981336],[-124.0362401,46.8984733],[-124.0362175,46.8984784],[-124.0292803,46.9000628],[-124.0260612,46.900798],[-124.0225451,46.9016011],[-124.0136602,46.9036303],[-124.0124101,46.9056514],[-124.0095193,46.9103251],[-124.0083902,46.9126012],[-124.0054311,46.9135693],[-123.9970658,46.914319],[-123.9959351,46.9144203],[-123.9925132,46.9176312],[-123.9850821,46.9219163],[-123.9850735,46.921918],[-123.979378,46.9230383],[-123.975444,46.9221333],[-123.973718,46.9217363],[-123.9733702,46.9217261],[-123.9718159,46.9216806],[-123.966265,46.9215181],[-123.9595892,46.9213227],[-123.9578838,46.9212727],[-123.957493,46.9212613],[-123.9574929,46.9212613],[-123.9539723,46.9225322],[-123.9515689,46.9233997],[-123.948546,46.9244909],[-123.9370621,46.9286363],[-123.9294098,46.9301551],[-123.9284756,46.9303405],[-123.9191506,46.9321913],[-123.9152713,46.9329613],[-123.9152561,46.9329643],[-123.9128668,46.9334796],[-123.9087925,46.9343584],[-123.9071531,46.9347119],[-123.9067513,46.9347986],[-123.9000521,46.9362435],[-123.8983286,46.9366152],[-123.8961181,46.937092],[-123.8887503,46.9386811],[-123.8883715,46.9387628],[-123.8871699,46.9390219],[-123.8828935,46.9399443],[-123.8828841,46.9399463],[-123.8828812,46.939947],[-123.8788933,46.9409604],[-123.8776854,46.9412673],[-123.8760543,46.9416818],[-123.8702121,46.9431663],[-123.8604982,46.9473192],[-123.8595391,46.9477293],[-123.8512734,46.9516586],[-123.8505461,46.9520043],[-123.8426428,46.9533256],[-123.8420792,46.9534198],[-123.8418152,46.9534639],[-123.8396103,46.9538326],[-123.8389006,46.9539512],[-123.8389562,46.9540192],[-123.8411216,46.9566675],[-123.841454,46.9570741],[-123.8446042,46.9609268],[-123.8521193,46.9643736],[-123.8560934,46.9661963],[-123.8571661,46.9666883],[-123.8591031,46.9675767],[-123.859352,46.9676107],[-123.8601506,46.9677197],[-123.8612006,46.967863],[-123.8624179,46.9680292],[-123.866226,46.968549],[-123.8672634,46.9686906],[-123.87574,46.9698477],[-123.8765034,46.969795],[-123.8789803,46.9696238],[-123.8877361,46.9690188],[-123.8892516,46.9689141],[-123.889402,46.9689037],[-123.8894153,46.9689082],[-123.8943819,46.9706061],[-123.8968138,46.9714374],[-123.898078,46.9718696],[-123.898245,46.9719267],[-123.8998758,46.9719223],[-123.9022589,46.9719159],[-123.9025469,46.9719151],[-123.9087828,46.9718983],[-123.9103023,46.9718942],[-123.9137829,46.9718848],[-123.921617,46.9718637],[-123.9309614,46.9707353],[-123.9322129,46.9705841],[-123.9370177,46.9700039],[-123.939214,46.9697387],[-123.9468821,46.9687387],[-123.9491695,46.9704725],[-123.9492702,46.9705488],[-123.9545128,46.9764761],[-123.959181,46.981754],[-123.9591851,46.9817587],[-123.9592211,46.9817585],[-123.9765262,46.981659],[-123.983353,46.9816197],[-123.9915949,46.9802176],[-123.991612,46.9802147],[-123.9916336,46.9802199],[-124.0066,46.9838231],[-124.0118269,46.9850815],[-124.0122181,46.9851757],[-124.0122217,46.9851776],[-124.0143184,46.9862459],[-124.0137094,46.9875799],[-124.0156143,46.9886914],[-124.0157811,46.9887887],[-124.0168277,46.9889825],[-124.0186011,46.9893107],[-124.0189982,46.9895678],[-124.0191878,46.9899893],[-124.0197273,46.991189],[-124.0180001,46.9935529],[-124.0179992,46.9935543],[-124.017984,46.9935595],[-124.0177281,46.993647],[-124.0153394,46.9944648],[-124.0146691,46.9946943],[-124.0138281,46.995277],[-124.0100682,46.9978822],[-124.0099743,46.9980057],[-124.008472,46.9999823],[-124.0084492,47.0000003],[-123.5018459,47.0000003],[-123.4875217,47.001959],[-123.480116,46.9926978],[-123.4750379,46.9843402],[-123.4655328,46.9822813],[-123.4584446,46.9781146],[-123.4426163,46.9799701],[-123.4386776,46.9822812],[-123.434283,46.9841367],[-123.4303442,46.9864479],[-123.3937717,46.9873757],[-123.3805474,46.9720274],[-123.3655694,46.9697446],[-123.3615574,46.9675067],[-123.3543551,46.9642921],[-123.3495008,46.9534116],[-123.3415786,46.9489927],[-123.3381282,46.948716],[-123.3276178,46.9545795],[-123.3099173,46.9347509],[-123.3136893,46.9279882],[-123.307236,46.9197445],[-123.3053072,46.9112566],[-123.2886405,46.8925838],[-123.2905693,46.8862563],[-123.2947358,46.8787899],[-123.290724,46.87584],[-123.2864028,46.8739113],[-123.2782241,46.8675067],[-123.2671685,46.8649961],[-123.2636406,46.8570899],[-123.2488374,46.8405045],[-123.2572359,46.8297826],[-123.2547499,46.8220192],[-123.2447361,46.8197447],[-123.237412,46.8156594],[-123.2343969,46.8154153],[-123.224973,46.8161762],[-123.2198908,46.8133401],[-123.1905695,46.8114114],[-123.1824437,46.8056496],[-123.1739028,46.803078],[-123.1665786,46.7989928],[-123.1635636,46.7987486],[-123.1557469,46.7993793],[-123.150986,46.7926612],[-123.1485162,46.7871275],[-123.1323502,46.780316],[-123.116835,46.7779519],[-123.0921077,46.7675393],[-123.0521053,46.7665424],[-123.0423886,46.7672423],[-123.0319409,46.7724585],[-123.0302489,46.7659549],[-123.0280341,46.756151],[-123.0245685,46.7467373],[-123.0207557,46.7391579],[-123.0170371,46.7304921],[-123.0131263,46.7240526],[-123.0121303,46.7229867],[-123.0092727,46.7199084],[-123.0044979,46.716327],[-123.0008842,46.7129267],[-122.9989441,46.7085647],[-122.9961279,46.7015067],[-122.995186,46.6968631],[-122.9946712,46.6916464],[-122.9944956,46.6856887],[-122.995617,46.6823111],[-122.9984118,46.6783809],[-123.0011032,46.6754262],[-123.0027129,46.6726858],[-123.0038722,46.6688473],[-122.9842545,46.6673115],[-122.9718399,46.6634744],[-122.9698705,46.6612771],[-122.9465836,46.6558572],[-122.9312717,46.6498757],[-122.9302056,46.6258967],[-122.937489,46.6163022],[-122.9281672,46.6092304],[-122.9197932,46.6071878],[-122.9156673,46.6050638],[-122.9048599,46.602427],[-122.9010838,46.594647],[-122.8989597,46.590521],[-122.8969171,46.5842303],[-122.8845188,46.5723163],[-122.8802667,46.5473892],[-122.891131,46.5438613],[-122.8947931,46.5363134],[-122.8990005,46.5301041],[-122.906813,46.5181858],[-122.9218759,46.5145157],[-122.919834,46.5133972],[-122.8851618,46.5112772],[-122.8712539,46.4826069],[-122.8666883,46.4811258],[-122.8697728,46.4737931],[-122.8719375,46.4697078],[-122.8739394,46.4654597],[-122.8761041,46.4613745],[-122.8781061,46.4571264],[-122.8969375,46.4363744],[-122.9007379,46.4283218],[-122.9093562,46.4217096],[-122.9205582,46.4190444],[-122.9344618,46.4030087],[-122.9302707,46.3950864],[-122.9322727,46.3821265],[-122.9345147,46.3778907],[-122.934356,46.3738339],[-122.9345147,46.3697772],[-122.9302707,46.3617531],[-122.9322727,46.3571265],[-122.9364393,46.349253],[-122.9341567,46.3392272],[-122.9252781,46.3350362],[-122.9219374,46.3279601],[-122.9180556,46.3206317],[-122.9176894,46.311334],[-122.9178481,46.3072772],[-122.915606,46.3030414],[-122.9136041,46.29046],[-122.9101128,46.28386],[-122.9197726,46.2712624],[-122.9155981,46.2674622],[-122.9078304,46.2677715],[-122.8992569,46.2637227],[-122.8947728,46.2572082],[-122.8927708,46.2529601],[-122.8886041,46.2450864],[-122.8906061,46.2404598],[-122.9150322,46.213991],[-122.9114394,46.2072082],[-122.9094375,46.2029601],[-122.8969373,46.1881691],[-122.9051895,46.1800431],[-122.9134658,46.1761369],[-122.915606,46.1404599],[-122.9197727,46.1325864],[-122.91749,46.1225606],[-122.9114395,46.1197083],[-122.9073543,46.1175436],[-122.8958308,46.1148011],[-122.8896212,46.1057756],[-122.9011043,46.1030411],[-122.9051896,46.1008764],[-122.9136043,46.0988745],[-122.9176895,46.0967098],[-122.9250221,46.0936254],[-122.9261208,46.0946101],[-122.9335182,46.0950496],[-122.9405902,46.0988907],[-122.9490374,46.1008601],[-122.9530902,46.1030574],[-122.9573708,46.1050268],[-122.9614235,46.1072241],[-122.9657041,46.1091935],[-122.9697568,46.1113907],[-122.9740375,46.1133602],[-122.9822569,46.1197241],[-122.9865375,46.1216935],[-122.9947569,46.1280574],[-122.9983274,46.1297001],[-123.0042331,46.1338227],[-123.0094361,46.1360427],[-123.0205365,46.1387211],[-123.0221471,46.1391097],[-123.0228853,46.1394402],[-123.0338029,46.144328],[-123.0338201,46.1443357],[-123.0367924,46.1451367],[-123.0412644,46.1463419],[-123.0412971,46.1463507],[-123.0413077,46.1463586],[-123.0509547,46.1535176],[-123.0510642,46.1535987],[-123.0612945,46.1581638],[-123.0613021,46.1581672],[-123.0729551,46.1633671],[-123.0828059,46.1677627],[-123.0880523,46.1701038],[-123.1050211,46.1776757],[-123.1159041,46.1852677],[-123.1197303,46.1855484],[-123.1276013,46.1861257],[-123.1658901,46.1889343],[-123.166414,46.1889727],[-123.1664153,46.1889722],[-123.1667883,46.1888408],[-123.1683923,46.1882757],[-123.1710633,46.1873347],[-123.2037562,46.1758164],[-123.2130539,46.1725407],[-123.2224299,46.1676817],[-123.2308129,46.1642867],[-123.2420259,46.1609677],[-123.2512329,46.1564517],[-123.2655346,46.1507134],[-123.2801659,46.1448427],[-123.2802208,46.1448421],[-123.294031,46.1447025],[-123.297899,46.1446634],[-123.3006024,46.1446361],[-123.301034,46.1446317],[-123.302589,46.1447062],[-123.3219924,46.1456361],[-123.325971,46.1458267],[-123.3261659,46.1458361],[-123.3289274,46.1459684],[-123.3303393,46.1460361],[-123.3321535,46.146123],[-123.332335,46.1461317],[-123.3376054,46.146164],[-123.338577,46.14617],[-123.340655,46.1461827],[-123.346252,46.1450647],[-123.360561,46.1463047],[-123.3637431,46.1463243],[-123.3714331,46.1463717],[-123.3714344,46.1463725],[-123.3714719,46.1463939],[-123.3795411,46.1509977],[-123.3904041,46.1544277],[-123.4226456,46.1759917],[-123.4309873,46.1815708],[-123.4280544,46.2232992],[-123.4276294,46.2293473],[-123.4276293,46.2293479],[-123.4362551,46.2381988],[-123.4471904,46.2494195],[-123.4475922,46.2498318],[-123.4476019,46.2498385],[-123.4642323,46.2613959],[-123.464552,46.2616181],[-123.4687432,46.2645307],[-123.4748441,46.2678307],[-123.4796441,46.2691307],[-123.4797724,46.2691418],[-123.4812574,46.2692706],[-123.484319,46.2695361],[-123.4871292,46.2697797],[-123.501245,46.2710037],[-123.5161879,46.2661527],[-123.5263909,46.2634037],[-123.5380919,46.2606097],[-123.5476593,46.2591086],[-123.5476363,46.2655947],[-123.5522453,46.2654083],[-123.5555604,46.2652742],[-123.5571581,46.2652095],[-123.5599229,46.2650977],[-123.5629538,46.2637798],[-123.5643798,46.2613147],[-123.5691573,46.2616387],[-123.576502,46.2621367],[-123.581642,46.2605017],[-123.589094,46.2605877],[-123.603197,46.2616377],[-123.613544,46.2599877],[-123.6248831,46.2615367],[-123.6356191,46.2652217],[-123.651371,46.2654227],[-123.6695011,46.2668317],[-123.6765601,46.2709905],[-123.6791253,46.2725018],[-123.6800803,46.277943],[-123.6787731,46.283485],[-123.6780693,46.286469],[-123.6787603,46.2907209],[-123.6805742,46.2960248],[-123.6877631,46.2992347],[-123.700729,46.3046027],[-123.7154121,46.3024561],[-123.7242727,46.3011607],[-123.7240601,46.2956405],[-123.7240377,46.2950579],[-123.7278953,46.2896851],[-123.7285849,46.2887247],[-123.7414781,46.2902737],[-123.7456011,46.2923837],[-123.7502448,46.2920347],[-123.7535728,46.2811948],[-123.7595567,46.2791858],[-123.7595597,46.2750728],[-123.766682,46.2734987],[-123.7750541,46.2745987],[-123.7826541,46.2802267],[-123.795556,46.2845007],[-123.8061389,46.2835877],[-123.8117378,46.2803548],[-123.8145147,46.2763779],[-123.8154582,46.2738915],[-123.8165008,46.2711438],[-123.8169232,46.2708734],[-123.8181642,46.270079],[-123.8187629,46.2696957],[-123.824395,46.2694317],[-123.829039,46.2696727],[-123.8337768,46.2684867],[-123.8388998,46.2621367],[-123.8489549,46.2605107],[-123.8497491,46.2600826],[-123.8504979,46.259679],[-123.8523755,46.2586669],[-123.8507836,46.256714],[-123.855547,46.2527163],[-123.8595299,46.2493737],[-123.8627838,46.2491555],[-123.8658218,46.2489517],[-123.8709868,46.2415928],[-123.8745423,46.2401777],[-123.875525,46.2397867],[-123.9093061,46.2454907],[-123.9195811,46.2512167],[-123.9230922,46.2517807],[-123.9262472,46.2575368],[-123.9301117,46.2600521],[-123.9410302,46.2671587],[-123.9487082,46.2711738],[-123.9491404,46.2716199],[-123.9543532,46.2770008],[-123.9575023,46.2810309],[-123.9576095,46.2814013],[-123.9578065,46.2820819],[-123.9589283,46.2859578],[-123.9694272,46.2913978],[-123.9709123,46.2938659],[-123.9703553,46.2993519],[-123.9745092,46.3030628],[-123.9852041,46.3090387],[-123.9937475,46.3112841],[-124.0012641,46.3132597],[-124.0204145,46.3157192],[-124.0205509,46.3157367],[-124.0299238,46.3083118],[-124.0329328,46.3033228],[-124.0354959,46.3021717],[-124.0442729,46.2999587],[-124.0485265,46.2964615],[-124.0493338,46.2957978],[-124.0516396,46.2915042],[-124.0431188,46.2891133],[-124.0415817,46.2857931],[-124.0412617,46.278443],[-124.0417127,46.2770388],[-124.0420298,46.2760517],[-124.0440842,46.2759422],[-124.0472627,46.2757728],[-124.0500343,46.275625],[-124.0505678,46.2755966],[-124.0523481,46.2755017],[-124.0530202,46.2760305],[-124.0552811,46.2778097],[-124.060961,46.2787607],[-124.0610109,46.2787352],[-124.075154,46.2715017],[-124.0777683,46.2723238],[-124.0780063,46.275938],[-124.0765807,46.2927443],[-124.0763802,46.2951084],[-124.0762623,46.2964979]],[[-123.0329296,46.6716582],[-123.0330961,46.6723387],[-123.0362237,46.674933],[-123.044671,46.6766957],[-123.0569408,46.678367],[-123.0648249,46.6784675],[-123.0679457,46.6780215],[-123.0676853,46.67442],[-123.03434,46.6718078],[-123.0329296,46.6716582]]],[[[-122.939618,46.0966065],[-122.9396274,46.0966088],[-122.9442568,46.0982541],[-122.9442566,46.0982547],[-122.9396179,46.096607],[-122.939618,46.0966065]]],[[[-123.8717001,46.9606017],[-123.8767191,46.9610507],[-123.8813331,46.9633767],[-123.8858345,46.9641438],[-123.8845352,46.9657933],[-123.877166,46.9669293],[-123.8648069,46.9651443],[-123.8595779,46.9627113],[-123.8545868,46.9609272],[-123.8533976,46.9586559],[-123.8567259,46.9560597],[-123.8605291,46.9560597],[-123.8688481,46.9596287],[-123.8717001,46.9606017]]],[[[-124.1746813,46.9306539],[-124.1747893,46.931113],[-124.1745416,46.9402166],[-124.1745058,46.9415322],[-124.1745033,46.941623],[-124.1731012,46.9486798],[-124.1711613,46.958443],[-124.1711552,46.95855],[-124.1709491,46.9621803],[-124.1691498,46.9938654],[-124.1691162,46.9944562],[-124.1691133,46.994508],[-124.1691233,46.994671],[-124.1692458,46.9988273],[-124.1692639,46.9998091],[-124.1692645,47.0000003],[-124.1378461,47.0000003],[-124.1376995,46.9996909],[-124.1374437,46.999151],[-124.1374743,46.999007],[-124.1375002,46.9988851],[-124.1376648,46.9981096],[-124.1377491,46.9977127],[-124.1378871,46.9970627],[-124.1380054,46.9965055],[-124.1382073,46.9955545],[-124.1382844,46.9951912],[-124.1384718,46.9943085],[-124.1386513,46.9934634],[-124.1397327,46.98837],[-124.1383396,46.974085],[-124.1380347,46.9709591],[-124.1380237,46.9709332],[-124.1355648,46.9651583],[-124.1352014,46.9651386],[-124.1322729,46.9649799],[-124.1311352,46.9649182],[-124.1308965,46.9649053],[-124.1323775,46.9619373],[-124.1326317,46.961428],[-124.1295706,46.9538639],[-124.1283247,46.9507851],[-124.1274427,46.9455143],[-124.125564,46.9452502],[-124.119362,46.9443783],[-124.1147681,46.9465051],[-124.1133367,46.9471678],[-124.112491,46.9475593],[-124.1096549,46.9472363],[-124.1063579,46.9448566],[-124.1060317,46.9446211],[-124.1062427,46.9375508],[-124.10997,46.9358457],[-124.1201231,46.9388887],[-124.1265886,46.9416663],[-124.1271411,46.9419037],[-124.1273311,46.9419409],[-124.1350659,46.9434538],[-124.135541,46.9435467],[-124.1358178,46.9434343],[-124.1390888,46.9421067],[-124.1394366,46.9418128],[-124.1400992,46.9412527],[-124.1412669,46.9402657],[-124.1504282,46.9374065],[-124.1518757,46.9369548],[-124.1518906,46.9366999],[-124.1521091,46.9329484],[-124.1521617,46.9320448],[-124.1553604,46.9307548],[-124.1584446,46.929511],[-124.1586239,46.9294387],[-124.1586743,46.9294314],[-124.1738772,46.9272347],[-124.1746813,46.9306539]]]]}
}
