{
  "type": "Feature",
  "properties": {
    "id": "north-cascades",
    "name": "North Cascades build boundary",
    "boundaryVersion": "north-cascades-boundary-v1",
    "sourceNamedAreaIds": [
      "osm:relation/2421537",
      "osm:relation/2421484",
      "osm:relation/2421539",
      "osm:relation/6116357",
      "osm:relation/6116548",
      "osm:relation/6116621",
      "osm:relation/16156374"
    ]
  },
  "geometry": {
    "type": "Polygon",
    "coordinates": [
      [
        [
          -122.12,
          49.0
        ],
        [
          -122.12,
          48.82
        ],
        [
          -122.04,
          48.7
        ],
        [
          -121.98,
          48.62
        ],
        [
          -121.85,
          48.57
        ],
        [
          -121.76,
          48.51
        ],
        [
          -121.62,
          48.46
        ],
        [
          -121.46,
          48.42
        ],
        [
          -121.3,
          48.39
        ],
        [
          -121.13,
          48.36
        ],
        [
          -121.02,
          48.33
        ],
        [
          -120.9,
          48.23
        ],
        [
          -120.8,
          48.14
        ],
        [
          -120.6,
          48.12
        ],
        [
          -120.45,
          48.015
        ],
        [
          -120.27,
          48.025
        ],
        [
          -120.25,
          48.12
        ],
        [
          -120.23,
          48.25
        ],
        [
          -120.17,
          48.34
        ],
        [
          -120.16,
          48.43
        ],
        [
          -120.06,
          48.49
        ],
        [
          -120.02,
          48.58
        ],
        [
          -119.91,
          48.68
        ],
        [
          -119.82,
          48.75
        ],
        [
          -119.78,
          48.82
        ],
        [
          -119.78,
          49.0
        ],
        [
          -122.12,
          49.0
        ]
      ]
    ]
  }
}
