{
  "type": "Feature",
  "properties": {
    "id": "southwest-cascades",
    "name": "Southwest Cascades build boundary",
    "boundaryVersion": "southwest-cascades-boundary-v1",
    "reviewedOsmSnapshot": "washington-260801",
    "sourceNamedAreaIds": [
      "osm:relation/2455766",
      "osm:relation/6109129",
      "osm:relation/6109074",
      "osm:relation/6109053"
    ],
    "excludedNamedAreaIds": [
      "osm:relation/7320420",
      "osm:relation/6109176"
    ]
  },
  "geometry": {
    "type": "MultiPolygon",
    "coordinates": [
      [
        [
          [
            -122.18,
            45.81
          ],
          [
            -122.18,
            45.68
          ],
          [
            -122.39,
            45.68
          ],
          [
            -122.39,
            45.81
          ],
          [
            -122.26,
            45.84
          ],
          [
            -122.18,
            45.81
          ]
        ]
      ],
      [
        [
          [
            -121.864513,
            46.451643
          ],
          [
            -121.86,
            46.49
          ],
          [
            -121.59,
            46.49
          ],
          [
            -121.54,
            46.47
          ],
          [
            -121.54,
            46.36
          ],
          [
            -121.552061,
            46.358144
          ],
          [
            -121.52229,
            46.348841
          ],
          [
            -121.521621,
            46.34759
          ],
          [
            -121.519821,
            46.345938
          ],
          [
            -121.510668,
            46.339544
          ],
          [
            -121.511392,
            46.335818
          ],
          [
            -121.510489,
            46.332239
          ],
          [
            -121.508301,
            46.328547
          ],
          [
            -121.506542,
            46.323992
          ],
          [
            -121.503722,
            46.319467
          ],
          [
            -121.501136,
            46.316221
          ],
          [
            -121.499431,
            46.313508
          ],
          [
            -121.493395,
            46.307321
          ],
          [
            -121.4822,
            46.294514
          ],
          [
            -121.479064,
            46.290458
          ],
          [
            -121.477478,
            46.287643
          ],
          [
            -121.476773,
            46.284249
          ],
          [
            -121.476705,
            46.281008
          ],
          [
            -121.477659,
            46.277966
          ],
          [
            -121.479766,
            46.273596
          ],
          [
            -121.48049,
            46.270335
          ],
          [
            -121.48148,
            46.261888
          ],
          [
            -121.479595,
            46.25658
          ],
          [
            -121.474933,
            46.250371
          ],
          [
            -121.472138,
            46.247893
          ],
          [
            -121.470971,
            46.245658
          ],
          [
            -121.468343,
            46.242679
          ],
          [
            -121.465616,
            46.238916
          ],
          [
            -121.466386,
            46.233671
          ],
          [
            -121.468571,
            46.22984
          ],
          [
            -121.468441,
            46.228386
          ],
          [
            -121.467354,
            46.226424
          ],
          [
            -121.469948,
            46.225025
          ],
          [
            -121.470638,
            46.224076
          ],
          [
            -121.471304,
            46.222195
          ],
          [
            -121.473791,
            46.220445
          ],
          [
            -121.477154,
            46.218768
          ],
          [
            -121.483036,
            46.217072
          ],
          [
            -121.486795,
            46.214747
          ],
          [
            -121.490408,
            46.211896
          ],
          [
            -121.493294,
            46.207921
          ],
          [
            -121.493984,
            46.204645
          ],
          [
            -121.493756,
            46.201371
          ],
          [
            -121.491674,
            46.197781
          ],
          [
            -121.48994,
            46.196073
          ],
          [
            -121.490402,
            46.194936
          ],
          [
            -121.490737,
            46.19247
          ],
          [
            -121.490505,
            46.191012
          ],
          [
            -121.4894,
            46.189517
          ],
          [
            -121.487266,
            46.188164
          ],
          [
            -121.486447,
            46.186736
          ],
          [
            -121.485631,
            46.184998
          ],
          [
            -121.484829,
            46.180305
          ],
          [
            -121.48322,
            46.177449
          ],
          [
            -121.480364,
            46.174751
          ],
          [
            -121.480091,
            46.173564
          ],
          [
            -121.479252,
            46.1721
          ],
          [
            -121.478598,
            46.168536
          ],
          [
            -121.477701,
            46.167361
          ],
          [
            -121.47514,
            46.165391
          ],
          [
            -121.472211,
            46.164211
          ],
          [
            -121.472618,
            46.159599
          ],
          [
            -121.47212,
            46.157747
          ],
          [
            -121.470114,
            46.155903
          ],
          [
            -121.469071,
            46.153776
          ],
          [
            -121.467426,
            46.15266
          ],
          [
            -121.465484,
            46.148613
          ],
          [
            -121.464533,
            46.147842
          ],
          [
            -121.463359,
            46.147452
          ],
          [
            -121.461563,
            46.145721
          ],
          [
            -121.460719,
            46.143938
          ],
          [
            -121.460629,
            46.142778
          ],
          [
            -121.459551,
            46.13948
          ],
          [
            -121.457891,
            46.137785
          ],
          [
            -121.456895,
            46.137242
          ],
          [
            -121.454709,
            46.133062
          ],
          [
            -121.453192,
            46.131615
          ],
          [
            -121.452187,
            46.129597
          ],
          [
            -121.449496,
            46.126301
          ],
          [
            -121.44868,
            46.123323
          ],
          [
            -121.444934,
            46.118927
          ],
          [
            -121.444025,
            46.116523
          ],
          [
            -121.442313,
            46.1146
          ],
          [
            -121.439898,
            46.113788
          ],
          [
            -121.439407,
            46.112592
          ],
          [
            -121.43765,
            46.110137
          ],
          [
            -121.438205,
            46.108746
          ],
          [
            -121.43822,
            46.106237
          ],
          [
            -121.437732,
            46.10519
          ],
          [
            -121.436963,
            46.104458
          ],
          [
            -121.437226,
            46.103048
          ],
          [
            -121.436935,
            46.101849
          ],
          [
            -121.435927,
            46.100593
          ],
          [
            -121.434711,
            46.099718
          ],
          [
            -121.435263,
            46.098474
          ],
          [
            -121.62,
            46.08
          ],
          [
            -121.64,
            45.91
          ],
          [
            -121.7,
            45.87
          ],
          [
            -121.93,
            45.84
          ],
          [
            -122.11,
            45.82
          ],
          [
            -122.15,
            45.89
          ],
          [
            -122.22,
            45.9
          ],
          [
            -122.19,
            46.01
          ],
          [
            -122.43,
            46.01
          ],
          [
            -122.48,
            46.18
          ],
          [
            -122.51,
            46.33
          ],
          [
            -122.5,
            46.51
          ],
          [
            -122.11,
            46.51
          ],
          [
            -122.04,
            46.46
          ],
          [
            -121.864513,
            46.451643
          ]
        ]
      ]
    ]
  }
}
