{
  "type": "Feature",
  "properties": {
    "id": "canada-de-los-osos",
    "name": "Cañada de los Osos Ecological Reserve — outside reviewed Henry Coe footprint",
    "authority": "Alpine Loop retained coverage policy; mapped extent from OpenStreetMap contributors",
    "sourceUrl": "https://download.geofabrik.de/north-america/us/california/norcal-260801.osm.pbf",
    "sourceSha256": "215f18449e6cd190200a7dc1188a63dba2bec1f20fb3d1637c4f11c1f9134342",
    "sourceObject": "way/79436065",
    "sourceObjectUrl": "https://www.openstreetmap.org/way/79436065",
    "reviewedAt": "2026-09-29",
    "policySourceUrls": [
      "https://wildlife.ca.gov/Lands/Planning/Canada-de-los-Osos-ER",
      "https://nrm.dfg.ca.gov/FileHandler.ashx?DocumentID=84909&inline="
    ],
    "policyBasis": "Preserve the explicit Henry Coe charter exclusion. The CDFW management plan describes youth educational use and excludes informal public access; this product does not model special-program authorization. This exclusion applies only to the newly reachable buffer outside the prior Henry Coe footprint; source way-level restrictions continue to apply within that footprint.",
    "priorDecision": "data/regions/henry-coe/charter.md: explicit exclusions",
    "attribution": "© OpenStreetMap contributors; Open Database License (ODbL) 1.0",
    "derivation": "Product exclusion = exact pinned OSM polygon minus the existing reviewed Henry Coe start footprint, using polygon-clipping difference without padding or simplification. Original mapped polygon geometry hash uses SHA-256 of JSON.stringify(geometry). The subtraction preserves previously reviewed park/entrance coverage rather than treating overlapping mapped boundaries as a legal determination.",
    "sourceTags": {
      "leisure": "nature_reserve",
      "name": "Rancho Cañada de los Osos Ecological Reserve"
    },
    "limitation": "Preserves the previous product exclusion against newly extended route buffers. It is not a current cadastral boundary or a grant of access to the preserved footprint. The mapped reserve overlaps previously reviewed Coe land; the CDFW management plan records land transferred for a State Parks entrance, so raw OSM overlap is not used to remove established park coverage.",
    "sourceGeometrySha256": "bb852cf34f65abf8ea323c25b76f2aecd0449afadffc05489e3b5b009c85e31a",
    "preservedFootprint": {
      "path": "data/regions/henry-coe/boundary.geojson",
      "sha256": "7d410a95a6598585b8cc7e603bd880869be5edb84cd4aa0159f6ba254d6438e4"
    }
  },
  "geometry": {
    "type": "MultiPolygon",
    "coordinates": [
      [
        [
          [
            -121.42955996459105,
            37.043084576015964
          ],
          [
            -121.4295557,
            37.0423863
          ],
          [
            -121.4294948,
            37.0324609
          ],
          [
            -121.42943510326208,
            37.032461393505415
          ],
          [
            -121.42955996459105,
            37.043084576015964
          ]
        ]
      ],
      [
        [
          [
            -121.42880727834788,
            37.032466583654966
          ],
          [
            -121.4284666,
            37.0324694
          ],
          [
            -121.4283647,
            37.0347297
          ],
          [
            -121.4280803,
            37.0346868
          ],
          [
            -121.4241877,
            37.0342083
          ],
          [
            -121.4181377,
            37.033435
          ],
          [
            -121.4152317,
            37.0330442
          ],
          [
            -121.412203,
            37.0326605
          ],
          [
            -121.4110685,
            37.0329523
          ],
          [
            -121.410919,
            37.034185
          ],
          [
            -121.4101929,
            37.0337908
          ],
          [
            -121.4096328,
            37.0338116
          ],
          [
            -121.4094668,
            37.034185
          ],
          [
            -121.4091764,
            37.0347036
          ],
          [
            -121.4087615,
            37.0347659
          ],
          [
            -121.4085333,
            37.0345377
          ],
          [
            -121.4079732,
            37.0345377
          ],
          [
            -121.4074131,
            37.0347866
          ],
          [
            -121.4068529,
            37.0347451
          ],
          [
            -121.4060646,
            37.0351808
          ],
          [
            -121.4052348,
            37.0355542
          ],
          [
            -121.4041768,
            37.0351393
          ],
          [
            -121.4021645,
            37.0347451
          ],
          [
            -121.4008576,
            37.0344754
          ],
          [
            -121.3983258,
            37.0347447
          ],
          [
            -121.3976545,
            37.0348212
          ],
          [
            -121.3973911,
            37.0351611
          ],
          [
            -121.3968218,
            37.0351611
          ],
          [
            -121.3964224,
            37.0348891
          ],
          [
            -121.3956492,
            37.0349401
          ],
          [
            -121.394791,
            37.035178
          ],
          [
            -121.3933634,
            37.0361977
          ],
          [
            -121.3834812,
            37.036145
          ],
          [
            -121.3834812,
            37.0396457
          ],
          [
            -121.3827292,
            37.0403718
          ],
          [
            -121.3818216,
            37.0403459
          ],
          [
            -121.381303,
            37.0405014
          ],
          [
            -121.3809659,
            37.0413831
          ],
          [
            -121.3801879,
            37.0416165
          ],
          [
            -121.3778022,
            37.0431983
          ],
          [
            -121.3639289,
            37.0430168
          ],
          [
            -121.3633584,
            37.0393086
          ],
          [
            -121.362762,
            37.0339667
          ],
          [
            -121.3611024,
            37.034226
          ],
          [
            -121.3580684,
            37.0339927
          ],
          [
            -121.3557605,
            37.0360672
          ],
          [
            -121.3551901,
            37.0363006
          ],
          [
            -121.354438,
            37.0354967
          ],
          [
            -121.3534267,
            37.034615
          ],
          [
            -121.352934,
            37.0331369
          ],
          [
            -121.351819,
            37.0310624
          ],
          [
            -121.3507817,
            37.0299992
          ],
          [
            -121.3508076,
            37.0254353
          ],
          [
            -121.3379975,
            37.0237238
          ],
          [
            -121.3364157,
            37.0289101
          ],
          [
            -121.3350967,
            37.0328747
          ],
          [
            -121.3328981,
            37.0397575
          ],
          [
            -121.3315173,
            37.0439317
          ],
          [
            -121.3309437,
            37.0454825
          ],
          [
            -121.3304976,
            37.0469164
          ],
          [
            -121.330094,
            37.0482653
          ],
          [
            -121.3296798,
            37.0494549
          ],
          [
            -121.3294164,
            37.0502197
          ],
          [
            -121.3294333,
            37.0504916
          ],
          [
            -121.3344529,
            37.0505651
          ],
          [
            -121.3450727,
            37.0504659
          ],
          [
            -121.3450727,
            37.0502734
          ],
          [
            -121.3458639,
            37.0502734
          ],
          [
            -121.3458639,
            37.0516491
          ],
          [
            -121.3474407,
            37.0515746
          ],
          [
            -121.3484944,
            37.0511328
          ],
          [
            -121.3492251,
            37.0516766
          ],
          [
            -121.3505337,
            37.0516596
          ],
          [
            -121.3515194,
            37.0518125
          ],
          [
            -121.3524116,
            37.0516426
          ],
          [
            -121.3535247,
            37.0514047
          ],
          [
            -121.3551477,
            37.0515831
          ],
          [
            -121.3551732,
            37.0519145
          ],
          [
            -121.3578583,
            37.051923
          ],
          [
            -121.3583171,
            37.0522289
          ],
          [
            -121.3590479,
            37.0523394
          ],
          [
            -121.3598126,
            37.0521184
          ],
          [
            -121.360331,
            37.0524158
          ],
          [
            -121.3608833,
            37.0532231
          ],
          [
            -121.3617755,
            37.0536649
          ],
          [
            -121.3621069,
            37.0541408
          ],
          [
            -121.3633305,
            37.054846
          ],
          [
            -121.3638658,
            37.0548375
          ],
          [
            -121.3638412,
            37.0467085
          ],
          [
            -121.366799,
            37.0467491
          ],
          [
            -121.3668356,
            37.0506829
          ],
          [
            -121.3759183,
            37.050683
          ],
          [
            -121.37594,
            37.0578654
          ],
          [
            -121.3854664,
            37.0581156
          ],
          [
            -121.3961033,
            37.0585662
          ],
          [
            -121.4010199,
            37.0588981
          ],
          [
            -121.4031522,
            37.0588821
          ],
          [
            -121.4031557,
            37.058106
          ],
          [
            -121.40404096108345,
            37.05809571630098
          ],
          [
            -121.4046965,
            37.0580826
          ],
          [
            -121.40929322836087,
            37.05502418351555
          ],
          [
            -121.4092523,
            37.051887
          ],
          [
            -121.41602014119542,
            37.051872382417635
          ],
          [
            -121.41602,
            37.051845
          ],
          [
            -121.4160582065639,
            37.0518392748574
          ],
          [
            -121.4160552,
            37.0507766
          ],
          [
            -121.41608930594857,
            37.05077600446671
          ],
          [
            -121.4160831,
            37.0506701
          ],
          [
            -121.41808989420936,
            37.050620901901105
          ],
          [
            -121.42149644358774,
            37.04859137307953
          ],
          [
            -121.4250101,
            37.04646
          ],
          [
            -121.4250058,
            37.0464337
          ],
          [
            -121.4237239,
            37.0454037
          ],
          [
            -121.422902,
            37.0454339
          ],
          [
            -121.4217187,
            37.0447014
          ],
          [
            -121.4209456,
            37.0440325
          ],
          [
            -121.4206161,
            37.043639
          ],
          [
            -121.4206961,
            37.0432401
          ],
          [
            -121.4211088,
            37.0428914
          ],
          [
            -121.4209701,
            37.0340601
          ],
          [
            -121.4283566,
            37.0350001
          ],
          [
            -121.42880727834788,
            37.032466583654966
          ]
        ]
      ]
    ]
  }
}
