{"type":"Feature","id":"a12247375","geometry":{"type":"MultiPolygon","coordinates":[[[[-124.4364202,47.7507943],[-124.4362164,47.7501739],[-124.43465,47.7492217],[-124.4342423,47.7487961],[-124.4338989,47.7486734],[-124.4338882,47.7485219],[-124.4341523,47.7483055],[-124.4339923,47.7482396],[-124.4338154,47.7481826],[-124.4337165,47.7483993],[-124.4328612,47.7480707],[-124.4323723,47.7478208],[-124.4313642,47.7472891],[-124.4307291,47.7468778],[-124.4302294,47.7464444],[-124.4294495,47.7456405],[-124.4286717,47.7445854],[-124.4277397,47.7433744],[-124.4272833,47.7427834],[-124.4268824,47.7421694],[-124.4265333,47.7416674],[-124.4262911,47.741267],[-124.4259945,47.7407968],[-124.4258188,47.7404491],[-124.4257005,47.7402803],[-124.4252346,47.7394706],[-124.4249913,47.738965],[-124.4244845,47.7381061],[-124.424116,47.7374236],[-124.4239913,47.7371751],[-124.4239252,47.7369542],[-124.4238031,47.7366509],[-124.4236701,47.7364056],[-124.4236664,47.7363844],[-124.4236534,47.7363096],[-124.423663,47.7361923],[-124.4234997,47.7359091],[-124.4233906,47.7357197],[-124.4231876,47.7353014],[-124.4229895,47.7348187],[-124.4228307,47.7343476],[-124.4227691,47.7342161],[-124.422521,47.7335097],[-124.4223496,47.7330207],[-124.4117246,47.7332222],[-124.4121973,47.7370467],[-124.4122428,47.7375231],[-124.4124726,47.7394757],[-124.4118887,47.7395874],[-124.4119692,47.7405662],[-124.4118726,47.7406672],[-124.4121462,47.7421047],[-124.4128511,47.7426152],[-124.413249,47.742916],[-124.418268,47.746689],[-124.4182523,47.7471197],[-124.4182395,47.747553],[-124.4193696,47.7478252],[-124.4215872,47.7489398],[-124.4208158,47.7492378],[-124.420968,47.7493479],[-124.4213047,47.7493956],[-124.4218853,47.7491387],[-124.4224888,47.7490684],[-124.4229072,47.7491603],[-124.42308219056116,47.7492242552213],[-124.4238621,47.7494291],[-124.4240284,47.7493768],[-124.4241411,47.7494543],[-124.425647,47.7496512],[-124.4269527,47.7498322],[-124.4278961,47.7498565],[-124.4283843,47.7498853],[-124.4288296,47.7498312],[-124.4293175065145,47.749868977910644],[-124.4295323,47.7498709],[-124.4302994,47.7499034],[-124.4310665,47.7500044],[-124.4336307,47.7504985],[-124.4348216,47.7506211],[-124.4362753,47.7509038],[-124.4364202,47.7507943]]]]},"properties":{"id":"hoh-reservation-exclusion","name":"Hoh Indian Reservation","sourceUrl":"https://www.openstreetmap.org/relation/6123687","sourceSnapshotUrl":"https://download.geofabrik.de/north-america/us/washington-260801.osm.pbf","sourceSnapshot":"washington-260801","sourceSha256":"3bea264079e184675aac7d8ab104bff5339b9e3656a36c084f96f616271a0e4e","attribution":"OpenStreetMap contributors, ODbL 1.0","policySources":["data/regions/olympic-peninsula/charter.md","docs/rebuild/olympic-peninsula-pack.md"],"extractedAt":"2026-09-29T02:11:47Z","sourceGeometrySha256":"6a46b3d6788637f7d48d3cd24645b922ca1df888a15025afa1e1987a55e1f02c","policy":"Preserve the historical Olympic coverage decision to exclude unreviewed tribal approaches: subtract the retained, previously reviewed Olympic footprint from this reservation polygon. This is a conservative product scope, not a claim that all tribal land is closed or that a permit cannot authorize recreation. The OSM polygon is mapping evidence, not a surveyed legal boundary.","derivation":"Pinned reservation polygon minus data/regions/olympic-peninsula/boundary.geojson; no smoothing or coordinate rounding.","retainedFootprintSha256":"c076ee9733b2f1169168101ff06e86f6cc19d05848bf72f656b1a0986ea21cd1"}}
