{"type":"Feature","id":"a6879807","geometry":{"type":"MultiPolygon","coordinates":[[[[-124.7455114,48.3910291],[-124.7454061,48.3910271],[-124.7453002,48.3909904],[-124.7451587,48.3910333],[-124.7451447,48.3910853],[-124.7451947,48.3911052],[-124.7452427,48.3911065],[-124.7453179,48.3911],[-124.7453182,48.391111],[-124.7452956,48.3911282],[-124.7453589,48.3911509],[-124.7454553,48.391134],[-124.7454861,48.3911111],[-124.7454822,48.3910933],[-124.74545,48.391076],[-124.7454725,48.3910579],[-124.7455114,48.3910291]]],[[[-124.742775,48.391109],[-124.742644,48.391057],[-124.742353,48.391066],[-124.742321,48.391147],[-124.7422209,48.3911578],[-124.741983,48.391184],[-124.741832,48.391186],[-124.741634,48.391212],[-124.741648,48.391288],[-124.741696,48.391328],[-124.741803,48.39138],[-124.741676,48.391418],[-124.741643,48.391459],[-124.7415973,48.3914881],[-124.7415286,48.3914581],[-124.741466,48.39143],[-124.741324,48.391369],[-124.7411066,48.3913691],[-124.7411058,48.3915176],[-124.7410585,48.3916316],[-124.7411,48.391647],[-124.7411283,48.3916812],[-124.7410776,48.3917279],[-124.7411129,48.39185],[-124.7411913,48.3919075],[-124.7413408,48.3918581],[-124.741391,48.391953],[-124.741625,48.391981],[-124.741729,48.391948],[-124.741891,48.391883],[-124.741817,48.3918366],[-124.741758,48.391763],[-124.7418159,48.3917514],[-124.741958,48.391796],[-124.742087,48.391826],[-124.742484,48.391819],[-124.742551,48.391751],[-124.742291,48.391651],[-124.742138,48.391613],[-124.742055,48.39157],[-124.742172,48.391568],[-124.742474,48.391541],[-124.742772,48.391379],[-124.742746,48.391294],[-124.742569,48.391229],[-124.742775,48.391109]]],[[[-124.7409966,48.3908951],[-124.740663,48.390812],[-124.7404355,48.3908899],[-124.740285,48.3909414],[-124.7403647,48.3910304],[-124.740205,48.391071],[-124.7402273,48.3911443],[-124.7401455,48.3911237],[-124.7400684,48.3910392],[-124.7399228,48.3910303],[-124.7398752,48.391101],[-124.7398208,48.3911329],[-124.7396456,48.3910398],[-124.7393319,48.3909563],[-124.739134,48.391146],[-124.73904,48.391125],[-124.7388732,48.3911266],[-124.7388181,48.3911688],[-124.7387154,48.3911192],[-124.7385441,48.391103],[-124.7384045,48.3911229],[-124.7382987,48.3912272],[-124.738347,48.391356],[-124.738456,48.391476],[-124.738682,48.391589],[-124.738614,48.391644],[-124.738559,48.391749],[-124.738561,48.391816],[-124.738692,48.391882],[-124.7387801,48.3918631],[-124.7387645,48.3919627],[-124.739108,48.3920065],[-124.7392204,48.3920546],[-124.739602,48.3921099],[-124.740029,48.3920624],[-124.740179,48.392025],[-124.7402563,48.3919906],[-124.7404255,48.3919864],[-124.7403668,48.3918443],[-124.7404702,48.3919389],[-124.740539,48.3919174],[-124.7404995,48.3917974],[-124.7403605,48.3916972],[-124.740441,48.391683],[-124.7404149,48.3916111],[-124.7403415,48.3914756],[-124.7403674,48.3914395],[-124.7404305,48.3915276],[-124.7404929,48.3915707],[-124.7406233,48.3916126],[-124.7405131,48.3916364],[-124.7405385,48.3917195],[-124.7406932,48.3918562],[-124.7408014,48.391841],[-124.7408901,48.391771],[-124.7408777,48.3916165],[-124.7409149,48.3912695],[-124.7409931,48.3909742],[-124.7409966,48.3908951]]],[[[-124.739765,48.3932831],[-124.7397024,48.3932315],[-124.7396039,48.3931496],[-124.7395064,48.3931232],[-124.7393999,48.3930735],[-124.7394878,48.3929348],[-124.7393614,48.3928251],[-124.7391196,48.3928154],[-124.738794,48.3926211],[-124.7385174,48.3926599],[-124.7380457,48.3927524],[-124.737847,48.392776],[-124.7377082,48.3928026],[-124.7375145,48.3928569],[-124.7374714,48.3930188],[-124.7373532,48.3930887],[-124.7374287,48.3932348],[-124.7375539,48.3932414],[-124.7379365,48.3932981],[-124.7382537,48.3933026],[-124.7386299,48.393256],[-124.7385234,48.3933098],[-124.7387154,48.393415],[-124.7389538,48.3934847],[-124.7392011,48.3934381],[-124.7394032,48.3933815],[-124.739758,48.3933678],[-124.739765,48.3932831]]],[[[-124.738707,48.392322],[-124.7386,48.392261],[-124.738306,48.392216],[-124.737631,48.3922535],[-124.7375704,48.3923408],[-124.7373184,48.3923283],[-124.737173,48.3923222],[-124.737243,48.392196],[-124.737554,48.392065],[-124.7376273,48.3920186],[-124.737563,48.3918067],[-124.7375968,48.391764],[-124.7374983,48.3916486],[-124.737389,48.3916002],[-124.737389,48.3914439],[-124.7372313,48.3913687],[-124.7370226,48.3913095],[-124.737036,48.391259],[-124.7371694,48.3912922],[-124.7371761,48.3912053],[-124.7370445,48.391183],[-124.7370062,48.3911484],[-124.7368191,48.3911372],[-124.7369271,48.3910807],[-124.7368834,48.3909828],[-124.7367771,48.3908864],[-124.7364006,48.3908711],[-124.7362686,48.3909189],[-124.7362169,48.3908526],[-124.736377,48.3907736],[-124.7365397,48.3906413],[-124.7368663,48.3903578],[-124.7368792,48.3903582],[-124.7370181,48.3903622],[-124.7369867,48.3902542],[-124.7368781,48.3901709],[-124.736621,48.390019],[-124.7364884,48.3900114],[-124.7363977,48.390032],[-124.7363657,48.3899635],[-124.736003,48.3898996],[-124.7359837,48.3899277],[-124.7356029,48.3898668],[-124.7355273,48.3898997],[-124.7355601,48.3899562],[-124.7358033,48.3900334],[-124.7359536,48.3900924],[-124.7357349,48.3900354],[-124.7355446,48.390009],[-124.7353826,48.389943],[-124.7353213,48.3899734],[-124.7351732,48.389891],[-124.7348812,48.3898177],[-124.7347675,48.3897376],[-124.73469,48.3896828],[-124.7345477,48.3896901],[-124.734277,48.389753],[-124.7340963,48.3898804],[-124.7344759,48.3899754],[-124.7346051,48.3899766],[-124.7347696,48.3900489],[-124.7345765,48.3900374],[-124.7344645,48.3899913],[-124.7343082,48.3899618],[-124.7341376,48.3899759],[-124.734443,48.39016],[-124.7344784,48.3902854],[-124.7344178,48.3903079],[-124.734331,48.3902371],[-124.73399,48.390013],[-124.7338857,48.389949],[-124.733661,48.390172],[-124.733548,48.390281],[-124.7337314,48.3903517],[-124.733784,48.390372],[-124.7340114,48.3904632],[-124.7339293,48.3905472],[-124.7333573,48.3905019],[-124.7332886,48.3906216],[-124.7336061,48.390645],[-124.733704,48.3907069],[-124.7336413,48.390722],[-124.7330542,48.3906489],[-124.73289,48.3908122],[-124.7329585,48.3908823],[-124.732876,48.3909778],[-124.7328631,48.3911758],[-124.7328017,48.3913443],[-124.7328312,48.3913795],[-124.7327946,48.3915827],[-124.7329615,48.3916352],[-124.7331992,48.3916877],[-124.7331375,48.3917942],[-124.733217,48.391874],[-124.7334007,48.3919175],[-124.7335861,48.3919614],[-124.7340631,48.3918811],[-124.734056,48.3920011],[-124.7339569,48.392127],[-124.733743,48.3920871],[-124.7336388,48.3920676],[-124.7335276,48.392044],[-124.7333367,48.392003],[-124.733198,48.392005],[-124.7331776,48.3920751],[-124.733191,48.39214],[-124.73334,48.3921857],[-124.7334322,48.3921514],[-124.7334998,48.3922163],[-124.733722,48.392223],[-124.733678,48.3922852],[-124.733497,48.3922594],[-124.733357,48.3922868],[-124.733162,48.392325],[-124.733177,48.392406],[-124.73326,48.392463],[-124.733566,48.392521],[-124.733991,48.3925606],[-124.734016,48.3926511],[-124.7342815,48.39274],[-124.7343063,48.3927696],[-124.7341923,48.3928131],[-124.7336993,48.3926775],[-124.733429,48.392618],[-124.733407,48.392659],[-124.733738,48.392775],[-124.7341488,48.3928429],[-124.734237,48.3929114],[-124.7341266,48.39294],[-124.7340831,48.3929713],[-124.7340264,48.3929559],[-124.7339292,48.392919],[-124.7338854,48.3929538],[-124.7338952,48.392983],[-124.7339683,48.3930721],[-124.7340713,48.3931177],[-124.7343013,48.3933104],[-124.7343662,48.3933244],[-124.7344623,48.39331],[-124.7345552,48.393283],[-124.7346392,48.3931948],[-124.7347995,48.3932367],[-124.734863,48.3932371],[-124.7349184,48.3932304],[-124.7349474,48.3932118],[-124.7349737,48.3931806],[-124.7350712,48.3931173],[-124.7351761,48.3930253],[-124.7352348,48.3929435],[-124.7352539,48.3928831],[-124.7353956,48.3928036],[-124.7354415,48.3927869],[-124.7354799,48.3927257],[-124.735617,48.392731],[-124.7357653,48.392738],[-124.7360257,48.3925707],[-124.7361305,48.3925808],[-124.7361342,48.392729],[-124.7362708,48.3929285],[-124.7363796,48.3931086],[-124.7364764,48.3931384],[-124.7365658,48.393019],[-124.73665,48.3929062],[-124.736872,48.3928279],[-124.7369633,48.3929],[-124.737118,48.392981],[-124.737224,48.392988],[-124.7373558,48.3929346],[-124.7373779,48.3928075],[-124.7374771,48.3927015],[-124.7375826,48.3926782],[-124.7380528,48.392668],[-124.7385973,48.3925765],[-124.7386466,48.3925038],[-124.737963,48.392419],[-124.737793,48.3923714],[-124.737763,48.392363],[-124.738614,48.392351],[-124.738707,48.392322]]],[[[-124.7386153,48.3946131],[-124.7385212,48.3945338],[-124.7384819,48.3944878],[-124.7380871,48.3945653],[-124.737758,48.394622],[-124.73749,48.39463],[-124.737293,48.394683],[-124.737117,48.394663],[-124.7370568,48.3946326],[-124.7370507,48.3946292],[-124.7371801,48.3945924],[-124.7373095,48.3945556],[-124.7375299,48.3945007],[-124.7374012,48.3944472],[-124.7372947,48.3944003],[-124.7373023,48.3943213],[-124.7373518,48.3943262],[-124.737446,48.394397],[-124.737753,48.3944952],[-124.7379702,48.3944259],[-124.7382571,48.3943921],[-124.7382003,48.3943209],[-124.7380966,48.3942974],[-124.7380803,48.3942329],[-124.7376996,48.3940837],[-124.7376148,48.3940501],[-124.7372483,48.393935],[-124.7370038,48.3938621],[-124.7366435,48.3936805],[-124.7365572,48.3936528],[-124.7363839,48.3935969],[-124.7361193,48.3936149],[-124.735994,48.3936576],[-124.7356844,48.3937395],[-124.7354861,48.3938606],[-124.7357674,48.3939707],[-124.7359639,48.3940424],[-124.7360575,48.3941206],[-124.7361089,48.3941652],[-124.7361809,48.3941659],[-124.7362685,48.3942208],[-124.7363097,48.3943387],[-124.736438,48.3943997],[-124.7363885,48.3945085],[-124.7365306,48.3945927],[-124.7366417,48.3946191],[-124.7366881,48.3946631],[-124.7366434,48.3947293],[-124.7364834,48.3947447],[-124.7363989,48.3947309],[-124.7363068,48.3947587],[-124.7362782,48.3948284],[-124.7363701,48.3949189],[-124.736404,48.3949717],[-124.7364093,48.3949795],[-124.7365406,48.3950099],[-124.7366734,48.3949954],[-124.736777,48.3949768],[-124.7367712,48.3950661],[-124.7368637,48.395136],[-124.7369456,48.3950878],[-124.7370596,48.3950201],[-124.7370703,48.3949606],[-124.7372859,48.3950263],[-124.7374967,48.3949337],[-124.7377408,48.3948495],[-124.737835,48.394826],[-124.738021,48.394811],[-124.7383349,48.3946424],[-124.7384667,48.3946006],[-124.7385175,48.3946234],[-124.7386153,48.3946131]]],[[[-124.736491,48.171258],[-124.736431,48.170882],[-124.736155,48.170559],[-124.735652,48.170226],[-124.734548,48.16968],[-124.734021,48.169477],[-124.733493,48.16909],[-124.733252,48.168724],[-124.733096,48.168384],[-124.733156,48.167844],[-124.73348,48.167267],[-124.734008,48.166711],[-124.734511,48.166071],[-124.734787,48.165413],[-124.73478882979641,48.16531480092544],[-124.7347881,48.1653148],[-124.734775,48.164215],[-124.734679,48.163798],[-124.698292,48.163857],[-124.698354,48.1720477],[-124.698479,48.174553],[-124.698518,48.175042],[-124.698513,48.176398],[-124.72078968691798,48.176216524325014],[-124.720804,48.176206],[-124.7208786,48.1762158],[-124.721955,48.17565],[-124.722471,48.175017],[-124.723251,48.174629],[-124.723862,48.174402],[-124.7242035,48.1734655],[-124.7247103,48.1730112],[-124.72668,48.172662],[-124.728024,48.172292],[-124.728551,48.172132],[-124.729019,48.171951],[-124.729415,48.171626],[-124.7303425,48.1705171],[-124.7312325,48.1703076],[-124.732809,48.170885],[-124.733877,48.17135],[-124.734968,48.171624],[-124.735568,48.171545],[-124.736167,48.171543],[-124.736419,48.171392],[-124.736491,48.171258]]],[[[-124.732324,48.3772903],[-124.7318673,48.377001],[-124.7307039,48.376264],[-124.730366,48.3761222],[-124.7300012,48.3759505],[-124.7297662,48.37584],[-124.7295087,48.3756576],[-124.7292169,48.375441],[-124.728762,48.3752699],[-124.7284187,48.3751274],[-124.7273029,48.3746143],[-124.7269596,48.3743862],[-124.7265562,48.3741753],[-124.7264885,48.3741014],[-124.7264572,48.3740672],[-124.7263845,48.3739301],[-124.7264602,48.3737531],[-124.7267375,48.3735839],[-124.7271717,48.3736849],[-124.7270075,48.3735003],[-124.7272383,48.3732694],[-124.7276709,48.3729234],[-124.7276271,48.3728243],[-124.7272892,48.3726289],[-124.727543,48.3726085],[-124.7275706,48.3724322],[-124.7270883,48.371735],[-124.7270711,48.3714385],[-124.726642,48.3711534],[-124.7262729,48.3707771],[-124.725834,48.370624],[-124.7255863,48.3705376],[-124.7244522,48.3704592],[-124.7240434,48.3704309],[-124.7235061,48.3702421],[-124.7228927,48.3701528],[-124.7209142,48.3696636],[-124.7201875,48.3691977],[-124.7194665,48.3689525],[-124.7188829,48.3688556],[-124.7186715,48.3687509],[-124.7176813,48.3680744],[-124.7162239,48.3674148],[-124.7152952,48.3670594],[-124.7147029,48.3668313],[-124.7143717,48.3667566],[-124.7136043,48.3664207],[-124.713304,48.3661753],[-124.7132132,48.3658622],[-124.7131752,48.3655483],[-124.7126221,48.3650168],[-124.7126001,48.3647499],[-124.7126258,48.3644249],[-124.71254,48.3641968],[-124.7123683,48.3639801],[-124.7121109,48.363866],[-124.711141,48.3634098],[-124.710523,48.3630677],[-124.7100938,48.3628168],[-124.7097076,48.362372],[-124.7092784,48.3619614],[-124.7092228,48.3618529],[-124.709021,48.3614595],[-124.7086669,48.3610884],[-124.7085317,48.3608892],[-124.7080167,48.360547],[-124.7075189,48.3601022],[-124.7070898,48.359549],[-124.706933,48.359291],[-124.706872,48.3591782],[-124.7067733,48.3590283],[-124.7066778,48.3588475],[-124.7065765,48.3583772],[-124.7066778,48.357878],[-124.7068914,48.3574647],[-124.7071928,48.356897],[-124.7073215,48.3562982],[-124.7072786,48.3557563],[-124.7073086,48.3555486],[-124.7072786,48.3553001],[-124.7073215,48.3550434],[-124.7072786,48.3547582],[-124.7074459,48.3545809],[-124.7075837,48.354493],[-124.7074618,48.3544093],[-124.7072258,48.3544623],[-124.7071548,48.3544229],[-124.7070409,48.3542716],[-124.7069533,48.354021],[-124.7067803,48.3538931],[-124.7065977,48.3537698],[-124.7064456,48.3536597],[-124.7058297,48.353336],[-124.7054179,48.3531666],[-124.7051641,48.3529905],[-124.7049414,48.3528543],[-124.7047296,48.352754],[-124.7044798,48.3526857],[-124.7042077,48.3525638],[-124.7039965,48.3524679],[-124.7037436,48.3523232],[-124.7035048,48.3522954],[-124.7031863,48.3522551],[-124.7028073,48.3521887],[-124.7023993,48.3521318],[-124.7021614,48.3521353],[-124.7020825,48.3521455],[-124.7019305,48.3520533],[-124.7018083,48.3519561],[-124.7015695,48.3519282],[-124.7011722,48.3519071],[-124.7008763,48.351952],[-124.700671,48.352045],[-124.7004638,48.3520706],[-124.7002324,48.351975],[-124.6999687,48.3517945],[-124.6997744,48.3516084],[-124.6995369,48.3513285],[-124.6992412,48.3510765],[-124.699014,48.3508009],[-124.6991673,48.3506412],[-124.6991457,48.3505875],[-124.6989769,48.3505855],[-124.6986996,48.3505941],[-124.6985327,48.3506462],[-124.6983871,48.3507338],[-124.6981124,48.3508233],[-124.697906,48.3508803],[-124.697777,48.3508687],[-124.6975931,48.350705],[-124.6973897,48.3505506],[-124.697216,48.3504002],[-124.6971229,48.3502756],[-124.6964189,48.3496832],[-124.6961206,48.3493502],[-124.6957293,48.3486182],[-124.6955559,48.3478785],[-124.6955136,48.3474967],[-124.6954498,48.3473672],[-124.6953973,48.3472825],[-124.6953823,48.3471208],[-124.695454,48.3468903],[-124.6954492,48.3467464],[-124.6953767,48.3463516],[-124.6952227,48.3458905],[-124.6950572,48.3456816],[-124.6949646,48.3455884],[-124.6948916,48.3454726],[-124.6948775,48.3453513],[-124.6948698,48.3451652],[-124.6949638,48.3449677],[-124.6952531,48.344725],[-124.6954657,48.3445599],[-124.6957201,48.3444482],[-124.695946,48.3443909],[-124.6959936,48.3443272],[-124.6959973,48.3441472],[-124.695872,48.3439556],[-124.6955561,48.3436993],[-124.6953128,48.3435365],[-124.6952807,48.343456],[-124.6952583,48.3433798],[-124.6952562,48.3433169],[-124.695156,48.3432869],[-124.6949793,48.3433345],[-124.6947123,48.3433609],[-124.6941774,48.3433688],[-124.6937908,48.3433655],[-124.6934719,48.3433118],[-124.6930897,48.3431465],[-124.6928538,48.3429115],[-124.6924847,48.3425391],[-124.6921371,48.3422203],[-124.6918288,48.3418874],[-124.6915468,48.3417521],[-124.6912154,48.3416265],[-124.6909116,48.3414286],[-124.6905853,48.3411545],[-124.690341,48.3409602],[-124.6901673,48.3407963],[-124.6899771,48.3407451],[-124.6898074,48.3406981],[-124.6896356,48.3406062],[-124.6894829,48.340496],[-124.6892848,48.3404989],[-124.689153,48.3404018],[-124.6892708,48.3403686],[-124.6892482,48.3402835],[-124.6890293,48.3402597],[-124.68875,48.3402053],[-124.688516,48.3400288],[-124.6883407,48.339811],[-124.6881874,48.3396827],[-124.6880258,48.3395907],[-124.6879699,48.339389],[-124.6879052,48.3392325],[-124.6878337,48.3391706],[-124.6877183,48.3389744],[-124.6877149,48.3388709],[-124.6876559,48.3387882],[-124.6875687,48.3387679],[-124.6874952,48.3387814],[-124.687457,48.3388613],[-124.6873957,48.3391141],[-124.6873642,48.3393575],[-124.687208,48.3397242],[-124.6870635,48.3398568],[-124.6868573,48.3399093],[-124.6866582,48.3398852],[-124.6864193,48.3398617],[-124.6861218,48.3398661],[-124.6858824,48.3398156],[-124.6854806,48.3396552],[-124.685159,48.3395204],[-124.6848687,48.3394257],[-124.6845567,48.3392863],[-124.6843074,48.3392315],[-124.6841439,48.3393868],[-124.6839897,48.3395195],[-124.6837855,48.339635],[-124.6835198,48.3396974],[-124.6833761,48.3398525],[-124.6834293,48.3399597],[-124.6834863,48.3401928],[-124.6836116,48.3406813],[-124.6836374,48.3408609],[-124.6835319,48.3412718],[-124.6834007,48.3415031],[-124.6831529,48.3417992],[-124.6829492,48.3419416],[-124.6822558,48.3422486],[-124.6820794,48.3423098],[-124.682033,48.3424094],[-124.6820199,48.3426166],[-124.6818776,48.3428031],[-124.681686,48.3430038],[-124.6814059,48.3432328],[-124.6811239,48.3433944],[-124.6808594,48.3434973],[-124.6806523,48.3435318],[-124.6804477,48.3436338],[-124.6802347,48.3437899],[-124.6800615,48.3439499],[-124.6800423,48.3439636],[-124.679886,48.3440334],[-124.6795796,48.3440694],[-124.6792348,48.3441239],[-124.67884,48.344179],[-124.678504,48.344211],[-124.67812,48.344284],[-124.677736,48.344362],[-124.677549,48.344405],[-124.677454,48.344523],[-124.677181,48.344365],[-124.676891,48.344298],[-124.676503,48.344254],[-124.676186,48.344254],[-124.67583,48.344286],[-124.675374,48.344311],[-124.675371,48.34432],[-124.673704,48.344425],[-124.673078,48.344506],[-124.672778,48.344637],[-124.672662,48.34471],[-124.672349,48.344859],[-124.672125,48.345008],[-124.67192,48.34518],[-124.67177,48.345389],[-124.671653,48.345508],[-124.671526,48.345573],[-124.671156,48.345632],[-124.671088,48.345588],[-124.671156,48.345515],[-124.671398,48.345458],[-124.67148,48.345393],[-124.67148,48.34533],[-124.6714,48.345305],[-124.671173,48.345263],[-124.671203,48.345217],[-124.671584,48.345176],[-124.671689,48.345147],[-124.671748,48.345102],[-124.671909,48.344892],[-124.671943,48.344784],[-124.671903,48.344757],[-124.670891,48.344835],[-124.670555,48.344804],[-124.67022,48.344746],[-124.669781,48.344581],[-124.669538,48.344531],[-124.669352,48.344516],[-124.669121,48.344546],[-124.668264,48.344316],[-124.667835,48.344214],[-124.667026,48.343786],[-124.665939,48.343612],[-124.666598,48.343449],[-124.666761,48.34342],[-124.666911,48.343382],[-124.66727,48.34334],[-124.667548,48.343327],[-124.667906,48.343358],[-124.66822,48.343416],[-124.668473,48.343494],[-124.668739,48.343607],[-124.669075,48.343791],[-124.669284,48.343851],[-124.669527,48.343856],[-124.670279,48.343809],[-124.671263,48.343795],[-124.671447,48.343774],[-124.672618,48.34373],[-124.672953,48.343707],[-124.673531,48.343708],[-124.673671,48.343661],[-124.673857,48.343568],[-124.673948,48.343477],[-124.674099,48.343385],[-124.67425,48.343365],[-124.6744142,48.3433924],[-124.674562,48.343414],[-124.675048,48.343596],[-124.675344,48.343574],[-124.675535,48.343449],[-124.675689,48.343294],[-124.675751,48.343095],[-124.675654,48.342845],[-124.675453,48.342474],[-124.675178,48.34224],[-124.674728,48.342103],[-124.6742334,48.3418042],[-124.673563,48.341643],[-124.672804,48.341456],[-124.672028,48.341085],[-124.671597,48.340952],[-124.670917,48.340763],[-124.670406,48.340596],[-124.669945,48.340431],[-124.669462,48.340213],[-124.6690956,48.3400909],[-124.668581,48.339938],[-124.668018,48.339708],[-124.667464,48.339419],[-124.666919,48.339117],[-124.66631,48.338694],[-124.665794,48.338373],[-124.665484,48.338269],[-124.665239,48.338062],[-124.665164,48.337892],[-124.664617,48.337522],[-124.664279,48.337189],[-124.66387,48.336808],[-124.663668,48.336361],[-124.66327,48.33571],[-124.662787,48.334881],[-124.662642,48.334698],[-124.662446,48.334476],[-124.66211,48.334202],[-124.661755,48.333942],[-124.661509,48.333698],[-124.66119,48.333325],[-124.660735,48.332755],[-124.660442,48.332557],[-124.6603222,48.3324419],[-124.660135,48.332256],[-124.659791,48.3320156],[-124.659396,48.3316994],[-124.6590475,48.3315567],[-124.65886,48.3315117],[-124.6584626,48.3315531],[-124.6583779,48.3313486],[-124.6588036,48.3308129],[-124.6589553,48.3305502],[-124.658987,48.330495],[-124.659118,48.329931],[-124.659088,48.329612],[-124.65917,48.329395],[-124.659323,48.329249],[-124.659657,48.32915],[-124.659918,48.328957],[-124.659963,48.328803],[-124.659988,48.32865],[-124.660034,48.328537],[-124.66019,48.328463],[-124.660376,48.328392],[-124.660471,48.328274],[-124.660427,48.328126],[-124.660233,48.327954],[-124.660177,48.327757],[-124.660168,48.327482],[-124.660279,48.327247],[-124.660375,48.327151],[-124.660309,48.326954],[-124.660207,48.326843],[-124.659935,48.326721],[-124.659765,48.326665],[-124.659545,48.324623],[-124.659969,48.324199],[-124.660257,48.324125],[-124.660608,48.323949],[-124.660848,48.323694],[-124.661148,48.3235],[-124.661341,48.323322],[-124.662205,48.322491],[-124.662375,48.322218],[-124.662691,48.321876],[-124.662981,48.321661],[-124.663252,48.321472],[-124.663604,48.321323],[-124.664436,48.320704],[-124.6647,48.320579],[-124.664913,48.320445],[-124.665069,48.320357],[-124.665851,48.32004],[-124.666509,48.319846],[-124.666681,48.319646],[-124.666783,48.319433],[-124.666859,48.319351],[-124.667386,48.319105],[-124.667533,48.31904],[-124.66754,48.318958],[-124.667369,48.318862],[-124.667267,48.318782],[-124.666986,48.318373],[-124.666864,48.31828],[-124.666694,48.318224],[-124.666405,48.318183],[-124.666156,48.318142],[-124.665968,48.318136],[-124.665698,48.318058],[-124.665478,48.317985],[-124.664732,48.317618],[-124.664177,48.317302],[-124.663842,48.317042],[-124.663617,48.316847],[-124.663451,48.316607],[-124.663123,48.31626],[-124.663007,48.31606],[-124.662847,48.315689],[-124.662749,48.31542],[-124.662703,48.315236],[-124.662525,48.314933],[-124.662419,48.314719],[-124.662364,48.314243],[-124.662221,48.313511],[-124.662247,48.313102],[-124.662298,48.312512],[-124.662287,48.312188],[-124.662311,48.312012],[-124.662368,48.311003],[-124.662411,48.310827],[-124.662457,48.310701],[-124.662429,48.310463],[-124.662419,48.310153],[-124.662499,48.309868],[-124.662522,48.309656],[-124.66271,48.309051],[-124.66276,48.308739],[-124.662756,48.308636],[-124.662773,48.308528],[-124.66282,48.308446],[-124.662952,48.308246],[-124.662996,48.308084],[-124.66307,48.307934],[-124.663133,48.307717],[-124.663187,48.307577],[-124.663579,48.306838],[-124.663642,48.30663],[-124.663806,48.306196],[-124.663882,48.306087],[-124.663936,48.305942],[-124.664059,48.305446],[-124.664147,48.30512],[-124.664278,48.304858],[-124.664274,48.304732],[-124.664277,48.304534],[-124.664311,48.304349],[-124.66443,48.304077],[-124.664424,48.303884],[-124.664437,48.303672],[-124.664421,48.303191],[-124.664487,48.30306],[-124.66454,48.302874],[-124.664546,48.302748],[-124.664535,48.302114],[-124.664569,48.301943],[-124.664623,48.30178],[-124.664657,48.301604],[-124.664728,48.301351],[-124.664811,48.301138],[-124.664932,48.300925],[-124.6651231,48.3005767],[-124.665309,48.300317],[-124.665598,48.299777],[-124.666285,48.298953],[-124.666408,48.29879],[-124.666511,48.298604],[-124.666655,48.298489],[-124.667134,48.297996],[-124.667281,48.297922],[-124.667417,48.297835],[-124.667599,48.297657],[-124.667792,48.297487],[-124.667977,48.297399],[-124.668209,48.297234],[-124.668393,48.297096],[-124.668566,48.296945],[-124.66875,48.296817],[-124.669073,48.296695],[-124.670783,48.295982],[-124.671313,48.295848],[-124.671363,48.296167],[-124.671626,48.296626],[-124.6717073,48.2967014],[-124.6720345,48.2967056],[-124.6722229,48.2967209],[-124.6723096,48.2968615],[-124.6725494,48.2970695],[-124.6726318,48.2968004],[-124.6726663,48.2966425],[-124.6725998,48.296423],[-124.6725734,48.2963784],[-124.672526,48.2962936],[-124.6724444,48.2962228],[-124.6724526,48.2961642],[-124.6725201,48.2961138],[-124.6726884,48.2961068],[-124.672797,48.2961052],[-124.6729334,48.2960357],[-124.6730299,48.2959578],[-124.6732757,48.2959002],[-124.6734504,48.2957897],[-124.6736878,48.2957818],[-124.6739037,48.2957247],[-124.6740693,48.2956323],[-124.6743249,48.2955746],[-124.6745626,48.2955531],[-124.6746211,48.2955478],[-124.6748258,48.2954592],[-124.674932,48.2953677],[-124.6750506,48.295357],[-124.6751217,48.2954189],[-124.675184,48.295508],[-124.6752078,48.2956291],[-124.675231,48.2957322],[-124.6753119,48.295785],[-124.6753744,48.2957166],[-124.6754747,48.2956033],[-124.6755596,48.2954845],[-124.6755606,48.2954125],[-124.6755653,48.2953495],[-124.67565,48.2952223],[-124.6757485,48.2952073],[-124.6765092,48.2951468],[-124.6766963,48.2951081],[-124.6769034,48.2950914],[-124.676984,48.2951308],[-124.6771422,48.295124],[-124.6773701,48.2951251],[-124.6776362,48.2950898],[-124.6779027,48.2950544],[-124.6782209,48.2950947],[-124.6783914,48.2951687],[-124.6785718,48.2952335],[-124.6787848,48.2952934],[-124.6788116,48.295302],[-124.6789916,48.2953533],[-124.6790927,48.2954193],[-124.6792157,48.29553],[-124.679328,48.2956408],[-124.6793717,48.2957661],[-124.6792912,48.2960237],[-124.6793169,48.2962033],[-124.6794712,48.2963855],[-124.679516,48.2965423],[-124.6794335,48.296737],[-124.6793415,48.2969543],[-124.6793076,48.2971257],[-124.679401,48.2972638],[-124.679615,48.2974406],[-124.6798264,48.2975544],[-124.6800466,48.2976232],[-124.6802861,48.2976826],[-124.6803857,48.2976701],[-124.6804418,48.2975994],[-124.6804082,48.2974694],[-124.6802847,48.2973318],[-124.6803025,48.2972685],[-124.6804511,48.2972799],[-124.6805928,48.2973723],[-124.6807669,48.2975407],[-124.6808893,48.2976468],[-124.6809587,48.2976593],[-124.6812862,48.2976725],[-124.681418,48.2977741],[-124.6815474,48.2977857],[-124.6816868,48.2978061],[-124.6817547,48.2977691],[-124.6818103,48.2976514],[-124.6816555,48.2974557],[-124.6816117,48.2973304],[-124.6816679,48.2972306],[-124.6818257,48.2972102],[-124.6821824,48.2972185],[-124.6827249,48.2971475],[-124.6829117,48.2971133],[-124.6829273,48.2969826],[-124.6829824,48.2968559],[-124.6830981,48.2967552],[-124.6830939,48.2966293],[-124.6829487,48.2964335],[-124.6829736,48.2962802],[-124.6829801,48.2961811],[-124.6828015,48.2961702],[-124.6828578,48.2960749],[-124.6830048,48.2960233],[-124.6830664,48.2957893],[-124.6830241,48.2955746],[-124.6832045,48.2954149],[-124.6832045,48.2953631],[-124.6831481,48.2953267],[-124.6831211,48.2952453],[-124.683129,48.2951905],[-124.6831961,48.2951031],[-124.6832,48.2950484],[-124.6830765,48.2949406],[-124.6830534,48.2948564],[-124.6830855,48.2948498],[-124.6831487,48.2947525],[-124.6830833,48.2947185],[-124.6829459,48.2947425],[-124.6826367,48.29483],[-124.6825716,48.2948872],[-124.6823867,48.2949349],[-124.6821712,48.294959],[-124.6819405,48.294948],[-124.6818007,48.2948926],[-124.6816941,48.2948936],[-124.681459,48.2949294],[-124.6813408,48.2949912],[-124.6811833,48.2950211],[-124.6809574,48.2950185],[-124.6807841,48.294956],[-124.6807325,48.2949249],[-124.680704,48.2948769],[-124.6805911,48.2947986],[-124.6804623,48.2946745],[-124.680432,48.2945525],[-124.6803495,48.2943911],[-124.6803663,48.2942921],[-124.680359,48.2942512],[-124.6803197,48.2942224],[-124.6801547,48.2939545],[-124.680241,48.2938502],[-124.6803326,48.2937647],[-124.680377,48.2937058],[-124.6803806,48.2935959],[-124.6803577,48.2935148],[-124.6803551,48.2934301],[-124.6804073,48.2933624],[-124.6806765,48.2932925],[-124.6806987,48.2932619],[-124.6808329,48.2932462],[-124.6810103,48.2932591],[-124.681169,48.2932833],[-124.6812698,48.2932715],[-124.6814012,48.2932205],[-124.6814137,48.2931734],[-124.6815412,48.2931772],[-124.6816001,48.2931943],[-124.6816573,48.2931922],[-124.6816918,48.293213],[-124.6817567,48.2932052],[-124.6817491,48.2931094],[-124.6816887,48.2930707],[-124.6815214,48.2928767],[-124.6815143,48.2928385],[-124.6814922,48.2928201],[-124.6814631,48.2927611],[-124.6814122,48.292741],[-124.6813628,48.2927372],[-124.6813442,48.2927105],[-124.6814648,48.2926787],[-124.6815258,48.2926738],[-124.6815495,48.2926387],[-124.6816779,48.2925206],[-124.6817396,48.2925239],[-124.6817832,48.2925553],[-124.6818643,48.2925963],[-124.6819543,48.2925931],[-124.6819851,48.2925673],[-124.6819961,48.2924987],[-124.6819806,48.2924581],[-124.6819249,48.2924299],[-124.6818854,48.2923956],[-124.6818251,48.2923621],[-124.6816686,48.2923515],[-124.6815669,48.2923661],[-124.6814853,48.2923196],[-124.6813621,48.2922663],[-124.6812937,48.2921785],[-124.6812445,48.2920764],[-124.6814219,48.2919877],[-124.6814562,48.2919536],[-124.6816398,48.2918898],[-124.6817419,48.2918807],[-124.6817774,48.2918657],[-124.6818228,48.2918669],[-124.6818905,48.2918425],[-124.6819475,48.2918871],[-124.6819878,48.2919841],[-124.6820379,48.2919933],[-124.6820461,48.2919409],[-124.682117,48.2918015],[-124.6822149,48.2917953],[-124.6823222,48.2918025],[-124.6824029,48.2918381],[-124.6825382,48.2919921],[-124.6826166,48.2920987],[-124.6826428,48.2921691],[-124.6827144,48.2922458],[-124.6827034,48.2922627],[-124.682744,48.2923597],[-124.6828107,48.2923738],[-124.6828795,48.2923631],[-124.6829539,48.2923687],[-124.6830836,48.2923998],[-124.68316,48.2924327],[-124.6831961,48.2924723],[-124.6833003,48.2924933],[-124.6835867,48.2924588],[-124.6836294,48.2924147],[-124.6837268,48.2923821],[-124.6838368,48.2923847],[-124.6839212,48.2923704],[-124.6839397,48.2922963],[-124.6839673,48.2922449],[-124.6840553,48.2921849],[-124.6841655,48.2920685],[-124.6842045,48.292006],[-124.6843025,48.2919521],[-124.6843241,48.2919174],[-124.6843957,48.2918644],[-124.6844143,48.291823],[-124.6843958,48.2917128],[-124.6843094,48.2916703],[-124.6841706,48.2916735],[-124.6840806,48.2916475],[-124.684006,48.291598],[-124.6838244,48.2915541],[-124.6837918,48.2914804],[-124.6837055,48.2914386],[-124.6836686,48.2914049],[-124.6836661,48.2913408],[-124.6837564,48.2913129],[-124.6838335,48.2912389],[-124.6838376,48.2911677],[-124.6838102,48.2911306],[-124.6838078,48.2910995],[-124.6838396,48.2910699],[-124.6838917,48.2910495],[-124.6840737,48.290947],[-124.6841192,48.2909046],[-124.6841685,48.2908785],[-124.684254,48.2908803],[-124.6843474,48.2908591],[-124.6846926,48.2908434],[-124.6847861,48.2908531],[-124.684938,48.2909242],[-124.6849699,48.2909574],[-124.6850403,48.2909827],[-124.6851891,48.2909822],[-124.685212,48.2909341],[-124.6852775,48.2909269],[-124.6853197,48.2909059],[-124.6853261,48.2908635],[-124.6853032,48.2908204],[-124.6853229,48.2907936],[-124.6853986,48.2907632],[-124.6854948,48.2907776],[-124.6855975,48.2907496],[-124.6856126,48.290723],[-124.6856698,48.2907062],[-124.6858116,48.2907111],[-124.6859455,48.2906755],[-124.6859878,48.2906558],[-124.6859954,48.2906281],[-124.6859551,48.2905839],[-124.6859247,48.2905702],[-124.6858674,48.2904927],[-124.6859116,48.2904338],[-124.6859765,48.2903911],[-124.6861319,48.2903512],[-124.6862407,48.2903392],[-124.6863236,48.2903088],[-124.6864611,48.2903183],[-124.6865184,48.2903344],[-124.6865321,48.2903549],[-124.6865999,48.2903768],[-124.6867881,48.2903523],[-124.6870569,48.2901737],[-124.6870598,48.2901166],[-124.687039,48.2901009],[-124.6870253,48.290051],[-124.6871164,48.2900299],[-124.6871886,48.2899882],[-124.6872239,48.2899414],[-124.6872166,48.2899107],[-124.6871509,48.2898822],[-124.6870469,48.2898646],[-124.6869858,48.2898294],[-124.6868733,48.2897048],[-124.6868229,48.2896853],[-124.6867344,48.2896771],[-124.6866979,48.2896476],[-124.686852,48.2895913],[-124.6868431,48.2895412],[-124.6868271,48.2895239],[-124.6869221,48.2894914],[-124.6869908,48.2894955],[-124.6870045,48.2894542],[-124.6869392,48.2893996],[-124.6868536,48.2893666],[-124.6866929,48.2891559],[-124.6867243,48.2891205],[-124.6867756,48.2890912],[-124.6867996,48.289056],[-124.6867932,48.2890367],[-124.6867329,48.2890128],[-124.6866822,48.2890211],[-124.6865877,48.2890001],[-124.6864586,48.2890016],[-124.6864236,48.2889912],[-124.6863948,48.2889939],[-124.6863303,48.2889815],[-124.6863291,48.2889376],[-124.6863624,48.2888942],[-124.6864426,48.2888619],[-124.6864523,48.2888289],[-124.6865138,48.288775],[-124.6864614,48.2886691],[-124.6865886,48.2885816],[-124.6865704,48.2885366],[-124.6864985,48.2884888],[-124.6864633,48.2884152],[-124.6864039,48.2883765],[-124.6863781,48.2882653],[-124.686426,48.2882245],[-124.6865537,48.2881726],[-124.6866332,48.2881893],[-124.6866573,48.2882176],[-124.6867524,48.2882177],[-124.6868047,48.2881997],[-124.6868678,48.2881663],[-124.6868821,48.2881301],[-124.6869227,48.2880878],[-124.6870984,48.2880281],[-124.6871466,48.2880212],[-124.6872269,48.2879258],[-124.6872094,48.2877995],[-124.6870986,48.2876916],[-124.6869267,48.2875855],[-124.6868681,48.2875242],[-124.6868133,48.2874822],[-124.686806,48.2874516],[-124.6867674,48.2873926],[-124.686764,48.2872884],[-124.6867982,48.2872594],[-124.6868315,48.2871584],[-124.6868863,48.2870783],[-124.6869143,48.2870625],[-124.6869754,48.2870645],[-124.6870693,48.287079],[-124.6871889,48.2870806],[-124.6872149,48.2871006],[-124.687269,48.2871052],[-124.6872949,48.2870947],[-124.6873558,48.2870942],[-124.6873938,48.287049],[-124.6874308,48.2870229],[-124.6874836,48.2870145],[-124.6875406,48.2870242],[-124.6876258,48.2870551],[-124.6876699,48.287057],[-124.6877268,48.2870354],[-124.6877684,48.2870062],[-124.6877927,48.2869751],[-124.6877739,48.2869521],[-124.6874704,48.286849],[-124.6873632,48.286848],[-124.6872278,48.2868333],[-124.6870907,48.2867373],[-124.6869686,48.286673],[-124.6867626,48.2866282],[-124.6867437,48.2866079],[-124.686668,48.2866058],[-124.6864341,48.2866694],[-124.6863415,48.2866401],[-124.686246,48.2866369],[-124.6862084,48.2866235],[-124.6862054,48.2865862],[-124.6862395,48.2865559],[-124.6863475,48.2865016],[-124.6864256,48.2864728],[-124.6862763,48.2863721],[-124.6862755,48.2863004],[-124.6861941,48.286199],[-124.6861692,48.2860699],[-124.6861429,48.2860139],[-124.6861455,48.2859843],[-124.6861205,48.285977],[-124.686108,48.2859435],[-124.6860683,48.2859058],[-124.6860221,48.2858779],[-124.6859877,48.2858713],[-124.6859233,48.2857693],[-124.6859337,48.2857459],[-124.6859345,48.2856646],[-124.6860307,48.2856464],[-124.6861566,48.2854533],[-124.6861655,48.2854091],[-124.6861253,48.2853666],[-124.6859547,48.2853984],[-124.6858765,48.285395],[-124.6857517,48.2853277],[-124.685612,48.2852902],[-124.6855364,48.2852898],[-124.6854904,48.2852636],[-124.6854077,48.2852357],[-124.6853411,48.2852281],[-124.6852703,48.285198],[-124.6851944,48.2851928],[-124.6851517,48.2851765],[-124.6850457,48.2851621],[-124.6849133,48.2852158],[-124.6848069,48.2852292],[-124.6840333,48.2851315],[-124.6838192,48.2850787],[-124.6835186,48.2850407],[-124.683362,48.2850037],[-124.6832362,48.2849855],[-124.6830564,48.2849349],[-124.6827595,48.2848216],[-124.6827218,48.2847774],[-124.682699,48.2847034],[-124.6826973,48.284653],[-124.6826675,48.2845855],[-124.6827717,48.2844223],[-124.6828345,48.2844136],[-124.6828843,48.2843964],[-124.6830194,48.2843768],[-124.6830693,48.2843898],[-124.6831224,48.2844431],[-124.6831901,48.2844383],[-124.6832546,48.2844189],[-124.6832816,48.284361],[-124.6832763,48.2841399],[-124.6831975,48.2840693],[-124.683111,48.2840254],[-124.6830504,48.2840289],[-124.6829782,48.2840432],[-124.6828407,48.2840007],[-124.6827792,48.2839964],[-124.6826963,48.283965],[-124.6826658,48.2838889],[-124.6825865,48.2837507],[-124.6825693,48.2836536],[-124.6825574,48.2834132],[-124.6825781,48.2833377],[-124.6826611,48.283154],[-124.6827352,48.2829511],[-124.6828801,48.2827473],[-124.6829522,48.282704],[-124.6830339,48.282688],[-124.6830859,48.2826666],[-124.6831265,48.2826247],[-124.6832066,48.282591],[-124.6832407,48.2825898],[-124.683283,48.2826305],[-124.6834006,48.2826068],[-124.6834551,48.2826457],[-124.6835011,48.2827335],[-124.6835547,48.2827968],[-124.6836556,48.2828663],[-124.6837467,48.2828174],[-124.6837906,48.2828159],[-124.6838206,48.2828248],[-124.6838755,48.2828112],[-124.6839007,48.2827307],[-124.6839462,48.2827178],[-124.6840023,48.2827188],[-124.6840377,48.2827341],[-124.6840911,48.2827009],[-124.6840928,48.2826295],[-124.6841147,48.2825976],[-124.6842234,48.2826167],[-124.6842783,48.2826],[-124.6843557,48.2825616],[-124.6844125,48.2825105],[-124.6844414,48.2825047],[-124.6844613,48.2824779],[-124.6844279,48.2824578],[-124.6843182,48.2824586],[-124.6842634,48.2824444],[-124.6841834,48.2823886],[-124.6841418,48.2823249],[-124.6840959,48.2821767],[-124.6839973,48.2820745],[-124.6838107,48.2820582],[-124.6837593,48.2820257],[-124.6838072,48.2819818],[-124.6838749,48.2819437],[-124.6838347,48.2818687],[-124.6837094,48.2818275],[-124.6836195,48.2817703],[-124.6835941,48.2817256],[-124.6834939,48.281664],[-124.6833986,48.2816282],[-124.6832199,48.2815924],[-124.6831396,48.2815644],[-124.682989,48.2815395],[-124.6826827,48.2814924],[-124.6826075,48.2814677],[-124.6825145,48.281401],[-124.6824962,48.2813543],[-124.6824307,48.2812671],[-124.6823774,48.2811208],[-124.6823365,48.2810653],[-124.6823398,48.2809513],[-124.6823678,48.2809064],[-124.6823769,48.2807758],[-124.6824169,48.2806032],[-124.6825229,48.2804334],[-124.6826279,48.2803745],[-124.682668,48.2802966],[-124.6827971,48.2801681],[-124.6828573,48.2801595],[-124.6829413,48.280173],[-124.6829892,48.2801648],[-124.6830639,48.2801213],[-124.683107,48.2800789],[-124.6831456,48.2800762],[-124.6832425,48.2801897],[-124.6834219,48.2802355],[-124.6835749,48.280227],[-124.6836224,48.2802431],[-124.683682,48.2802263],[-124.6836949,48.2802046],[-124.6836264,48.2801696],[-124.6835481,48.2801676],[-124.6835168,48.2801426],[-124.6835406,48.2801027],[-124.6834903,48.2800835],[-124.6834318,48.2800856],[-124.683401,48.2800946],[-124.6833204,48.2800957],[-124.6832855,48.2800843],[-124.6832003,48.2800269],[-124.6831978,48.2799961],[-124.6831818,48.2799789],[-124.6830933,48.2799673],[-124.6830442,48.2799965],[-124.6829598,48.2800077],[-124.6828764,48.2799702],[-124.6828384,48.2798607],[-124.6827776,48.2798008],[-124.6827287,48.2797703],[-124.6826214,48.2797398],[-124.682547,48.279692],[-124.6824582,48.2796513],[-124.6822798,48.2796151],[-124.6822444,48.2796293],[-124.6821237,48.2795849],[-124.6819722,48.2794891],[-124.6817816,48.2793316],[-124.6817033,48.2792352],[-124.6814337,48.2790054],[-124.6813717,48.2789324],[-124.6813542,48.2788662],[-124.6813461,48.2784253],[-124.6811289,48.2781272],[-124.681035,48.277888],[-124.6811074,48.2777113],[-124.681204,48.2775203],[-124.6813756,48.2774007],[-124.6816224,48.2774346],[-124.6819228,48.2775435],[-124.6820354,48.2775095],[-124.6820408,48.2773917],[-124.6820059,48.2772061],[-124.6817082,48.276974],[-124.6818598,48.2768616],[-124.6818732,48.2766982],[-124.6817994,48.2766429],[-124.6816787,48.276609],[-124.6814762,48.2766357],[-124.6812383,48.276701],[-124.6811935,48.2767258],[-124.6811326,48.2767553],[-124.68109,48.2767976],[-124.6809646,48.2768264],[-124.6808716,48.2768462],[-124.6807564,48.2768451],[-124.6806318,48.276819],[-124.680553,48.2767909],[-124.6804911,48.2767204],[-124.6804965,48.2766972],[-124.6803348,48.2763864],[-124.6802396,48.2762872],[-124.6802034,48.2762199],[-124.6801805,48.2758026],[-124.6798582,48.275365],[-124.67974596956131,48.27521002377022],[-124.6793397,48.2752636],[-124.6665411,48.2750886],[-124.6611607,48.2750305],[-124.6611572,48.2737608],[-124.666712,48.2737197],[-124.6663928,48.2592414],[-124.6555889,48.2593628],[-124.6556747,48.2667623],[-124.6480572,48.2667623],[-124.6463728,48.2666909],[-124.6465874,48.2677478],[-124.6462441,48.2741821],[-124.6409762,48.2741749],[-124.6409977,48.2750175],[-124.6389806,48.2748819],[-124.622705,48.2748604],[-124.6003676,48.274939],[-124.5788869,48.2750411],[-124.5574951,48.2750282],[-124.5575219,48.2757066],[-124.557581,48.2804513],[-124.5577097,48.2951573],[-124.5576668,48.30749],[-124.5580531,48.3221026],[-124.5578814,48.3367967],[-124.5585787,48.3485132],[-124.5519376,48.3483492],[-124.5519269,48.3508875],[-124.5519698,48.3543241],[-124.5475656,48.354374],[-124.5478553,48.3545469],[-124.548102,48.3548481],[-124.5482898,48.3550388],[-124.5485634,48.355226],[-124.5501888,48.3560262],[-124.5504195,48.3562437],[-124.5507011,48.3566501],[-124.5508379,48.356814],[-124.5511302,48.3570047],[-124.5513931,48.3571134],[-124.5516586,48.3571188],[-124.5519644,48.35724],[-124.5520583,48.3572632],[-124.5523439,48.357318],[-124.5524096,48.3573795],[-124.5524653,48.3574561],[-124.5523283,48.3577727],[-124.5525649,48.3579045],[-124.552876,48.3584151],[-124.5538716,48.3589407],[-124.5550712,48.359761],[-124.5554113,48.3599003],[-124.5558927,48.3602157],[-124.5562698,48.3601946],[-124.5568187,48.3599453],[-124.5580173,48.3597395],[-124.5585586,48.3596701],[-124.558572,48.3597316],[-124.5585828,48.3598073],[-124.5585834,48.3599868],[-124.5585947,48.3605029],[-124.5584583,48.3607501],[-124.5582517,48.360805],[-124.5579117,48.3608113],[-124.557638,48.3607547],[-124.5574505,48.3607582],[-124.5571403,48.3606242],[-124.5568204,48.3605768],[-124.5566147,48.3606751],[-124.5565299,48.3607734],[-124.5567467,48.3610211],[-124.5569047,48.3612544],[-124.5574828,48.3616788],[-124.5592082,48.3630424],[-124.560218,48.3639224],[-124.5610318,48.3645176],[-124.561825,48.3650576],[-124.562408,48.365596],[-124.5630317,48.366172],[-124.5643662,48.3674156],[-124.5649116,48.3678231],[-124.5651394,48.3677966],[-124.565867,48.3677117],[-124.5674137,48.367447],[-124.5690469,48.3671766],[-124.570567,48.3669382],[-124.5718446,48.3665401],[-124.572863,48.3662227],[-124.5730924,48.3662156],[-124.5732401,48.3663085],[-124.5734584,48.3665277],[-124.5738173,48.3669484],[-124.5752648,48.3684638],[-124.5756011,48.3689219],[-124.5758052,48.3690444],[-124.5765341,48.3697363],[-124.5767721,48.3698859],[-124.5775816,48.3703949],[-124.5777535,48.3703375],[-124.5782007,48.3701964],[-124.5789353,48.3702055],[-124.579682,48.3702761],[-124.581704,48.3703851],[-124.5823883,48.3705617],[-124.5826066,48.3706106],[-124.5830132,48.3707866],[-124.5832943,48.3710643],[-124.583521,48.371584],[-124.5838916,48.3719516],[-124.5840725,48.3719534],[-124.5842156,48.3718418],[-124.5844031,48.3717495],[-124.5847519,48.3715689],[-124.5851754,48.3713899],[-124.5855733,48.3712678],[-124.5859727,48.3711403],[-124.5865406,48.3710803],[-124.586705,48.371143],[-124.5870712,48.371231],[-124.5872582,48.3712809],[-124.5874428,48.3714068],[-124.587785,48.3718344],[-124.5879921,48.371976],[-124.5881981,48.3721944],[-124.5887192,48.3726414],[-124.5888655,48.3728457],[-124.5890821,48.3728975],[-124.5891978,48.3730142],[-124.5895774,48.37313],[-124.5897743,48.3731726],[-124.5899592,48.3732669],[-124.5901915,48.3733945],[-124.5904315,48.3735284],[-124.5905164,48.3734832],[-124.5904483,48.3731212],[-124.5905145,48.3728786],[-124.5906451,48.3727884],[-124.5907061,48.3726793],[-124.5908361,48.3725816],[-124.59093,48.3725079],[-124.590918,48.3723371],[-124.5910347,48.3723664],[-124.5911717,48.3724704],[-124.591402,48.3724989],[-124.5917911,48.3724356],[-124.5935124,48.3722584],[-124.5942557,48.3721257],[-124.5956708,48.3719477],[-124.5960167,48.3718292],[-124.5960164,48.3718005],[-124.5960175,48.3717574],[-124.5960541,48.3705759],[-124.5958875,48.3705761],[-124.5947308,48.3705771],[-124.5947647,48.369103],[-124.5947662,48.3690468],[-124.594944,48.368898],[-124.5956186,48.3688884],[-124.6011179,48.3688103],[-124.601117,48.3690368],[-124.6011149,48.3690692],[-124.6012987,48.3689685],[-124.601477,48.3689632],[-124.6017157,48.3690117],[-124.6020055,48.3690221],[-124.602121,48.368992],[-124.6022313,48.368945],[-124.60225,48.3689104],[-124.6021197,48.3687809],[-124.6021028,48.3686511],[-124.6021985,48.368543],[-124.6026176,48.3683585],[-124.602772,48.3683385],[-124.6028256,48.3683168],[-124.6033113,48.3681295],[-124.6037866,48.3679656],[-124.6043394,48.3677662],[-124.6047138,48.3676311],[-124.6051574,48.3678804],[-124.6054113,48.3679043],[-124.6057659,48.3678959],[-124.6062606,48.3677814],[-124.6062647,48.3675173],[-124.6061306,48.3673545],[-124.6063486,48.3672495],[-124.6065386,48.3672275],[-124.6067495,48.367279],[-124.6072717,48.3673806],[-124.6080631,48.3681731],[-124.6083189,48.3680682],[-124.6075094,48.3672019],[-124.6074466,48.3670607],[-124.6075121,48.3669712],[-124.608057,48.3668091],[-124.608333,48.3667588],[-124.6084963,48.3667626],[-124.6095268,48.3667573],[-124.6097447,48.3666925],[-124.610128,48.3666514],[-124.6103373,48.3666932],[-124.6105264,48.366679],[-124.6106737,48.3666129],[-124.6107069,48.3665762],[-124.6108128,48.3665316],[-124.6110035,48.3665207],[-124.6110751,48.3664281],[-124.6113312,48.3663087],[-124.6117445,48.3662229],[-124.6120648,48.366191],[-124.6121986,48.3661824],[-124.6122952,48.366256],[-124.6124169,48.3662901],[-124.6124684,48.3663171],[-124.6125067,48.3663193],[-124.612534,48.3663208],[-124.6127333,48.3663319],[-124.612996,48.3663336],[-124.6130281,48.3663338],[-124.6130918,48.3662309],[-124.613188,48.3661522],[-124.6133163,48.3661483],[-124.6133578,48.366147],[-124.6134574,48.3661142],[-124.6138492,48.3662292],[-124.6139832,48.3662061],[-124.6140826,48.3662174],[-124.6144704,48.3662762],[-124.6148349,48.3663274],[-124.6148978,48.3662465],[-124.6150295,48.3662373],[-124.6151277,48.3662549],[-124.6158025,48.3663753],[-124.6158758,48.3664032],[-124.6158735,48.3664746],[-124.6159688,48.3664974],[-124.6160598,48.3664485],[-124.6163147,48.3664226],[-124.6167752,48.3665056],[-124.6169141,48.3665306],[-124.6171734,48.3665772],[-124.6172746,48.3665954],[-124.6173348,48.3666061],[-124.6173302,48.3666524],[-124.6173805,48.3666825],[-124.6174588,48.3667286],[-124.617553,48.3667273],[-124.617575,48.366727],[-124.6175963,48.3666578],[-124.6176993,48.3666764],[-124.6177114,48.3667186],[-124.6178335,48.3667633],[-124.6180639,48.3668293],[-124.6182363,48.3668011],[-124.6183419,48.366806],[-124.6184476,48.3668559],[-124.618488,48.3668884],[-124.6185587,48.366944],[-124.6187658,48.3669411],[-124.6188278,48.3668924],[-124.6188512,48.3668385],[-124.6189121,48.366825],[-124.6189937,48.366841],[-124.619083,48.3668679],[-124.6190973,48.3668692],[-124.619892,48.3669418],[-124.6199655,48.3668845],[-124.6203061,48.3670427],[-124.6204532,48.3670885],[-124.6207542,48.367124],[-124.6214582,48.3674607],[-124.621894,48.3677573],[-124.6223018,48.3681599],[-124.6226463,48.3686018],[-124.6229149,48.3686867],[-124.6230922,48.368642],[-124.6234742,48.3685277],[-124.623911,48.3683777],[-124.6243016,48.3685372],[-124.6248505,48.3688152],[-124.6248459,48.3689373],[-124.624847,48.3689926],[-124.62495,48.3690394],[-124.6251491,48.3691193],[-124.6254658,48.3693159],[-124.6257424,48.3695637],[-124.6261421,48.369814],[-124.6263969,48.3699978],[-124.6264384,48.3700889],[-124.6265281,48.3701012],[-124.626717,48.3702439],[-124.6268054,48.370314],[-124.6270301,48.3705104],[-124.6272221,48.3705701],[-124.6283722,48.3715221],[-124.6287589,48.3719366],[-124.6287691,48.3720406],[-124.6291018,48.3724742],[-124.6293003,48.3727243],[-124.6296263,48.3730845],[-124.6298289,48.3736065],[-124.6299469,48.3739872],[-124.6300247,48.3743684],[-124.6300062,48.3746706],[-124.6300542,48.374793],[-124.6300943,48.3750903],[-124.6301432,48.3753305],[-124.630132,48.3757385],[-124.6300864,48.3761198],[-124.6300676,48.3763247],[-124.6300454,48.3765145],[-124.6299143,48.3766007],[-124.6297163,48.376697],[-124.6295059,48.376763],[-124.629293,48.3768142],[-124.629104,48.3768571],[-124.628909,48.3768859],[-124.6287105,48.3769002],[-124.6283273,48.3769069],[-124.6281812,48.3769095],[-124.6279577,48.3769207],[-124.6274839,48.3769522],[-124.6267229,48.3770066],[-124.6265674,48.3770134],[-124.6264171,48.3770092],[-124.626285,48.3770021],[-124.6261854,48.3769883],[-124.6257478,48.3769385],[-124.6254804,48.3769091],[-124.6252343,48.3769025],[-124.6251033,48.3768997],[-124.6249873,48.3769115],[-124.624606,48.376945],[-124.6245226,48.3769791],[-124.6244865,48.3770156],[-124.6244757,48.3770872],[-124.6244517,48.3771085],[-124.6243985,48.3771285],[-124.624342,48.3771362],[-124.6242808,48.3771475],[-124.6240095,48.3771691],[-124.6233665,48.3772306],[-124.6232521,48.3772289],[-124.6231913,48.3772136],[-124.6231315,48.3771973],[-124.6230666,48.3771878],[-124.6229947,48.3772016],[-124.6227938,48.3772543],[-124.6227251,48.3772761],[-124.622673,48.377286],[-124.6226312,48.3772912],[-124.6225655,48.3772912],[-124.6225306,48.3772876],[-124.6224256,48.3772611],[-124.6223771,48.3772332],[-124.6223175,48.3772385],[-124.6222512,48.3772594],[-124.622204,48.3772698],[-124.622162,48.3772783],[-124.6221198,48.3772868],[-124.6220423,48.3772812],[-124.6219966,48.3772778],[-124.6220168,48.3774337],[-124.622049,48.3776234],[-124.6224923,48.3775898],[-124.6263351,48.3772896],[-124.6288272,48.3771317],[-124.6290052,48.3771018],[-124.629444,48.37703],[-124.6298925,48.376877],[-124.6302494,48.3766377],[-124.6304028,48.3765004],[-124.6304886,48.3765168],[-124.6307815,48.3766772],[-124.6309774,48.376816],[-124.6310953,48.3769275],[-124.6311788,48.3770026],[-124.6312555,48.3771045],[-124.6313256,48.3771814],[-124.6314183,48.3772239],[-124.6315843,48.377355],[-124.631691,48.3775275],[-124.6316489,48.3776527],[-124.6318033,48.3777647],[-124.6318858,48.3778258],[-124.6320785,48.3779708],[-124.632337,48.378136],[-124.63235,48.378148],[-124.632542,48.3783257],[-124.6328551,48.3785957],[-124.633057,48.3787882],[-124.6331246,48.3789668],[-124.6334533,48.3791886],[-124.6336213,48.3793528],[-124.6337003,48.379408],[-124.6338613,48.3794806],[-124.6339468,48.3795726],[-124.6344654,48.3799969],[-124.6347158,48.3802858],[-124.6352278,48.380688],[-124.6353694,48.3807702],[-124.6354137,48.3808137],[-124.6355452,48.3809427],[-124.6357974,48.3811085],[-124.6360191,48.381289],[-124.6362677,48.3814123],[-124.6364727,48.3815797],[-124.636973,48.3818387],[-124.6371704,48.3820183],[-124.6372419,48.3821088],[-124.6373079,48.3821483],[-124.6372984,48.382185],[-124.637342,48.3822647],[-124.6374397,48.3823615],[-124.6374968,48.3824651],[-124.6378813,48.3827737],[-124.6380585,48.382964],[-124.6381185,48.3830847],[-124.6381473,48.3832123],[-124.6383457,48.3835044],[-124.6384496,48.3836112],[-124.6385892,48.3836773],[-124.6387121,48.3838585],[-124.6387901,48.3839302],[-124.6388257,48.3840092],[-124.6388741,48.3842771],[-124.6389852,48.3845757],[-124.6390763,48.384647],[-124.639138,48.3848197],[-124.6391685,48.3851273],[-124.6391399,48.3852346],[-124.63919,48.3853516],[-124.6391108,48.3856366],[-124.6391484,48.3857574],[-124.6390998,48.3858205],[-124.6390717,48.3859473],[-124.639035,48.3859754],[-124.6389243,48.3860074],[-124.6388269,48.3860722],[-124.6387118,48.3860779],[-124.6385951,48.386166],[-124.6385311,48.3861799],[-124.6384277,48.3861684],[-124.6383352,48.3861772],[-124.6381717,48.3862518],[-124.6381021,48.386362],[-124.6376287,48.3866509],[-124.6375585,48.3867781],[-124.6375096,48.3869248],[-124.6375099,48.3870599],[-124.6374676,48.387148],[-124.6373834,48.387213],[-124.6372461,48.3872886],[-124.6370643,48.3873784],[-124.6369998,48.3874534],[-124.6369142,48.3876003],[-124.6368551,48.3877521],[-124.636887,48.3877908],[-124.6370206,48.3878427],[-124.6370955,48.3879042],[-124.6371668,48.3880711],[-124.6372125,48.3880788],[-124.6372944,48.3880636],[-124.6373096,48.3880764],[-124.6372988,48.3881094],[-124.6373635,48.3881531],[-124.6374345,48.3881482],[-124.6375106,48.3880694],[-124.637691,48.3880322],[-124.6377806,48.3880346],[-124.6379544,48.3880779],[-124.6380568,48.3880863],[-124.6384031,48.3880666],[-124.6386604,48.388085],[-124.6387663,48.3880532],[-124.6389127,48.3880416],[-124.639383,48.388165],[-124.6396448,48.3882063],[-124.6398859,48.3882307],[-124.6399942,48.3882105],[-124.6401989,48.3882071],[-124.640463,48.388262],[-124.6406648,48.3882412],[-124.6408667,48.3882907],[-124.6409428,48.3883312],[-124.6410974,48.388356],[-124.6413501,48.388318],[-124.6425428,48.3882056],[-124.6428893,48.3882401],[-124.6430497,48.3882797],[-124.6431453,48.3882777],[-124.6434631,48.3883307],[-124.6438746,48.3883712],[-124.6441064,48.3883579],[-124.6443848,48.3883728],[-124.6448113,48.3884158],[-124.6450397,48.3884164],[-124.6456411,48.3884845],[-124.6462884,48.3884755],[-124.6467116,48.3885323],[-124.64719,48.3885169],[-124.6474293,48.3885311],[-124.6475721,48.388592],[-124.647635,48.3885599],[-124.647694,48.3885637],[-124.6477312,48.388621],[-124.6479486,48.3886895],[-124.6480351,48.3887386],[-124.6481283,48.3887066],[-124.6482167,48.38871],[-124.6482865,48.3887271],[-124.6483473,48.3887798],[-124.648383,48.3887792],[-124.6485663,48.3888658],[-124.6488629,48.388808],[-124.6489475,48.3888198],[-124.6489728,48.3888789],[-124.6490694,48.3888762],[-124.6491188,48.3888563],[-124.6491393,48.3888254],[-124.6492126,48.3888177],[-124.6493364,48.3889677],[-124.6493829,48.3889753],[-124.6495545,48.3890982],[-124.6497765,48.3893199],[-124.6498519,48.3893515],[-124.6499105,48.3893509],[-124.6500059,48.3892772],[-124.6501126,48.3892662],[-124.6501613,48.3892755],[-124.6502211,48.3893153],[-124.6503705,48.3894729],[-124.6504095,48.3895686],[-124.6504837,48.3896668],[-124.6505201,48.3896879],[-124.6506544,48.3897092],[-124.6506784,48.3897361],[-124.6509022,48.389789],[-124.6509919,48.3898483],[-124.6511864,48.389863],[-124.651236,48.3898853],[-124.6512719,48.3899506],[-124.6513309,48.3899543],[-124.651369,48.3899413],[-124.6514422,48.3899628],[-124.6516354,48.3900812],[-124.6517699,48.3901018],[-124.6518295,48.3901285],[-124.6519395,48.3902529],[-124.6519873,48.3902818],[-124.6520393,48.3903726],[-124.6521765,48.3904439],[-124.6522409,48.3905028],[-124.6523471,48.3905662],[-124.6524704,48.3906143],[-124.6525856,48.3906495],[-124.6527166,48.3906598],[-124.6528415,48.3905945],[-124.6532097,48.3902663],[-124.6534001,48.3902003],[-124.6534794,48.3900867],[-124.6535741,48.3900762],[-124.6536377,48.390053],[-124.6537535,48.3899378],[-124.6539067,48.38982],[-124.6539333,48.3897975],[-124.6539957,48.3897547],[-124.6542559,48.3897305],[-124.6545745,48.3896209],[-124.6551146,48.3896135],[-124.6555745,48.3896958],[-124.6557108,48.3897809],[-124.655843,48.3898181],[-124.655893,48.3898448],[-124.655906,48.3898992],[-124.6559932,48.3899685],[-124.6560672,48.390113],[-124.6561519,48.3901426],[-124.6562471,48.3900964],[-124.6562831,48.3900955],[-124.6563556,48.3901265],[-124.6564311,48.3902377],[-124.6564086,48.390279],[-124.6565547,48.3903222],[-124.6567581,48.3903545],[-124.65681,48.3904573],[-124.6569319,48.3905278],[-124.657086,48.3905158],[-124.657378,48.3906424],[-124.657704,48.3906917],[-124.6580398,48.390696],[-124.6581003,48.3907082],[-124.6581858,48.3907797],[-124.6583429,48.3908486],[-124.6583912,48.3908866],[-124.6585288,48.3910567],[-124.6587964,48.3911396],[-124.658833,48.391175],[-124.6591686,48.3912149],[-124.6592661,48.3912139],[-124.6593954,48.3911174],[-124.6594903,48.3911158],[-124.6595608,48.3910841],[-124.6595829,48.3910371],[-124.6597135,48.3909948],[-124.6599904,48.3908107],[-124.6601594,48.3907127],[-124.6603516,48.3905651],[-124.6605904,48.3904026],[-124.6607093,48.3902925],[-124.6610258,48.3901892],[-124.6612564,48.3901019],[-124.6614388,48.3899825],[-124.6618143,48.3898205],[-124.6620584,48.3896851],[-124.6623749,48.3895426],[-124.6626673,48.3893841],[-124.6628309,48.3893118],[-124.6630253,48.3892423],[-124.6634627,48.389149],[-124.6638673,48.389054],[-124.6641656,48.3889883],[-124.6648535,48.3888462],[-124.6652243,48.3887572],[-124.6657676,48.3886785],[-124.6657937,48.3886737],[-124.6671871,48.388484],[-124.6675429,48.3884355],[-124.6676697,48.3883421],[-124.6678914,48.3882825],[-124.6680438,48.3883077],[-124.6681464,48.3883055],[-124.6683276,48.3883766],[-124.6683502,48.3883727],[-124.668586,48.3884988],[-124.6687593,48.3885565],[-124.668823,48.3885556],[-124.6688694,48.3885358],[-124.6689044,48.3885452],[-124.6690716,48.3886669],[-124.6691294,48.3887365],[-124.6693804,48.3888234],[-124.6696387,48.3889737],[-124.6701836,48.3891716],[-124.6702964,48.3892438],[-124.670548,48.3893669],[-124.6706216,48.3894312],[-124.6707471,48.3894587],[-124.6708453,48.389519],[-124.6711515,48.389584],[-124.6713253,48.3895909],[-124.6715361,48.3896579],[-124.6717734,48.3897727],[-124.6722764,48.3898461],[-124.6725077,48.3899151],[-124.6728268,48.3900551],[-124.6730309,48.390183],[-124.6730916,48.3902022],[-124.6731795,48.3902752],[-124.6733358,48.3903493],[-124.6733842,48.3903523],[-124.6734394,48.3903017],[-124.6735188,48.3900952],[-124.6737233,48.3899998],[-124.6737936,48.3899959],[-124.673854,48.3900075],[-124.6738791,48.3900385],[-124.6740139,48.3900688],[-124.6740706,48.3900637],[-124.6740784,48.3900483],[-124.6741516,48.3900227],[-124.6742061,48.3900194],[-124.6744289,48.390098],[-124.674653,48.3901312],[-124.6748118,48.3901788],[-124.6749196,48.390187],[-124.6752995,48.3901722],[-124.6753924,48.3901946],[-124.6754389,48.3902324],[-124.6756602,48.3903203],[-124.6757923,48.3903174],[-124.6758289,48.3904056],[-124.6759422,48.3903954],[-124.6760825,48.3903541],[-124.6761687,48.3903754],[-124.6762267,48.3905023],[-124.6762309,48.3905557],[-124.6764144,48.3907389],[-124.6764528,48.3907361],[-124.6764735,48.390708],[-124.6765226,48.3906942],[-124.6765166,48.3909321],[-124.6764583,48.3910062],[-124.6764642,48.3911092],[-124.6765513,48.3911717],[-124.676549,48.3912005],[-124.6765145,48.3912518],[-124.6763956,48.3912698],[-124.6762301,48.3913387],[-124.6762395,48.3914073],[-124.6763728,48.391501],[-124.6765866,48.3915563],[-124.676636,48.3915819],[-124.6767209,48.3915817],[-124.6768469,48.3916472],[-124.6769234,48.3916469],[-124.6769791,48.3916744],[-124.6770078,48.3917177],[-124.6770788,48.3917529],[-124.6771816,48.3917695],[-124.677343,48.3917429],[-124.6773988,48.3916445],[-124.6773457,48.3914656],[-124.6772715,48.3913619],[-124.6772793,48.3913174],[-124.6773513,48.3913073],[-124.6773719,48.3912908],[-124.677362,48.3911821],[-124.6773309,48.3911119],[-124.677284,48.3910892],[-124.677261,48.3910485],[-124.6772645,48.3910219],[-124.6773338,48.3909708],[-124.6773723,48.3908528],[-124.6774724,48.3907255],[-124.6775342,48.3906873],[-124.677983,48.3905833],[-124.6781635,48.3905093],[-124.6782244,48.3904581],[-124.6787989,48.3902649],[-124.6790952,48.3901962],[-124.6792757,48.3901222],[-124.6793735,48.3901112],[-124.6798405,48.3900909],[-124.6802104,48.3901286],[-124.6803568,48.3901272],[-124.6804859,48.3901508],[-124.6805449,48.3901843],[-124.6806389,48.390194],[-124.6806745,48.3901818],[-124.6809503,48.3901721],[-124.6810218,48.3901486],[-124.6810497,48.3901082],[-124.6811324,48.3900864],[-124.6812492,48.390133],[-124.6813563,48.3900973],[-124.6814241,48.3900274],[-124.6814953,48.3900005],[-124.6816242,48.3900241],[-124.68177,48.3900131],[-124.6818557,48.3900251],[-124.6819523,48.3901027],[-124.6821104,48.3901025],[-124.6822974,48.3902012],[-124.682452,48.3901958],[-124.6827162,48.3902505],[-124.6827215,48.3902822],[-124.6826752,48.3903045],[-124.6826805,48.3903362],[-124.6827756,48.3903592],[-124.6828043,48.3904354],[-124.6828467,48.3904733],[-124.6829618,48.3904991],[-124.6830682,48.3904898],[-124.6832077,48.3905055],[-124.6833108,48.3905224],[-124.683378,48.3905523],[-124.6835491,48.3905404],[-124.6837435,48.3905692],[-124.683786,48.3905378],[-124.6837394,48.3904829],[-124.6837687,48.3904273],[-124.683841,48.3904134],[-124.6838386,48.3903837],[-124.6837841,48.3903009],[-124.6836803,48.3902387],[-124.6836219,48.390143],[-124.683562,48.3900982],[-124.6835535,48.3900628],[-124.6834687,48.3899907],[-124.683481,48.3899118],[-124.6835425,48.3898508],[-124.6836577,48.3897552],[-124.6838057,48.3896567],[-124.6839069,48.3896127],[-124.6840042,48.3895682],[-124.6841532,48.3895092],[-124.6843303,48.3894806],[-124.6847524,48.3894288],[-124.6850373,48.3893863],[-124.6853507,48.3893579],[-124.6855842,48.3893685],[-124.6859124,48.3894212],[-124.6859729,48.3894376],[-124.6860239,48.3895113],[-124.6860924,48.3895219],[-124.6862328,48.3895131],[-124.6862531,48.3895182],[-124.6862384,48.3895469],[-124.6863454,48.3895788],[-124.6865635,48.3895878],[-124.6865626,48.3896482],[-124.6866322,48.3896718],[-124.6866508,48.3896561],[-124.6867155,48.3896538],[-124.6867426,48.3896775],[-124.6867696,48.3897668],[-124.6868594,48.3897955],[-124.6869198,48.3897745],[-124.6869302,48.3896558],[-124.6869617,48.3896283],[-124.6869595,48.3896002],[-124.6870774,48.38963],[-124.6871872,48.3896241],[-124.6872879,48.3896469],[-124.6873608,48.3896443],[-124.6874796,48.3896813],[-124.6876294,48.3896478],[-124.6876243,48.3895842],[-124.6875615,48.3895076],[-124.6875737,48.3894468],[-124.6877752,48.3894266],[-124.6879095,48.3894445],[-124.6880572,48.3895274],[-124.6881667,48.3895575],[-124.6882386,48.3896451],[-124.6884403,48.3897131],[-124.6885106,48.3897106],[-124.688603,48.3896322],[-124.6885916,48.3895575],[-124.6886081,48.3895192],[-124.6886524,48.3895063],[-124.6886996,48.3895327],[-124.6887213,48.3895923],[-124.6888463,48.38971],[-124.6888951,48.3898077],[-124.6889931,48.3897971],[-124.6889831,48.3897429],[-124.6890152,48.3897229],[-124.6890872,48.3897409],[-124.6891345,48.3898013],[-124.6891461,48.389876],[-124.6892009,48.3898909],[-124.6893312,48.3897755],[-124.6894119,48.3897953],[-124.689442,48.3898185],[-124.689453,48.3898689],[-124.6895072,48.3899123],[-124.6895831,48.3899432],[-124.6896363,48.3899358],[-124.6898119,48.3898394],[-124.6899955,48.3898065],[-124.6902129,48.389808],[-124.6902748,48.3898381],[-124.6902762,48.3899111],[-124.6902046,48.3899853],[-124.6901647,48.3900879],[-124.6901983,48.3901189],[-124.6903115,48.3901598],[-124.6904387,48.3902304],[-124.6904839,48.3902326],[-124.6907303,48.3900678],[-124.6907425,48.3900074],[-124.6906797,48.3899269],[-124.6906835,48.3898328],[-124.6907876,48.3897952],[-124.6908559,48.3898024],[-124.6909042,48.3898401],[-124.6909257,48.3898994],[-124.6909974,48.3899815],[-124.6910618,48.3900111],[-124.6911294,48.3900087],[-124.6911911,48.3900405],[-124.6913004,48.3899972],[-124.6914624,48.39001],[-124.6916174,48.3900779],[-124.6920177,48.3901803],[-124.6920598,48.3901393],[-124.692124,48.3901312],[-124.6922228,48.3901692],[-124.6922783,48.3902256],[-124.6923292,48.3902275],[-124.6924172,48.3901623],[-124.6924672,48.390153],[-124.692516,48.3901643],[-124.6925657,48.3902192],[-124.6926016,48.3902271],[-124.6926526,48.390214],[-124.6926891,48.3901753],[-124.6926611,48.3901441],[-124.6926667,48.3901233],[-124.6926931,48.3901186],[-124.6927895,48.3901265],[-124.6930091,48.39019],[-124.6931003,48.3901813],[-124.6931835,48.3901108],[-124.6932079,48.3900647],[-124.6932164,48.3899234],[-124.6932833,48.3898065],[-124.6933713,48.3897769],[-124.6935007,48.3897723],[-124.6936301,48.3898731],[-124.6936942,48.3898989],[-124.6937255,48.3898659],[-124.6937349,48.3897002],[-124.6939293,48.3896614],[-124.6940268,48.389611],[-124.6941252,48.3896411],[-124.6941791,48.3897164],[-124.6942506,48.3896933],[-124.6943157,48.3896402],[-124.6943729,48.3896344],[-124.6944135,48.389646],[-124.6944586,48.3897534],[-124.6945179,48.389787],[-124.6945727,48.3897662],[-124.6946,48.389722],[-124.6945978,48.3896583],[-124.6946327,48.3896344],[-124.6946785,48.3896441],[-124.6947864,48.3897212],[-124.6948351,48.3897833],[-124.694935,48.3898343],[-124.6949868,48.3899],[-124.6950277,48.3899154],[-124.6951869,48.3898967],[-124.6952584,48.3898022],[-124.6952857,48.3897899],[-124.6953279,48.3897884],[-124.6953683,48.389834],[-124.6954229,48.3898472],[-124.6954704,48.3898417],[-124.695508,48.3897941],[-124.6954982,48.3896867],[-124.6952691,48.3895885],[-124.6952456,48.3895033],[-124.6951946,48.3894745],[-124.6952056,48.3894546],[-124.6952927,48.3894646],[-124.69526,48.3894232],[-124.6951817,48.3893803],[-124.6950435,48.3893558],[-124.6950046,48.3893228],[-124.6947513,48.3891984],[-124.6945652,48.3891309],[-124.6944316,48.3890571],[-124.6943344,48.388956],[-124.6941607,48.3888184],[-124.6940115,48.3887273],[-124.693855,48.3886821],[-124.6938236,48.3886534],[-124.6938291,48.3886199],[-124.6938973,48.3885859],[-124.6939459,48.3885719],[-124.6941704,48.3885207],[-124.6942813,48.3884818],[-124.6943819,48.3884199],[-124.6945404,48.3882634],[-124.6946043,48.387984],[-124.694639,48.387931],[-124.6947449,48.3878809],[-124.6947768,48.3878448],[-124.694757,48.3877906],[-124.6947199,48.3877614],[-124.6944369,48.3876641],[-124.6944046,48.3876244],[-124.6944244,48.3876107],[-124.6945472,48.3876176],[-124.6945711,48.3875684],[-124.6947326,48.3876406],[-124.6948107,48.3876601],[-124.6949406,48.3876527],[-124.6952673,48.3877197],[-124.6955093,48.3877382],[-124.6956069,48.3877772],[-124.695763,48.3878012],[-124.6957838,48.3878162],[-124.6960448,48.3878125],[-124.6964783,48.3878585],[-124.69697,48.388029],[-124.6970742,48.3880438],[-124.6972001,48.3880373],[-124.6973621,48.3880991],[-124.6975123,48.3881328],[-124.6976856,48.388161],[-124.6978503,48.3881699],[-124.6978818,48.3881808],[-124.6979244,48.388243],[-124.6980524,48.3883338],[-124.6980898,48.3883836],[-124.6981681,48.3884409],[-124.698275,48.3884899],[-124.6983494,48.3885514],[-124.6984624,48.3885223],[-124.6985033,48.3885308],[-124.6985188,48.3885666],[-124.6986023,48.3886199],[-124.6987229,48.3886139],[-124.6987611,48.3886256],[-124.6987736,48.3885888],[-124.698734,48.388405],[-124.6988043,48.3883833],[-124.6988947,48.3884161],[-124.6989279,48.3884502],[-124.6989307,48.3885019],[-124.699064,48.3885877],[-124.6991294,48.388655],[-124.6991629,48.3886751],[-124.6991959,48.3886729],[-124.6993038,48.3886303],[-124.699329,48.3885629],[-124.699291,48.3884871],[-124.6993126,48.3884606],[-124.6993368,48.3884504],[-124.6994059,48.3884813],[-124.6994718,48.3884714],[-124.699521,48.3883715],[-124.69958,48.3883464],[-124.6995828,48.3883306],[-124.6995504,48.3882892],[-124.6994007,48.3882064],[-124.6993629,48.3881336],[-124.6992202,48.3880204],[-124.6990683,48.3879469],[-124.698989,48.3878561],[-124.698982,48.3878045],[-124.6990958,48.3877329],[-124.6991585,48.3876641],[-124.6993353,48.3875827],[-124.6993683,48.3875418],[-124.6995123,48.3874485],[-124.6996398,48.387407],[-124.6997725,48.3874146],[-124.6998403,48.3874647],[-124.6998953,48.3875433],[-124.7000882,48.3876088],[-124.7001092,48.3875906],[-124.7002082,48.3875768],[-124.7001968,48.3875206],[-124.7001342,48.3874885],[-124.7001471,48.38744],[-124.700313,48.3874293],[-124.7004435,48.3874442],[-124.7005024,48.3874662],[-124.7005288,48.3875033],[-124.7006137,48.3875373],[-124.7007092,48.3875312],[-124.7007321,48.3874895],[-124.7007892,48.3874717],[-124.700878,48.3874881],[-124.7009244,48.3875115],[-124.7009932,48.3877979],[-124.7010765,48.3878635],[-124.7011579,48.3878736],[-124.7012061,48.3879042],[-124.7012708,48.3879139],[-124.7013327,48.3879055],[-124.7013552,48.3878721],[-124.7014305,48.3878574],[-124.7016641,48.3878779],[-124.7017977,48.3878444],[-124.7018821,48.3878026],[-124.7020236,48.3876436],[-124.7022717,48.3874266],[-124.7023906,48.3874001],[-124.7024396,48.3874048],[-124.7025969,48.387475],[-124.7026748,48.3874929],[-124.7027543,48.3874629],[-124.7027881,48.3874322],[-124.702803,48.3873576],[-124.7028663,48.3873146],[-124.7029914,48.3873341],[-124.7030876,48.3873873],[-124.703184,48.3873952],[-124.7032494,48.3873592],[-124.7034349,48.3873166],[-124.7036207,48.3873083],[-124.7036309,48.3872623],[-124.703784,48.3872126],[-124.7038505,48.3872109],[-124.7038793,48.3871869],[-124.7038743,48.3871604],[-124.7037725,48.3870343],[-124.7036457,48.386961],[-124.7036476,48.3869146],[-124.7037175,48.3868844],[-124.7037482,48.3868527],[-124.7038555,48.3865073],[-124.7040172,48.3863921],[-124.7040964,48.3863621],[-124.7041009,48.3863604],[-124.7041636,48.3863461],[-124.7042921,48.3863165],[-124.7045196,48.3862066],[-124.7045983,48.3861317],[-124.704959,48.386016],[-124.7051449,48.3860121],[-124.7055752,48.3859515],[-124.705912,48.3859687],[-124.7060087,48.3859447],[-124.7062749,48.3859599],[-124.7063346,48.3859852],[-124.7063651,48.3860839],[-124.7064015,48.3861046],[-124.7066359,48.3861059],[-124.7068035,48.3861722],[-124.7068673,48.3861974],[-124.7069975,48.386283],[-124.7070699,48.38629],[-124.7073741,48.3864174],[-124.7076146,48.386472],[-124.7077461,48.3865222],[-124.7078138,48.3865702],[-124.7080251,48.3866436],[-124.708058,48.3866723],[-124.7082765,48.3867317],[-124.7084002,48.3867877],[-124.7085019,48.3868002],[-124.7088088,48.3868839],[-124.708953,48.386865],[-124.7091578,48.3869044],[-124.7093227,48.3870409],[-124.7095313,48.3871058],[-124.7097443,48.3872255],[-124.7098332,48.3872552],[-124.7099172,48.3872783],[-124.7100128,48.3872667],[-124.7100652,48.3871005],[-124.7101083,48.387099],[-124.7101413,48.3871252],[-124.7102169,48.3871212],[-124.7102329,48.3871412],[-124.7102077,48.3872378],[-124.7102819,48.3873144],[-124.7103278,48.3874537],[-124.7104058,48.3875017],[-124.7105454,48.3875543],[-124.7107328,48.3876845],[-124.7107706,48.3876969],[-124.710898,48.3876964],[-124.7109479,48.3877533],[-124.7110856,48.3877566],[-124.7111248,48.3878087],[-124.711243,48.3878471],[-124.7112457,48.3879317],[-124.7114118,48.3879765],[-124.7114816,48.3879],[-124.7115183,48.3878959],[-124.7115913,48.3879358],[-124.7116451,48.3879421],[-124.7116687,48.3879797],[-124.7117473,48.3880095],[-124.7117939,48.3879996],[-124.7118163,48.3879745],[-124.711887,48.3879596],[-124.7119367,48.387989],[-124.7120101,48.3879823],[-124.7121164,48.38795],[-124.7121958,48.3878965],[-124.7124111,48.3878586],[-124.7124848,48.3878532],[-124.7125787,48.387794],[-124.7126085,48.3877325],[-124.7126705,48.3877098],[-124.7127211,48.3878517],[-124.7128273,48.3878698],[-124.7128692,48.387856],[-124.7129768,48.3878906],[-124.7130584,48.3880355],[-124.7130502,48.3881123],[-124.7130848,48.3883124],[-124.7131716,48.3883189],[-124.7131745,48.3884062],[-124.7131932,48.3884344],[-124.7132521,48.3884529],[-124.713235,48.3885478],[-124.7132519,48.3886048],[-124.7133199,48.3886555],[-124.7133977,48.3886788],[-124.7134446,48.3886758],[-124.7134622,48.3886903],[-124.7134224,48.3887808],[-124.7133569,48.3888377],[-124.7133662,48.3888772],[-124.7135012,48.3889351],[-124.7136154,48.3890713],[-124.7137354,48.3891336],[-124.7137972,48.3891873],[-124.7139257,48.3892417],[-124.7141283,48.3893576],[-124.7142723,48.3893868],[-124.7144772,48.3893867],[-124.714529,48.3893639],[-124.7146019,48.3892944],[-124.7146066,48.3892185],[-124.7146067,48.3891492],[-124.7145143,48.3888157],[-124.7143308,48.3886751],[-124.7143176,48.3885942],[-124.7145456,48.388346],[-124.7147299,48.3883038],[-124.7149045,48.3883096],[-124.7150625,48.3884435],[-124.7151551,48.3886515],[-124.7152152,48.3888994],[-124.7150676,48.3890621],[-124.7151939,48.3893553],[-124.7153754,48.389557],[-124.7156393,48.3896724],[-124.7161036,48.3897272],[-124.7164704,48.389732],[-124.716981,48.3896393],[-124.7171319,48.3895715],[-124.717178,48.3894241],[-124.7172706,48.3893525],[-124.7173424,48.3893558],[-124.7174057,48.3894222],[-124.7176757,48.3895044],[-124.7178173,48.3894846],[-124.7177509,48.3894366],[-124.7177652,48.3893942],[-124.7178097,48.3893899],[-124.7178782,48.3894677],[-124.7179595,48.3894765],[-124.7180476,48.3895179],[-124.7181007,48.3895668],[-124.7181941,48.3895635],[-124.7182772,48.3895396],[-124.7183748,48.3892802],[-124.7183529,48.3891771],[-124.7182836,48.3890904],[-124.7180903,48.3889662],[-124.7176662,48.3887999],[-124.7176071,48.3887335],[-124.7176375,48.3886672],[-124.717891,48.388652],[-124.7180586,48.3885716],[-124.7181674,48.3883684],[-124.7184287,48.3884513],[-124.7185131,48.3885018],[-124.7186294,48.3886167],[-124.7186093,48.3887543],[-124.718718,48.3888574],[-124.7188596,48.388924],[-124.7189611,48.3889084],[-124.7192498,48.3890528],[-124.7197589,48.3889423],[-124.7198709,48.3887778],[-124.7199641,48.3887179],[-124.7205226,48.3886088],[-124.720545,48.3885545],[-124.7204888,48.3884642],[-124.7203782,48.3884236],[-124.7203302,48.3883807],[-124.7203722,48.3883494],[-124.7208025,48.3884232],[-124.7208593,48.3884064],[-124.7208701,48.3883731],[-124.7204802,48.3881517],[-124.7203851,48.388116],[-124.7202608,48.388139],[-124.7201464,48.3880549],[-124.7200402,48.3880344],[-124.720018,48.3879878],[-124.7202574,48.3878277],[-124.7201208,48.3874697],[-124.7201097,48.3872941],[-124.7201665,48.3870808],[-124.720316,48.3869914],[-124.7204766,48.386996],[-124.7206269,48.3871422],[-124.72073,48.3871632],[-124.7206927,48.3872342],[-124.7207636,48.3874265],[-124.7208745,48.3875066],[-124.7209701,48.387546],[-124.7210997,48.3874759],[-124.7211085,48.3875472],[-124.7211504,48.3875684],[-124.72115,48.3876401],[-124.7212369,48.3876514],[-124.7213221,48.3877159],[-124.7215237,48.3876964],[-124.7215863,48.3877864],[-124.7217342,48.3877873],[-124.721798,48.3879304],[-124.7219132,48.3880248],[-124.722211,48.3881328],[-124.7223725,48.3880759],[-124.7225659,48.388069],[-124.7226346,48.3880052],[-124.722854,48.3879417],[-124.7229413,48.3878772],[-124.7229114,48.3878519],[-124.7229267,48.3877731],[-124.7231358,48.387731],[-124.7232067,48.3876589],[-124.7230051,48.3874857],[-124.7226821,48.3873724],[-124.7225541,48.3871965],[-124.7226168,48.3870958],[-124.722834,48.387004],[-124.722932,48.3869964],[-124.7230337,48.3870377],[-124.7232007,48.3870462],[-124.7232879,48.3871765],[-124.7236215,48.3873837],[-124.7237218,48.3873698],[-124.7237378,48.3873384],[-124.7236822,48.3872584],[-124.7236317,48.3870884],[-124.72324,48.3868849],[-124.723253,48.3868581],[-124.7233505,48.3868443],[-124.7233329,48.3867403],[-124.7234239,48.386688],[-124.7236249,48.3867381],[-124.7237322,48.3867343],[-124.7237789,48.3868146],[-124.7238768,48.386809],[-124.7238771,48.3868519],[-124.7239515,48.3868574],[-124.7243009,48.3867263],[-124.7244661,48.3865626],[-124.7243642,48.3864411],[-124.7244545,48.3863414],[-124.7243221,48.3862254],[-124.7242484,48.3859595],[-124.7243146,48.3859019],[-124.724235,48.3855625],[-124.7241667,48.3855546],[-124.7241422,48.3855188],[-124.7241762,48.3852919],[-124.7240849,48.3852255],[-124.7241044,48.3851264],[-124.7240663,48.3849947],[-124.7242527,48.3849019],[-124.7243888,48.3849135],[-124.7244821,48.3851928],[-124.7245803,48.3853413],[-124.7250502,48.3856746],[-124.7251039,48.3856545],[-124.7250914,48.3855751],[-124.7251437,48.3854991],[-124.7252641,48.3854272],[-124.7252837,48.3853672],[-124.7253601,48.3853604],[-124.7254345,48.3855196],[-124.7253354,48.3858562],[-124.7254709,48.3859333],[-124.7254984,48.3860061],[-124.7256326,48.3860332],[-124.7259768,48.3859492],[-124.7259845,48.3858913],[-124.7261561,48.3858443],[-124.7262317,48.3857867],[-124.7263118,48.3858444],[-124.7266243,48.3859709],[-124.7267666,48.3859597],[-124.7268473,48.3860314],[-124.7269224,48.3860163],[-124.7269861,48.3859856],[-124.7269491,48.3859237],[-124.7268619,48.3858724],[-124.7267055,48.3857971],[-124.7265208,48.3856598],[-124.7264574,48.3856028],[-124.7264656,48.3855673],[-124.7264949,48.3855499],[-124.7266334,48.3855745],[-124.7267532,48.3855696],[-124.726907,48.3855825],[-124.7269969,48.3856187],[-124.7270669,48.3856417],[-124.7271305,48.3856286],[-124.7271511,48.3855879],[-124.7271076,48.3855511],[-124.7269504,48.3855549],[-124.7267709,48.3855097],[-124.7266069,48.3854287],[-124.7265851,48.3853713],[-124.7266036,48.3853264],[-124.7266758,48.3853058],[-124.7268745,48.3853151],[-124.7270605,48.3853486],[-124.7271192,48.3853293],[-124.7271558,48.3852078],[-124.7270489,48.3850551],[-124.7269126,48.3848968],[-124.726618,48.3847409],[-124.7265371,48.3846759],[-124.7267464,48.3846561],[-124.7268464,48.3846262],[-124.7267191,48.3845309],[-124.7265157,48.3844194],[-124.7263188,48.3843957],[-124.7260865,48.3844051],[-124.7258644,48.3843358],[-124.7257292,48.3843499],[-124.7255544,48.3844086],[-124.7254497,48.3844222],[-124.7253459,48.3844026],[-124.7252435,48.3843214],[-124.725232,48.3842391],[-124.725046,48.3840918],[-124.7248307,48.3839757],[-124.7247449,48.3838722],[-124.7246593,48.3837527],[-124.7246948,48.3833517],[-124.7247022,48.3832682],[-124.7255262,48.3834278],[-124.7261785,48.3833822],[-124.7264525,48.3834101],[-124.7268119,48.3834786],[-124.7268884,48.3833905],[-124.7268798,48.3833192],[-124.7267579,48.3832711],[-124.7266984,48.3831702],[-124.7267909,48.3831618],[-124.726969,48.3831439],[-124.7270334,48.3831187],[-124.7269839,48.3829983],[-124.7268775,48.382985],[-124.7268465,48.3829353],[-124.7267627,48.3828416],[-124.7267396,48.3827115],[-124.7270154,48.3825281],[-124.7270592,48.3823394],[-124.7270802,48.3821716],[-124.7271508,48.3819234],[-124.7272184,48.3820552],[-124.7272179,48.3822254],[-124.7274442,48.3823552],[-124.727608,48.3823723],[-124.7275968,48.3824775],[-124.7275042,48.3825497],[-124.7275257,48.3826644],[-124.7276033,48.3829148],[-124.7276891,48.3830445],[-124.727878,48.3830687],[-124.7280197,48.382995],[-124.7281023,48.3828509],[-124.7285044,48.3828433],[-124.7284885,48.3827685],[-124.7282397,48.3826414],[-124.7283355,48.3825789],[-124.7284985,48.3826174],[-124.7286868,48.3824893],[-124.7288168,48.3825077],[-124.7289709,48.3824972],[-124.7290343,48.3824753],[-124.7290351,48.382454],[-124.7289079,48.3824176],[-124.7289361,48.3822852],[-124.7289839,48.3822469],[-124.7289493,48.3822137],[-124.7289439,48.3821779],[-124.7289858,48.382178],[-124.7291567,48.3822539],[-124.7293682,48.3822995],[-124.7295503,48.3823913],[-124.7296498,48.3824975],[-124.7299552,48.3825325],[-124.7301075,48.3825303],[-124.730246,48.3825696],[-124.730264,48.3826298],[-124.7304705,48.3829484],[-124.7305548,48.3829697],[-124.7308536,48.3829051],[-124.7310037,48.382831],[-124.7310597,48.3826608],[-124.7310224,48.3825894],[-124.7309528,48.3825804],[-124.7308802,48.3825338],[-124.7308765,48.3824609],[-124.7305902,48.3823068],[-124.7303861,48.3822721],[-124.7301952,48.3821831],[-124.7301752,48.3821183],[-124.7302691,48.3820936],[-124.7302401,48.3820389],[-124.7300175,48.3819322],[-124.7299569,48.3819426],[-124.7299508,48.3820404],[-124.7296512,48.3819493],[-124.7294342,48.3818403],[-124.7293533,48.3817479],[-124.7291798,48.3816705],[-124.7290501,48.3816178],[-124.7292222,48.3816165],[-124.7295804,48.3817045],[-124.7297134,48.3816072],[-124.7296408,48.3815397],[-124.7294725,48.3814938],[-124.7289866,48.3812874],[-124.7288404,48.3812746],[-124.7288687,48.3811982],[-124.7290598,48.3810669],[-124.7291201,48.380991],[-124.7292682,48.3809054],[-124.7296169,48.3811731],[-124.7298118,48.3812415],[-124.7298227,48.3812961],[-124.7300032,48.3814421],[-124.7302964,48.3816205],[-124.7304435,48.3816511],[-124.7305588,48.3815964],[-124.7306061,48.3816932],[-124.7307382,48.3817632],[-124.7308362,48.3817567],[-124.7309245,48.381695],[-124.7309459,48.3817007],[-124.7309808,48.3817299],[-124.7311395,48.3818545],[-124.7312542,48.3818642],[-124.7313106,48.3818563],[-124.7313902,48.3818179],[-124.731425,48.381786],[-124.7314678,48.3817739],[-124.7314048,48.3816892],[-124.7312676,48.3815914],[-124.7310514,48.3815813],[-124.730847,48.3815159],[-124.7306454,48.3814585],[-124.7303607,48.3813725],[-124.7304158,48.3812888],[-124.730338,48.3812391],[-124.7303455,48.3811799],[-124.7301271,48.3810943],[-124.7300209,48.3810882],[-124.7298357,48.381049],[-124.7296725,48.3809172],[-124.7295886,48.3808219],[-124.7296066,48.3807683],[-124.729688,48.3807429],[-124.7298396,48.3807621],[-124.7300355,48.3807813],[-124.73024,48.3808772],[-124.7302776,48.3809775],[-124.7307163,48.3811715],[-124.7308361,48.3811678],[-124.7310075,48.3812602],[-124.7311395,48.3813414],[-124.7311834,48.3814121],[-124.7313655,48.3815134],[-124.731545,48.381504],[-124.7316831,48.3814777],[-124.7317575,48.3813414],[-124.7318433,48.3810336],[-124.7315858,48.3804635],[-124.7314929,48.3803392],[-124.7314152,48.3802912],[-124.7312873,48.3802597],[-124.7312189,48.3802048],[-124.731187,48.3801453],[-124.7313414,48.3801056],[-124.7313984,48.3799278],[-124.7313733,48.379831],[-124.7313112,48.3797623],[-124.7312791,48.379711],[-124.7311541,48.379672],[-124.7310291,48.3796556],[-124.7309897,48.3796671],[-124.7309693,48.3796799],[-124.7309519,48.3796807],[-124.7309297,48.3796673],[-124.7309042,48.3796616],[-124.7308949,48.3796371],[-124.7309728,48.3795695],[-124.7309268,48.3794588],[-124.730779,48.3792493],[-124.7303351,48.379119],[-124.730372,48.3790668],[-124.7301044,48.3788896],[-124.7299085,48.3787728],[-124.7297308,48.3787096],[-124.7296549,48.3787139],[-124.7296436,48.3786963],[-124.72977,48.3786164],[-124.7300301,48.3784859],[-124.7300666,48.3783656],[-124.7302984,48.378149],[-124.7303499,48.377824],[-124.7302715,48.3777294],[-124.730161,48.377596],[-124.7299306,48.3775509],[-124.7297063,48.3770921],[-124.7295946,48.3768663],[-124.7298177,48.3766952],[-124.7303285,48.3769518],[-124.731136,48.3771977],[-124.7319299,48.3774222],[-124.732324,48.3772903]],[[-124.6531528,48.2915824],[-124.6528167,48.2915704],[-124.6524115,48.2916004],[-124.6520115,48.2916342],[-124.6519262,48.2916452],[-124.6505055,48.2916392],[-124.6499678,48.2916371],[-124.6497723,48.291514],[-124.6496853,48.2914021],[-124.6496254,48.2912974],[-124.6496139,48.2911673],[-124.6496783,48.2910441],[-124.6497536,48.290986],[-124.6498833,48.2909458],[-124.6500993,48.2909054],[-124.6503099,48.2908831],[-124.6504504,48.2908574],[-124.6504822,48.290849],[-124.6506179,48.2908135],[-124.6507906,48.2907442],[-124.6508333,48.2906516],[-124.6508317,48.2905441],[-124.6507716,48.2904299],[-124.6506422,48.2903395],[-124.6505006,48.2901943],[-124.6504995,48.2898788],[-124.6503496,48.2898783],[-124.6503262,48.2897302],[-124.6502998,48.2896307],[-124.6502658,48.2895702],[-124.6502165,48.2894329],[-124.6502319,48.2892737],[-124.6503178,48.2891396],[-124.6503713,48.2889948],[-124.650376,48.2888573],[-124.6502348,48.2887455],[-124.6500233,48.2885906],[-124.6499201,48.2884932],[-124.6497357,48.2883599],[-124.649627,48.2882771],[-124.6495616,48.2881651],[-124.6494657,48.2880963],[-124.6494261,48.2880678],[-124.6491336,48.2879855],[-124.6488253,48.2879249],[-124.6485168,48.2878932],[-124.6481264,48.2878244],[-124.6478838,48.2877938],[-124.6477926,48.2877535],[-124.64779,48.2862028],[-124.6477887,48.2843664],[-124.6481379,48.2843682],[-124.6504821,48.2843922],[-124.6508311,48.2843957],[-124.6531214,48.2844191],[-124.6531282,48.2861923],[-124.6531368,48.2881176],[-124.6531453,48.2898889],[-124.6531528,48.2915824]],[[-124.6503758,48.2905205],[-124.6502657,48.2906372],[-124.6501576,48.290681],[-124.6498713,48.2907325],[-124.6495797,48.2907767],[-124.6493689,48.2908388],[-124.6491965,48.290937],[-124.6490564,48.2910603],[-124.6489438,48.2912017],[-124.6489549,48.2912994],[-124.6490365,48.2914258],[-124.6491778,48.2915592],[-124.6492718,48.2916341],[-124.6477994,48.2916281],[-124.6477964,48.2898686],[-124.6477931,48.2880917],[-124.6479504,48.2881263],[-124.6481238,48.2881555],[-124.6481829,48.2881654],[-124.6484317,48.2881973],[-124.6487456,48.2882362],[-124.649027,48.2883186],[-124.649325,48.2884335],[-124.6495256,48.2885631],[-124.6496937,48.2886494],[-124.6498781,48.2887574],[-124.649992,48.2888619],[-124.6500037,48.2890356],[-124.6499289,48.289213],[-124.6498376,48.2893218],[-124.6498328,48.2894448],[-124.6498928,48.2895604],[-124.6499328,48.2896277],[-124.6499916,48.2897413],[-124.6500281,48.2898753],[-124.650088,48.2899962],[-124.6501494,48.2901277],[-124.650264,48.2902831],[-124.6503428,48.2903881],[-124.6503758,48.2905205]]],[[[-124.68271965932854,48.237821700072026],[-124.675774,48.237834],[-124.66587,48.2379],[-124.665903,48.234938],[-124.665972,48.233133],[-124.665983,48.230481],[-124.660776,48.230411],[-124.657349,48.230445],[-124.653743,48.23043],[-124.644685,48.23043],[-124.644972,48.245384],[-124.633955,48.245476],[-124.634236,48.252294],[-124.645111,48.252248],[-124.64531,48.252267],[-124.645083,48.247297],[-124.645041,48.245383],[-124.645191,48.245366],[-124.660562,48.245271],[-124.665815,48.245213],[-124.67229,48.245166],[-124.672161,48.252159],[-124.672439,48.252158],[-124.677243720729,48.25219759934667],[-124.677236,48.2486036],[-124.6826883,48.2486073],[-124.68271965932854,48.237821700072026]]],[[[-124.655542,48.259355],[-124.655288,48.252267],[-124.64531,48.252267],[-124.645677,48.259355],[-124.645661,48.259443],[-124.647727,48.259371],[-124.653579,48.259307],[-124.655043,48.259292],[-124.655344,48.259323],[-124.655442,48.259338],[-124.655542,48.259355]]],[[[-124.644685,48.23043],[-124.644536,48.223977],[-124.634323,48.223977],[-124.63452,48.230418],[-124.639429,48.230435],[-124.640256,48.230431],[-124.644438,48.230452],[-124.644685,48.23043]]],[[[-124.6010411,48.3858723],[-124.6007557,48.3853797],[-124.600485,48.3850715],[-124.6003742,48.3849334],[-124.600216,48.3847377],[-124.6001477,48.3846583],[-124.6000833,48.3846048],[-124.600099,48.3844303],[-124.6000833,48.3842735],[-124.6000946,48.3840283],[-124.6000297,48.3838057],[-124.5998053,48.3833879],[-124.5997812,48.3829537],[-124.5996529,48.3827611],[-124.5993212,48.3822252],[-124.5989975,48.3819968],[-124.5989202,48.3817872],[-124.5987322,48.3816458],[-124.5986754,48.3815019],[-124.5987544,48.3812125],[-124.5988305,48.3810003],[-124.598946,48.380955],[-124.5988642,48.3808353],[-124.5987994,48.3808749],[-124.5987346,48.3808665],[-124.5985015,48.3808235],[-124.5984172,48.3807355],[-124.5981678,48.3802976],[-124.5979623,48.3797937],[-124.5974575,48.3792149],[-124.59754,48.378955],[-124.597635,48.3788649],[-124.5977897,48.3787691],[-124.5985635,48.3783929],[-124.5989776,48.3784873],[-124.5995618,48.378828],[-124.5993555,48.3784589],[-124.5990634,48.3781124],[-124.5988043,48.3777605],[-124.5986653,48.3777422],[-124.59854,48.3779069],[-124.5984268,48.3780741],[-124.5983337,48.3781491],[-124.5981229,48.3783487],[-124.5979742,48.3784755],[-124.5977324,48.3786833],[-124.5975684,48.3787808],[-124.5973934,48.3788673],[-124.5972456,48.3789007],[-124.597046,48.3789267],[-124.5967751,48.3788848],[-124.5963834,48.3788105],[-124.5959323,48.3786792],[-124.5956307,48.3785922],[-124.5952992,48.3783734],[-124.5949087,48.378159],[-124.5948668,48.3780999],[-124.5949296,48.3779966],[-124.594948,48.3778721],[-124.594905,48.3778692],[-124.5948171,48.3779567],[-124.5946752,48.3780255],[-124.5946265,48.378079],[-124.5944687,48.3781472],[-124.5943465,48.3782171],[-124.5942903,48.3783102],[-124.594284,48.3785088],[-124.5942283,48.3787128],[-124.5941124,48.3788957],[-124.594337,48.379226],[-124.594581,48.379624],[-124.5946379,48.3797678],[-124.594761,48.3801299],[-124.595169,48.3804374],[-124.5953624,48.3807042],[-124.595528,48.3809327],[-124.5955943,48.3810821],[-124.5956809,48.3811535],[-124.5956629,48.3812364],[-124.5957,48.3813199],[-124.596151,48.3817653],[-124.5962709,48.3820121],[-124.5965819,48.3821833],[-124.597169,48.3828103],[-124.597796,48.3833817],[-124.5980611,48.3836605],[-124.598216,48.3838292],[-124.598682,48.3841748],[-124.5988505,48.3841301],[-124.5990668,48.3842621],[-124.5991606,48.3844971],[-124.5991429,48.384593],[-124.5993382,48.3848157],[-124.5995694,48.3850643],[-124.5996167,48.385128],[-124.5997904,48.3853625],[-124.599871,48.3854857],[-124.6000186,48.3857375],[-124.6001255,48.38596],[-124.6004674,48.38633],[-124.6005555,48.3864263],[-124.6006795,48.3863223],[-124.6005059,48.3860922],[-124.6002119,48.3857041],[-124.5999761,48.3853929],[-124.6002148,48.3853347],[-124.6002786,48.3853853],[-124.6005857,48.3857609],[-124.600835,48.3858433],[-124.6010411,48.3858723]]]]},"properties":{"id":"makah-reservation-exclusion","name":"Makah Indian Reservation","sourceUrl":"https://www.openstreetmap.org/relation/3439903","sourceSnapshotUrl":"https://download.geofabrik.de/north-america/us/washington-260801.osm.pbf","sourceSnapshot":"washington-260801","sourceSha256":"3bea264079e184675aac7d8ab104bff5339b9e3656a36c084f96f616271a0e4e","attribution":"OpenStreetMap contributors, ODbL 1.0","policy":"Preserve the historical Olympic coverage decision to exclude unreviewed tribal approaches: subtract the retained, previously reviewed Olympic footprint from this reservation polygon. This is a conservative product scope, not a claim that all tribal land is closed or that a permit cannot authorize recreation. The OSM polygon is mapping evidence, not a surveyed legal boundary.","policySources":["data/regions/olympic-peninsula/charter.md","docs/rebuild/olympic-peninsula-pack.md","https://makah.com/attractions/"],"extractedAt":"2026-09-29T02:10:42Z","sourceGeometrySha256":"1f014cb69a7b5400160e84157519ecd2072af860451957ef871944f5f5572b72","derivation":"Pinned reservation polygon minus data/regions/olympic-peninsula/boundary.geojson; no smoothing or coordinate rounding.","retainedFootprintSha256":"c076ee9733b2f1169168101ff06e86f6cc19d05848bf72f656b1a0986ea21cd1"}}
