{
  "type": "Feature",
  "properties": {
    "id": "palassou-ridge",
    "name": "Palassou Ridge Preserve — outside reviewed Henry Coe footprint",
    "authority": "Alpine Loop retained coverage policy; mapped extent from OpenStreetMap contributors",
    "sourceUrl": "https://download.geofabrik.de/north-america/us/california/norcal-260801.osm.pbf",
    "sourceSha256": "215f18449e6cd190200a7dc1188a63dba2bec1f20fb3d1637c4f11c1f9134342",
    "sourceObject": "relation/20575981",
    "sourceObjectUrl": "https://www.openstreetmap.org/relation/20575981",
    "reviewedAt": "2026-09-29",
    "policySourceUrls": [
      "https://www.openspaceauthority.org/land-protection",
      "https://files.santaclaracounty.gov/exjcpb1516/2025-04/easy-trails-coyote-lake-harvey-bear-ranch.pdf"
    ],
    "policyBasis": "Preserve the explicit Henry Coe charter exclusion. The county Coyote Lake guide map labels Palassou Open Space No Public Access; pinned OSM additionally tags access=no and hiking=no. Occasional authorized programs are not general hiking access. This exclusion applies only to the newly reachable buffer outside the prior Henry Coe footprint; source way-level restrictions continue to apply within that footprint.",
    "priorDecision": "data/regions/henry-coe/charter.md: explicit exclusions",
    "attribution": "© OpenStreetMap contributors; Open Database License (ODbL) 1.0",
    "derivation": "Product exclusion = exact pinned OSM polygon minus the existing reviewed Henry Coe start footprint, using polygon-clipping difference without padding or simplification. Original mapped polygon geometry hash uses SHA-256 of JSON.stringify(geometry). The subtraction preserves previously reviewed park/entrance coverage rather than treating overlapping mapped boundaries as a legal determination.",
    "sourceTags": {
      "access": "no",
      "bicycle": "no",
      "boundary": "protected_area",
      "dog": "no",
      "hiking": "no",
      "horse": "no",
      "leisure": "nature_reserve",
      "name": "Palassou Ridge Preserve",
      "operator": "Santa Clara Valley Open Space Authority",
      "protect_class": "4",
      "protected_area": "nature_reserve",
      "protection_title": "Habitat/Wildlife Reserve",
      "website": "https://www.openspaceauthority.org/"
    },
    "limitation": "Preserves the previous product exclusion against newly extended route buffers. It is not a current cadastral boundary or a grant of access to the preserved footprint. The mapped reserve overlaps previously reviewed Coe land; the CDFW management plan records land transferred for a State Parks entrance, so raw OSM overlap is not used to remove established park coverage.",
    "sourceGeometrySha256": "6a369a3d7ccfe9441761bf993a35611606dcee0a195106d0528b074035831ad3",
    "preservedFootprint": {
      "path": "data/regions/henry-coe/boundary.geojson",
      "sha256": "7d410a95a6598585b8cc7e603bd880869be5edb84cd4aa0159f6ba254d6438e4"
    }
  },
  "geometry": {
    "type": "MultiPolygon",
    "coordinates": [
      [
        [
          [
            -121.5402209,
            37.1011689
          ],
          [
            -121.5399402,
            37.100597
          ],
          [
            -121.53953052829682,
            37.1001210648747
          ],
          [
            -121.5394715,
            37.1001014
          ],
          [
            -121.5391881,
            37.1003161
          ],
          [
            -121.53912697559588,
            37.10017533583826
          ],
          [
            -121.5390425,
            37.1002334
          ],
          [
            -121.5388419,
            37.0997751
          ],
          [
            -121.5386024,
            37.0996271
          ],
          [
            -121.5383098,
            37.0990687
          ],
          [
            -121.5379266,
            37.0984579
          ],
          [
            -121.5372679,
            37.0977889
          ],
          [
            -121.5367861,
            37.0975078
          ],
          [
            -121.53657811736674,
            37.097077779522394
          ],
          [
            -121.5362017,
            37.0970858
          ],
          [
            -121.53622371886067,
            37.097010734856276
          ],
          [
            -121.5360734,
            37.0970115
          ],
          [
            -121.5361709,
            37.096645
          ],
          [
            -121.5355297,
            37.0962471
          ],
          [
            -121.5352482,
            37.0958949
          ],
          [
            -121.5350529,
            37.0953681
          ],
          [
            -121.5343419,
            37.094598
          ],
          [
            -121.5341949,
            37.0943121
          ],
          [
            -121.53391346757674,
            37.09413488290009
          ],
          [
            -121.5334719,
            37.0941247
          ],
          [
            -121.53351110709485,
            37.094058050077706
          ],
          [
            -121.5333507,
            37.0940521
          ],
          [
            -121.5335149,
            37.093747
          ],
          [
            -121.5335109,
            37.093534
          ],
          [
            -121.5333747,
            37.0933287
          ],
          [
            -121.5329794,
            37.0928242
          ],
          [
            -121.5329799,
            37.0924121
          ],
          [
            -121.5327573,
            37.0923112
          ],
          [
            -121.5327512,
            37.0922962
          ],
          [
            -121.5327658,
            37.092283
          ],
          [
            -121.5326744,
            37.0922415
          ],
          [
            -121.5329609,
            37.092012
          ],
          [
            -121.533006,
            37.0917883
          ],
          [
            -121.5330328,
            37.0913612
          ],
          [
            -121.5330547,
            37.0913591
          ],
          [
            -121.5331475,
            37.091543
          ],
          [
            -121.5331609,
            37.091357
          ],
          [
            -121.5330309,
            37.0910951
          ],
          [
            -121.5323416,
            37.0907816
          ],
          [
            -121.5323249,
            37.0907591
          ],
          [
            -121.5322328,
            37.0907149
          ],
          [
            -121.5319583,
            37.0902802
          ],
          [
            -121.5315941,
            37.0893363
          ],
          [
            -121.5314599,
            37.0889481
          ],
          [
            -121.5309933,
            37.0886684
          ],
          [
            -121.53092461946876,
            37.0883172310167
          ],
          [
            -121.529806,
            37.0879658
          ],
          [
            -121.52977179704115,
            37.08793145168696
          ],
          [
            -121.5296656,
            37.087898
          ],
          [
            -121.528928,
            37.0871411
          ],
          [
            -121.5283806,
            37.0863856
          ],
          [
            -121.5280222,
            37.0860032
          ],
          [
            -121.527689,
            37.0856849
          ],
          [
            -121.52760095706645,
            37.085637297125764
          ],
          [
            -121.5272562,
            37.0856098
          ],
          [
            -121.52727650682866,
            37.085555241913795
          ],
          [
            -121.5271308,
            37.0855406
          ],
          [
            -121.5272159,
            37.085275
          ],
          [
            -121.5267463,
            37.0849028
          ],
          [
            -121.5264306,
            37.084373
          ],
          [
            -121.5261082,
            37.0840329
          ],
          [
            -121.5257509,
            37.0833011
          ],
          [
            -121.52534166209965,
            37.08297034941612
          ],
          [
            -121.5246272,
            37.0831484
          ],
          [
            -121.52460556030924,
            37.08304953445379
          ],
          [
            -121.5244951,
            37.0830764
          ],
          [
            -121.5243499,
            37.0824571
          ],
          [
            -121.52312031848355,
            37.081733086851735
          ],
          [
            -121.5223695,
            37.0814258
          ],
          [
            -121.5219853,
            37.0815478
          ],
          [
            -121.52198588493819,
            37.081433205290566
          ],
          [
            -121.5218573,
            37.0814724
          ],
          [
            -121.52184544150735,
            37.08127138882969
          ],
          [
            -121.5214391,
            37.0810958
          ],
          [
            -121.5210546,
            37.0810366
          ],
          [
            -121.52094219804707,
            37.08097400201955
          ],
          [
            -121.5209151,
            37.0809697
          ],
          [
            -121.52037311732755,
            37.08066869380058
          ],
          [
            -121.5197258,
            37.0804566
          ],
          [
            -121.51932035938101,
            37.080446340490425
          ],
          [
            -121.5189919,
            37.0806093
          ],
          [
            -121.51897513944024,
            37.08060698875598
          ],
          [
            -121.5189496,
            37.0806197
          ],
          [
            -121.5183164,
            37.080532
          ],
          [
            -121.51829699062708,
            37.080482323762986
          ],
          [
            -121.5181835,
            37.0804666
          ],
          [
            -121.5179649,
            37.079925
          ],
          [
            -121.5177252,
            37.0797225
          ],
          [
            -121.51710440830358,
            37.07937711280828
          ],
          [
            -121.5161491,
            37.0790805
          ],
          [
            -121.51607996252642,
            37.07903532485155
          ],
          [
            -121.5160067,
            37.0790125
          ],
          [
            -121.51523466769937,
            37.078508648321176
          ],
          [
            -121.514358,
            37.0782015
          ],
          [
            -121.5138974,
            37.078066
          ],
          [
            -121.51388960786863,
            37.07803805012628
          ],
          [
            -121.5137605,
            37.0779994
          ],
          [
            -121.51356110091,
            37.07729546078832
          ],
          [
            -121.5126661,
            37.0771296
          ],
          [
            -121.51263441482585,
            37.07708196513639
          ],
          [
            -121.5125239,
            37.0770591
          ],
          [
            -121.5118036,
            37.0759747
          ],
          [
            -121.5118026,
            37.0759989
          ],
          [
            -121.511665,
            37.0759614
          ],
          [
            -121.5114914,
            37.0759236
          ],
          [
            -121.5104703,
            37.0755707
          ],
          [
            -121.5093779,
            37.075198
          ],
          [
            -121.5081623,
            37.0748067
          ],
          [
            -121.5050093,
            37.0735431
          ],
          [
            -121.5033603,
            37.072916
          ],
          [
            -121.5024745,
            37.072707
          ],
          [
            -121.5017465,
            37.0725916
          ],
          [
            -121.5007921,
            37.0726186
          ],
          [
            -121.5004727,
            37.0728101
          ],
          [
            -121.5001392,
            37.0732388
          ],
          [
            -121.4994906,
            37.0741314
          ],
          [
            -121.4990001,
            37.0749587
          ],
          [
            -121.498587,
            37.0758307
          ],
          [
            -121.4977824,
            37.0763882
          ],
          [
            -121.497566,
            37.0766574
          ],
          [
            -121.4968441,
            37.0770157
          ],
          [
            -121.4961838,
            37.0773169
          ],
          [
            -121.495496,
            37.0775319
          ],
          [
            -121.4945465,
            37.0775154
          ],
          [
            -121.4936209,
            37.0773984
          ],
          [
            -121.4923439,
            37.0770228
          ],
          [
            -121.4900122,
            37.0756673
          ],
          [
            -121.4896204,
            37.0752804
          ],
          [
            -121.4896035,
            37.0749347
          ],
          [
            -121.4903099,
            37.0738142
          ],
          [
            -121.4903956,
            37.0732766
          ],
          [
            -121.4903151,
            37.0727502
          ],
          [
            -121.4899933,
            37.0723307
          ],
          [
            -121.4894876,
            37.0720637
          ],
          [
            -121.4887112,
            37.0720183
          ],
          [
            -121.4879274,
            37.0721332
          ],
          [
            -121.4866882,
            37.0723925
          ],
          [
            -121.4858848,
            37.0726906
          ],
          [
            -121.484999,
            37.0731654
          ],
          [
            -121.4840494,
            37.0735093
          ],
          [
            -121.4832078,
            37.0734387
          ],
          [
            -121.4823069,
            37.0730414
          ],
          [
            -121.4815245,
            37.0727619
          ],
          [
            -121.4796535,
            37.0723597
          ],
          [
            -121.4790639,
            37.0722733
          ],
          [
            -121.4777745,
            37.0722889
          ],
          [
            -121.4771267,
            37.0724784
          ],
          [
            -121.4762155,
            37.0725488
          ],
          [
            -121.4746545,
            37.072471
          ],
          [
            -121.4735441,
            37.0726825
          ],
          [
            -121.473048,
            37.0727647
          ],
          [
            -121.4717195,
            37.07314
          ],
          [
            -121.470465,
            37.0735975
          ],
          [
            -121.4704017,
            37.0736822
          ],
          [
            -121.4696267,
            37.0744193
          ],
          [
            -121.4690284,
            37.0748837
          ],
          [
            -121.4686059,
            37.0752941
          ],
          [
            -121.4682473,
            37.0758716
          ],
          [
            -121.4679616,
            37.0762861
          ],
          [
            -121.4675133,
            37.0774481
          ],
          [
            -121.4673641,
            37.0784407
          ],
          [
            -121.4673181,
            37.079023
          ],
          [
            -121.4678871,
            37.0799165
          ],
          [
            -121.4681531,
            37.0805589
          ],
          [
            -121.4687313,
            37.0810374
          ],
          [
            -121.4693827,
            37.081409
          ],
          [
            -121.4696488,
            37.0819097
          ],
          [
            -121.4699507,
            37.0823861
          ],
          [
            -121.4701078,
            37.0831644
          ],
          [
            -121.4700182,
            37.0839429
          ],
          [
            -121.4694973,
            37.0842386
          ],
          [
            -121.4689677,
            37.0846761
          ],
          [
            -121.4684472,
            37.0849174
          ],
          [
            -121.4679379,
            37.0851215
          ],
          [
            -121.4675638,
            37.0853694
          ],
          [
            -121.4674932,
            37.0855916
          ],
          [
            -121.4674644,
            37.0861023
          ],
          [
            -121.4675075,
            37.0865254
          ],
          [
            -121.4676087,
            37.0868307
          ],
          [
            -121.4679763,
            37.0875738
          ],
          [
            -121.468452,
            37.0880249
          ],
          [
            -121.4693108,
            37.0883973
          ],
          [
            -121.4698633,
            37.0887796
          ],
          [
            -121.4700553,
            37.089103
          ],
          [
            -121.4700591,
            37.0895135
          ],
          [
            -121.4698317,
            37.0899311
          ],
          [
            -121.4689248,
            37.0905117
          ],
          [
            -121.46838,
            37.0908272
          ],
          [
            -121.4680101,
            37.0913109
          ],
          [
            -121.4679908,
            37.0915694
          ],
          [
            -121.4680337,
            37.092007
          ],
          [
            -121.4681726,
            37.0926642
          ],
          [
            -121.4683836,
            37.0929346
          ],
          [
            -121.4687291,
            37.0937043
          ],
          [
            -121.4689939,
            37.0943327
          ],
          [
            -121.46929,
            37.0951019
          ],
          [
            -121.4698839,
            37.0960035
          ],
          [
            -121.4701328,
            37.0962191
          ],
          [
            -121.4703533,
            37.0966664
          ],
          [
            -121.4703988,
            37.0968222
          ],
          [
            -121.4706535,
            37.0974026
          ],
          [
            -121.4711262,
            37.097962
          ],
          [
            -121.471777,
            37.098417
          ],
          [
            -121.4725471,
            37.0991378
          ],
          [
            -121.4725491,
            37.0993617
          ],
          [
            -121.4727737,
            37.0995777
          ],
          [
            -121.4731057,
            37.0999195
          ],
          [
            -121.4731081,
            37.1000942
          ],
          [
            -121.4728637,
            37.1005538
          ],
          [
            -121.4727927,
            37.1007053
          ],
          [
            -121.4727719,
            37.101094
          ],
          [
            -121.4727851,
            37.1011788
          ],
          [
            -121.4728906,
            37.1013142
          ],
          [
            -121.473795,
            37.101307
          ],
          [
            -121.4731822,
            37.0865872
          ],
          [
            -121.4905254,
            37.0861638
          ],
          [
            -121.4904697,
            37.1011373
          ],
          [
            -121.4811429,
            37.1012371
          ],
          [
            -121.4812286,
            37.1049207
          ],
          [
            -121.4859839,
            37.1049101
          ],
          [
            -121.4860109,
            37.1123339
          ],
          [
            -121.4813021,
            37.1123534
          ],
          [
            -121.4813743,
            37.1160519
          ],
          [
            -121.4906379,
            37.1161059
          ],
          [
            -121.490686,
            37.1012203
          ],
          [
            -121.5380007,
            37.101113
          ],
          [
            -121.5402209,
            37.1011689
          ]
        ]
      ]
    ]
  }
}
