{"type":"Feature","id":"a12251549","geometry":{"type":"MultiPolygon","coordinates":[[[[-124.6551526,47.9071934],[-124.655099,47.906877],[-124.6549703,47.9064742],[-124.6547664,47.9061578],[-124.6544445,47.9059924],[-124.653597,47.9057335],[-124.6518611,47.9052983],[-124.6516431,47.9051731],[-124.6514251,47.905194],[-124.6509056,47.9050674],[-124.6509077,47.9049531],[-124.6505529,47.9048449],[-124.650527,47.904745],[-124.6502661,47.9045921],[-124.6475184,47.9043254],[-124.6474523,47.9043323],[-124.6473111,47.9043649],[-124.6471015,47.9043905],[-124.6469389,47.9043846],[-124.6468775,47.9043313],[-124.6467728,47.9042963],[-124.6465592,47.904313],[-124.6464588,47.9043255],[-124.6463375,47.9044077],[-124.6461925,47.9044632],[-124.6460468,47.9044623],[-124.6459488,47.9044559],[-124.6458937,47.9044812],[-124.6458489,47.9045807],[-124.6458301,47.9046519],[-124.6457583,47.904704],[-124.6456544,47.9047433],[-124.6455778,47.904827],[-124.6437033,47.905501],[-124.6434295,47.9056367],[-124.6433224,47.9059559],[-124.6430366,47.9064906],[-124.6425902,47.9069695],[-124.6424603,47.9070475],[-124.6420604,47.9070591],[-124.6417909,47.9070929],[-124.6414055,47.9070821],[-124.640611,47.9069346],[-124.64002,47.9068401],[-124.6397069,47.9068604],[-124.6394586,47.906908],[-124.6388336,47.9068212],[-124.6378014,47.9063614],[-124.6364986,47.9057408],[-124.6354838,47.9049992],[-124.6350647,47.9046448],[-124.6341626,47.9039406],[-124.6335044,47.9034018],[-124.6330619,47.9028722],[-124.6326302,47.9023908],[-124.632248,47.9017848],[-124.6319156,47.9014208],[-124.6316996,47.9011154],[-124.6313415,47.9006726],[-124.6309471,47.899741],[-124.6304109,47.8981794],[-124.6302232,47.8968288],[-124.6301345,47.8965784],[-124.6305478,47.8965604],[-124.6307999,47.8963015],[-124.6309092,47.8958972],[-124.6214315,47.8957474],[-124.6212245,47.8883612],[-124.6183055,47.888357],[-124.6181162,47.8865179],[-124.6054069,47.8870242],[-124.6055297,47.8897959],[-124.605792,47.8957191],[-124.611601,47.8957354],[-124.6127317,47.9080793],[-124.590474,47.908367],[-124.5903761,47.9106124],[-124.5913695,47.9105155],[-124.5928183,47.9106766],[-124.594983,47.9110922],[-124.5982105,47.9121179],[-124.6004812,47.9120383],[-124.6048531,47.9122785],[-124.6094505,47.9132323],[-124.6105517,47.9137663],[-124.6116625,47.9144831],[-124.6125381,47.9156418],[-124.6126345,47.9195509],[-124.6135855,47.9199615],[-124.6154897,47.920512],[-124.6174521,47.9205748],[-124.6198848,47.9210172],[-124.6214816,47.9208634],[-124.6242342,47.9211719],[-124.6242503,47.921344],[-124.6241173,47.9214387],[-124.6241399,47.9215527],[-124.624658,47.9218096],[-124.6261889,47.9221428],[-124.6272359,47.9221923],[-124.6275497,47.9223218],[-124.62784830555731,47.92226816993062],[-124.627922,47.9222179],[-124.628087,47.9222253],[-124.6286846,47.921799],[-124.6294931,47.9214033],[-124.6301157,47.9208537],[-124.6303988,47.9207284],[-124.6306512,47.9206466],[-124.6309372,47.9206175],[-124.6313176,47.920551],[-124.631883,47.9205107],[-124.6319843,47.9204883],[-124.632319,47.92046],[-124.6329405,47.9202587],[-124.6330653,47.9202493],[-124.63311301088928,47.92026431221611],[-124.6335399,47.9202782],[-124.6336775,47.9201824],[-124.6338392,47.9201962],[-124.6339993,47.9202135],[-124.63403501543303,47.92023904481303],[-124.6342468,47.9202726],[-124.6342873,47.9202123],[-124.6394209,47.9203614],[-124.6393483,47.9199568],[-124.6392562,47.9194825],[-124.6392505,47.9192395],[-124.6392505,47.9189657],[-124.6392275,47.9186495],[-124.6392562,47.9183448],[-124.6392102,47.9179283],[-124.639239,47.9175118],[-124.6391814,47.9169256],[-124.6392332,47.9165013],[-124.639331,47.9160308],[-124.6394174,47.9154407],[-124.6395037,47.9150936],[-124.639659,47.9147234],[-124.6398087,47.9143685],[-124.6401673,47.9137961],[-124.6404944,47.9133824],[-124.640857,47.9128825],[-124.6411291,47.9125771],[-124.6418596,47.9122004],[-124.6424115,47.9119317],[-124.6427662,47.9118598],[-124.6429988,47.911868],[-124.643129,47.9118538],[-124.6431587,47.9118708],[-124.6434997,47.9119513],[-124.6434512,47.9124015],[-124.6443502,47.9124816],[-124.6447956,47.9127342],[-124.6470593,47.9140175],[-124.6473206,47.9140159],[-124.6511722,47.9119384],[-124.6543854,47.9109779],[-124.6545518,47.9108382],[-124.6546698,47.9087526],[-124.6547771,47.9083657],[-124.6549488,47.9079773],[-124.6550775,47.907589],[-124.6551526,47.9071934]]]]},"properties":{"id":"quileute-reservation-exclusion","name":"Quileute Indian Reservation","sourceUrl":"https://www.openstreetmap.org/relation/6125774","sourceSnapshotUrl":"https://download.geofabrik.de/north-america/us/washington-260801.osm.pbf","sourceSnapshot":"washington-260801","sourceSha256":"3bea264079e184675aac7d8ab104bff5339b9e3656a36c084f96f616271a0e4e","attribution":"OpenStreetMap contributors, ODbL 1.0","policy":"Preserve the historical Olympic coverage decision to exclude unreviewed tribal approaches: subtract the retained, previously reviewed Olympic footprint from this reservation polygon. This is a conservative product scope, not a claim that all tribal land is closed or that a permit cannot authorize recreation. The OSM polygon is mapping evidence, not a surveyed legal boundary.","policySources":["data/regions/olympic-peninsula/charter.md","docs/rebuild/olympic-peninsula-pack.md","https://www.nps.gov/olym/planyourvisit/visiting-mora-and-rialto.htm"],"extractedAt":"2026-09-29T02:10:42Z","sourceGeometrySha256":"c6bb48cefa42e229ea3b2525a8dfd36007df13bdeb47176da10737d7e64b4cd3","derivation":"Pinned reservation polygon minus data/regions/olympic-peninsula/boundary.geojson; no smoothing or coordinate rounding.","retainedFootprintSha256":"c076ee9733b2f1169168101ff06e86f6cc19d05848bf72f656b1a0986ea21cd1"}}
