{"type":"Feature","id":"a15369407","geometry":{"type":"MultiPolygon","coordinates":[[[[-124.362095,47.562744],[-124.362062,47.562485],[-124.36185,47.56147],[-124.361355,47.559946],[-124.361314,47.559759],[-124.361273,47.5592],[-124.361386,47.558822],[-124.361369,47.558158],[-124.361223,47.557308],[-124.361141,47.556546],[-124.360888,47.555136],[-124.360693,47.554451],[-124.36062,47.554116],[-124.360474,47.553754],[-124.360328,47.553557],[-124.36019,47.553486],[-124.360085,47.553497],[-124.359801,47.553634],[-124.359712,47.553634],[-124.359526,47.553524],[-124.359445,47.553464],[-124.359104,47.553311],[-124.358666,47.553157],[-124.358638,47.553155],[-124.35818,47.553075],[-124.358318,47.552889],[-124.358504,47.552609],[-124.35865,47.552373],[-124.35869,47.551781],[-124.358778,47.5507],[-124.358712,47.549329],[-124.358516,47.548079],[-124.358378,47.547728],[-124.358288,47.547125],[-124.358061,47.546467],[-124.357704,47.545639],[-124.357493,47.544843],[-124.357217,47.543955],[-124.356794,47.542398],[-124.356558,47.54169],[-124.356461,47.541268],[-124.356452,47.540807],[-124.356241,47.539946],[-124.356054,47.539009],[-124.355656,47.53783],[-124.355437,47.537259],[-124.3553767,47.5369006],[-124.355153,47.536228],[-124.354852,47.53551],[-124.354673,47.534638],[-124.354381,47.533267],[-124.354291,47.532428],[-124.354128,47.53154],[-124.353974,47.530969],[-124.353852,47.530042],[-124.353746,47.529011],[-124.353615,47.528353],[-124.35334,47.527525],[-124.353161,47.526714],[-124.353104,47.526478],[-124.353031,47.52594],[-124.352884,47.525337],[-124.352698,47.524794],[-124.352397,47.523747],[-124.352129,47.522579],[-124.351942,47.521877],[-124.351886,47.52152],[-124.351666,47.520588],[-124.351609,47.520007],[-124.351423,47.519645],[-124.351138,47.518175],[-124.350967,47.517232],[-124.350642,47.515691],[-124.350172,47.513952],[-124.349847,47.512647],[-124.349327,47.510349],[-124.348669,47.506938],[-124.348312,47.505463],[-124.347865,47.503653],[-124.347898,47.503461],[-124.347573,47.501811],[-124.347338,47.501246],[-124.347119,47.500363],[-124.347086,47.499803],[-124.346878,47.499093],[-124.346805,47.498605],[-124.346756,47.49792],[-124.346569,47.497338],[-124.346375,47.496691],[-124.346204,47.49588],[-124.346042,47.495161],[-124.345741,47.493527],[-124.345725,47.493039],[-124.345781,47.492403],[-124.345748,47.491766],[-124.34574,47.491295],[-124.345521,47.4909],[-124.345278,47.490516],[-124.345067,47.490319],[-124.344978,47.490258],[-124.344736,47.490231],[-124.344598,47.490242],[-124.344549,47.490149],[-124.344598,47.489973],[-124.344687,47.48977],[-124.344703,47.48971],[-124.344735,47.489534],[-124.34463,47.488926],[-124.344548,47.487999],[-124.344539,47.486951],[-124.344401,47.485196],[-124.344279,47.48445],[-124.344116,47.483853],[-124.343962,47.483244],[-124.343914,47.482871],[-124.343889,47.482438],[-124.343897,47.481961],[-124.343921,47.481588],[-124.343726,47.481067],[-124.34354,47.480359],[-124.343394,47.479674],[-124.343393,47.478824],[-124.343296,47.478067],[-124.343174,47.476756],[-124.343141,47.475522],[-124.34314,47.474699],[-124.343164,47.474316],[-124.343229,47.473888],[-124.34301,47.473427],[-124.342734,47.472736],[-124.342678,47.472413],[-124.342718,47.471985],[-124.342984,47.471398],[-124.342854,47.470663],[-124.342814,47.469988],[-124.342781,47.469303],[-124.342886,47.468968],[-124.342853,47.468645],[-124.342634,47.468003],[-124.342615,47.467921],[-124.347388,47.465402],[-124.347429,47.465374],[-124.347421,47.465309],[-124.34635,47.463097],[-124.346408,47.463022],[-124.346392,47.462814],[-124.346238,47.462616],[-124.346052,47.462452],[-124.345971,47.462254],[-124.345979,47.462084],[-124.34593,47.461975],[-124.3458493,47.4619754],[-124.345591,47.4619825],[-124.3451784,47.4619738],[-124.3449301,47.4619938],[-124.3447554,47.4619462],[-124.344685,47.46181],[-124.344612,47.46175],[-124.344596,47.461679],[-124.344612,47.461613],[-124.3443478,47.461514],[-124.3440892,47.4615257],[-124.3438467,47.4615384],[-124.34369,47.4615858],[-124.3434878,47.4616846],[-124.3432807,47.4617991],[-124.3428479,47.4615501],[-124.3421773,47.4608538],[-124.3413962,47.4602076],[-124.3412223,47.4596795],[-124.341149,47.459212],[-124.341068,47.45891],[-124.340793,47.458466],[-124.340712,47.458148],[-124.340534,47.457588],[-124.340477,47.457188],[-124.340323,47.456393],[-124.340266,47.455828],[-124.340241,47.455345],[-124.340128,47.454791],[-124.3399547,47.4540041],[-124.339923,47.4538102],[-124.3399113,47.4537384],[-124.3398595,47.453252],[-124.3397994,47.4526505],[-124.3398023,47.4520689],[-124.3397921,47.4516192],[-124.339714,47.451347],[-124.339745,47.45064],[-124.339891,47.450239],[-124.339898,47.449625],[-124.339737,47.44934],[-124.339631,47.448852],[-124.3395086,47.4481091],[-124.3394121,47.4475266],[-124.3395228,47.4469459],[-124.3397846,47.4464065],[-124.3402067,47.4455211],[-124.3405313,47.4452785],[-124.3407087,47.4451281],[-124.341125,47.445106],[-124.3412546,47.4451551],[-124.3416049,47.4452879],[-124.341877,47.445391],[-124.342111,47.445434],[-124.342265,47.445429],[-124.342427,47.445385],[-124.342564,47.445242],[-124.342612,47.44488],[-124.342596,47.444442],[-124.342475,47.44431],[-124.342321,47.444239],[-124.34203,47.444228],[-124.341715,47.444255],[-124.341456,47.444288],[-124.3410182,47.4445055],[-124.3408858,47.4445136],[-124.3406605,47.444412],[-124.340187,47.4439378],[-124.3397894,47.4434059],[-124.33975,47.443219],[-124.3397072,47.4426657],[-124.3396408,47.4418056],[-124.339603,47.441349],[-124.339522,47.441004],[-124.3394233,47.440631],[-124.3393384,47.4401935],[-124.3393052,47.4398282],[-124.3394302,47.4391582],[-124.3395722,47.4384044],[-124.3396483,47.4378119],[-124.3397212,47.4376646],[-124.339851,47.4373808],[-124.3400582,47.4372729],[-124.340329,47.4371318],[-124.340555,47.437054],[-124.340667,47.4371222],[-124.340854,47.437252],[-124.341064,47.437433],[-124.341153,47.437449],[-124.341614,47.437427],[-124.341824,47.437482],[-124.342066,47.437482],[-124.34218,47.437454],[-124.342333,47.437328],[-124.3423509,47.4369484],[-124.342583,47.43684],[-124.3427226,47.4366956],[-124.3427427,47.4365526],[-124.3426463,47.4364641],[-124.3425507,47.436386],[-124.3424102,47.4363093],[-124.3422704,47.4362428],[-124.3421631,47.4362057],[-124.3419081,47.4362038],[-124.3414404,47.4363265],[-124.3406415,47.4364042],[-124.340473,47.436418],[-124.3394761,47.4364249],[-124.3392358,47.4360139],[-124.3388921,47.4355654],[-124.3384783,47.4350566],[-124.33832,47.4346678],[-124.338282,47.434263],[-124.3381429,47.4335181],[-124.338034,47.432916],[-124.337949,47.432755],[-124.337796,47.431955],[-124.3377236,47.4311602],[-124.337714,47.431055],[-124.337585,47.430518],[-124.337318,47.429739],[-124.337245,47.429218],[-124.337277,47.428757],[-124.337373,47.428401],[-124.33743,47.427973],[-124.337397,47.427183],[-124.3372808,47.4266171],[-124.3371294,47.4259088],[-124.3371105,47.4254308],[-124.3372738,47.4247596],[-124.337404,47.4239595],[-124.3374203,47.4234865],[-124.3373678,47.4229551],[-124.337419,47.422461],[-124.337589,47.422148],[-124.337653,47.421929],[-124.337491,47.421687],[-124.337273,47.421468],[-124.337144,47.421293],[-124.3369073,47.420976],[-124.3367168,47.4205731],[-124.3366034,47.4198593],[-124.3365138,47.4188677],[-124.3366857,47.4177871],[-124.3366269,47.4168217],[-124.3367832,47.4162655],[-124.336887,47.4155961],[-124.3369948,47.414948],[-124.3370889,47.4144492],[-124.3372069,47.4140798],[-124.3372314,47.414003],[-124.3372438,47.4135867],[-124.337405,47.4132368],[-124.3374904,47.4128454],[-124.3376193,47.4124526],[-124.3377253,47.4122947],[-124.337842,47.411947],[-124.337688,47.411601],[-124.337365,47.41096],[-124.336767,47.410093],[-124.336451,47.409594],[-124.336362,47.409364],[-124.336346,47.408909],[-124.336394,47.408651],[-124.336532,47.408541],[-124.337032,47.408338],[-124.337048,47.408261],[-124.336968,47.408091],[-124.336863,47.408015],[-124.336701,47.408009],[-124.336467,47.408031],[-124.336321,47.40802],[-124.33616,47.407894],[-124.335917,47.407274],[-124.335941,47.406616],[-124.335989,47.406358],[-124.336102,47.406161],[-124.336336,47.405892],[-124.336361,47.405744],[-124.336409,47.405645],[-124.336482,47.405612],[-124.336579,47.405558],[-124.336587,47.40547],[-124.3365753,47.4053682],[-124.33657,47.405322],[-124.33636,47.405081],[-124.336247,47.404943],[-124.336166,47.404899],[-124.336053,47.404905],[-124.335698,47.405048],[-124.335536,47.405037],[-124.33531,47.404922],[-124.335181,47.404708],[-124.335092,47.404412],[-124.334914,47.404088],[-124.334558,47.403814],[-124.334267,47.403622],[-124.334041,47.40337],[-124.333952,47.403167],[-124.333952,47.402975],[-124.333944,47.402767],[-124.333863,47.402684],[-124.333718,47.402662],[-124.333629,47.402695],[-124.33358,47.402739],[-124.333508,47.402838],[-124.333427,47.402871],[-124.333298,47.402865],[-124.332982,47.40275],[-124.332659,47.402525],[-124.332611,47.402366],[-124.332667,47.402098],[-124.332724,47.401999],[-124.332578,47.401884],[-124.332409,47.4019],[-124.33211,47.401999],[-124.331819,47.401955],[-124.331576,47.401796],[-124.331496,47.401637],[-124.331455,47.401341],[-124.330938,47.401089],[-124.330591,47.40082],[-124.330421,47.400513],[-124.330162,47.40014],[-124.329508,47.399871],[-124.329282,47.399734],[-124.329371,47.399625],[-124.329588,47.399449],[-124.329613,47.399093],[-124.329491,47.398615],[-124.329216,47.397771],[-124.32899,47.396734],[-124.328877,47.396296],[-124.328723,47.39578],[-124.32823,47.394392],[-124.328068,47.393904],[-124.328052,47.393334],[-124.327834,47.392681],[-124.327559,47.391996],[-124.327235,47.390877],[-124.326807,47.389802],[-124.326645,47.389232],[-124.326476,47.389034],[-124.326371,47.388968],[-124.326177,47.38893],[-124.3260881,47.388877],[-124.326064,47.388853],[-124.326064,47.388793],[-124.326136,47.388667],[-124.326144,47.388464],[-124.326023,47.388129],[-124.325829,47.387405],[-124.325692,47.38638],[-124.325207,47.384592],[-124.324988,47.383863],[-124.324762,47.382881],[-124.324729,47.381543],[-124.324649,47.380835],[-124.324511,47.380325],[-124.324438,47.379875],[-124.324398,47.379393],[-124.324317,47.378696],[-124.324268,47.378137],[-124.324268,47.377226],[-124.324228,47.376316],[-124.324252,47.376118],[-124.324228,47.375674],[-124.324198,47.374803],[-124.324101,47.374638],[-124.323988,47.374391],[-124.323915,47.374024],[-124.323988,47.373525],[-124.324012,47.373031],[-124.324036,47.371956],[-124.324028,47.371353],[-124.324003,47.370607],[-124.32389,47.368682],[-124.323752,47.368309],[-124.323591,47.367705],[-124.323348,47.367075],[-124.323324,47.366817],[-124.323025,47.366181],[-124.322565,47.365599],[-124.322484,47.365397],[-124.322234,47.364941],[-124.321951,47.364475],[-124.321612,47.363938],[-124.321241,47.363192],[-124.320813,47.362578],[-124.320562,47.362018],[-124.320385,47.361656],[-124.320231,47.361377],[-124.320134,47.361004],[-124.320029,47.360779],[-124.319674,47.360373],[-124.31948,47.360005],[-124.319512,47.359819],[-124.319626,47.359633],[-124.319787,47.359523],[-124.31986,47.359501],[-124.320013,47.35932],[-124.320021,47.359216],[-124.319973,47.35915],[-124.319868,47.359062],[-124.319383,47.358722],[-124.319141,47.358464],[-124.319068,47.358245],[-124.319044,47.357971],[-124.318996,47.357801],[-124.318794,47.357587],[-124.318689,47.357444],[-124.318632,47.357197],[-124.318568,47.356852],[-124.318689,47.356375],[-124.318826,47.356194],[-124.319181,47.356024],[-124.319399,47.35593],[-124.319431,47.355897],[-124.319407,47.35587],[-124.3191,47.355766],[-124.31906,47.355738],[-124.319028,47.355689],[-124.319052,47.35564],[-124.319213,47.355579],[-124.319681,47.355431],[-124.320012,47.355376],[-124.3204186,47.3553246],[-124.320787,47.355278],[-124.320852,47.355239],[-124.320948,47.35519],[-124.321126,47.354992],[-124.32119,47.354888],[-124.321166,47.354833],[-124.32111,47.354828],[-124.32094,47.354932],[-124.320755,47.355058],[-124.320609,47.355151],[-124.320359,47.355195],[-124.320093,47.355212],[-124.319867,47.355212],[-124.319794,47.355157],[-124.319818,47.355053],[-124.319867,47.354976],[-124.319843,47.354954],[-124.31973,47.354949],[-124.319536,47.355058],[-124.319229,47.355245],[-124.318874,47.355371],[-124.3185777,47.3554086],[-124.318527,47.355415],[-124.31818,47.35542],[-124.317639,47.355311],[-124.317203,47.355053],[-124.316663,47.35468],[-124.315904,47.35417],[-124.315613,47.354],[-124.315452,47.353885],[-124.315412,47.353792],[-124.315476,47.353638],[-124.315468,47.353594],[-124.315379,47.353567],[-124.315186,47.353676],[-124.314855,47.353775],[-124.314411,47.353786],[-124.31345,47.353786],[-124.313136,47.35371],[-124.312853,47.353567],[-124.312708,47.353468],[-124.312595,47.353424],[-124.312474,47.353419],[-124.312377,47.353424],[-124.312215,47.35338],[-124.312102,47.353271],[-124.311998,47.353254],[-124.311852,47.353276],[-124.311723,47.353358],[-124.3114,47.353424],[-124.311102,47.353397],[-124.309576,47.352865],[-124.308931,47.352635],[-124.308648,47.352585],[-124.308261,47.352635],[-124.307906,47.35258],[-124.3073,47.352311],[-124.306816,47.352086],[-124.306421,47.351878],[-124.306098,47.351697],[-124.305735,47.351406],[-124.305364,47.351066],[-124.304185,47.350183],[-124.303645,47.34987],[-124.3035156,47.3498465],[-124.303403,47.349826],[-124.303306,47.349821],[-124.303233,47.349854],[-124.303201,47.349925],[-124.303209,47.350002],[-124.303298,47.350078],[-124.303354,47.350139],[-124.303338,47.350177],[-124.30329,47.350183],[-124.303136,47.350155],[-124.302507,47.350013],[-124.302031,47.349865],[-124.301365,47.349742],[-124.300579,47.349179],[-124.299524,47.348658],[-124.299602,47.348658],[-124.299779,47.348603],[-124.2999,47.3484],[-124.299739,47.347928],[-124.298957,47.347078],[-124.297738,47.345603],[-124.296907,47.344423],[-124.296061,47.343441],[-124.294665,47.341532],[-124.293399,47.339761],[-124.293028,47.33919],[-124.292737,47.338889],[-124.29252,47.338378],[-124.291899,47.337353],[-124.291383,47.336349],[-124.290722,47.335252],[-124.290214,47.334226],[-124.289649,47.333316],[-124.289279,47.332581],[-124.289005,47.33178],[-124.2889,47.331544],[-124.288585,47.331067],[-124.288247,47.330765],[-124.288053,47.330606],[-124.288029,47.330354],[-124.288029,47.330063],[-124.287787,47.329454],[-124.287247,47.328192],[-124.287006,47.327595],[-124.286828,47.327287],[-124.28674,47.326953],[-124.286603,47.326618],[-124.286385,47.326404],[-124.286289,47.326081],[-124.286144,47.325516],[-124.285829,47.324918],[-124.285088,47.32347],[-124.284709,47.322746],[-124.284443,47.322296],[-124.284032,47.321495],[-124.283807,47.321045],[-124.283718,47.320683],[-124.283557,47.320294],[-124.283154,47.319581],[-124.282767,47.318725],[-124.282582,47.318001],[-124.282502,47.317595],[-124.281978,47.316273],[-124.281616,47.315401],[-124.281592,47.315099],[-124.281423,47.314584],[-124.281254,47.31409],[-124.280915,47.313207],[-124.280448,47.312411],[-124.280045,47.311742],[-124.279884,47.311408],[-124.279868,47.310782],[-124.279844,47.310464],[-124.27953,47.30991],[-124.279087,47.309334],[-124.278757,47.308961],[-124.278507,47.308495],[-124.27854,47.307848],[-124.278403,47.307601],[-124.277984,47.307167],[-124.277895,47.30692],[-124.277928,47.306641],[-124.278097,47.306377],[-124.278283,47.306175],[-124.27871,47.306038],[-124.278936,47.305917],[-124.279025,47.305758],[-124.279001,47.305654],[-124.278783,47.305467],[-124.278751,47.305308],[-124.278791,47.304941],[-124.278953,47.304738],[-124.279211,47.304705],[-124.279477,47.304689],[-124.279541,47.304689],[-124.279574,47.304645],[-124.279509,47.304464],[-124.279437,47.304283],[-124.279389,47.30403],[-124.279195,47.303888],[-124.278969,47.303849],[-124.27859,47.303811],[-124.278316,47.303745],[-124.278131,47.303652],[-124.278075,47.303569],[-124.278059,47.303438],[-124.277986,47.303383],[-124.277849,47.303372],[-124.277623,47.303443],[-124.27743,47.303586],[-124.277236,47.303646],[-124.277107,47.303651],[-124.276905,47.303547],[-124.276712,47.303344],[-124.276639,47.303245],[-124.276632,47.303119],[-124.27668,47.30307],[-124.276752,47.303026],[-124.276777,47.302982],[-124.276745,47.302933],[-124.276616,47.302927],[-124.276293,47.302878],[-124.275946,47.302735],[-124.27556,47.302477],[-124.275422,47.302362],[-124.275205,47.302093],[-124.2751,47.301972],[-124.274923,47.301874],[-124.274721,47.301885],[-124.274407,47.30189],[-124.274149,47.301802],[-124.273915,47.30167],[-124.273859,47.30161],[-124.273891,47.30144],[-124.273843,47.301402],[-124.273795,47.301391],[-124.273641,47.301429],[-124.273472,47.301418],[-124.273335,47.301341],[-124.273295,47.301237],[-124.273198,47.301198],[-124.273045,47.301204],[-124.272908,47.301193],[-124.272755,47.301116],[-124.272545,47.300973],[-124.272408,47.300979],[-124.272295,47.301017],[-124.272279,47.301094],[-124.272165,47.301199],[-124.272077,47.301302],[-124.272101,47.301445],[-124.272214,47.301598],[-124.272528,47.30179],[-124.272875,47.301933],[-124.273238,47.301977],[-124.273464,47.302043],[-124.273681,47.302169],[-124.273834,47.3024],[-124.273882,47.302619],[-124.273793,47.303009],[-124.273479,47.303414],[-124.272882,47.303853],[-124.272333,47.304182],[-124.271639,47.304434],[-124.270994,47.304686],[-124.269897,47.305037],[-124.268736,47.30514],[-124.267857,47.30514],[-124.266785,47.304997],[-124.266035,47.304909],[-124.265567,47.304805],[-124.264995,47.304607],[-124.264624,47.304535],[-124.264294,47.304541],[-124.263899,47.304497],[-124.263205,47.304343],[-124.26248,47.304233],[-124.261956,47.304172],[-124.261496,47.304041],[-124.260899,47.303985],[-124.260472,47.303963],[-124.260158,47.303963],[-124.25973,47.303793],[-124.259215,47.303557],[-124.258497,47.303469],[-124.25753,47.303183],[-124.257127,47.303084],[-124.256683,47.302985],[-124.256345,47.30281],[-124.255345,47.302453],[-124.254878,47.302255],[-124.253814,47.301772],[-124.252855,47.301245],[-124.252154,47.300778],[-124.251945,47.300745],[-124.251292,47.300322],[-124.250915,47.300085],[-124.249712,47.299143],[-124.249341,47.298951],[-124.249116,47.298918],[-124.248938,47.298935],[-124.248922,47.298819],[-124.248922,47.298737],[-124.248889,47.298666],[-124.248841,47.29866],[-124.24872,47.298672],[-124.248656,47.298672],[-124.248543,47.298683],[-124.248446,47.298688],[-124.248333,47.298705],[-124.248317,47.298639],[-124.248381,47.298557],[-124.248462,47.298485],[-124.248534,47.298381],[-124.248534,47.298271],[-124.248453,47.298151],[-124.248219,47.297909],[-124.246904,47.296961],[-124.246379,47.296468],[-124.245968,47.296199],[-124.245597,47.295876],[-124.244564,47.295037],[-124.243959,47.294582],[-124.243773,47.294424],[-124.243523,47.294254],[-124.24337,47.294215],[-124.243225,47.294226],[-124.242999,47.294265],[-124.242894,47.294298],[-124.242838,47.294276],[-124.242838,47.294205],[-124.242991,47.294084],[-124.242991,47.293958],[-124.242894,47.29376],[-124.242547,47.29347],[-124.241998,47.292993],[-124.241361,47.29234],[-124.240933,47.291699],[-124.240618,47.291397],[-124.240441,47.291304],[-124.240215,47.291233],[-124.240158,47.290915],[-124.240053,47.290641],[-124.239738,47.290279],[-124.23927,47.289851],[-124.238915,47.289396],[-124.238439,47.288799],[-124.238011,47.287993],[-124.237849,47.287642],[-124.237655,47.287389],[-124.237357,47.287039],[-124.236961,47.286392],[-124.23634,47.285602],[-124.235848,47.284862],[-124.23542,47.284259],[-124.235275,47.284045],[-124.235097,47.283699],[-124.234895,47.283233],[-124.234628,47.282103],[-124.234329,47.281122],[-124.234176,47.28088],[-124.233982,47.280645],[-124.233804,47.280173],[-124.233505,47.279318],[-124.233247,47.278703],[-124.23294,47.278001],[-124.232463,47.276488],[-124.2323817,47.2762422],[-124.23218,47.275632],[-124.232011,47.275188],[-124.231833,47.274623],[-124.231631,47.273916],[-124.231284,47.273154],[-124.231098,47.27266],[-124.230824,47.272139],[-124.2306299,47.2716342],[-124.230299,47.271103],[-124.229815,47.270105],[-124.229468,47.26949],[-124.229217,47.268904],[-124.229048,47.268202],[-124.228846,47.267873],[-124.228426,47.266842],[-124.228055,47.266145],[-124.227676,47.265312],[-124.227522,47.264889],[-124.227013,47.263233],[-124.22669,47.262438],[-124.226577,47.26195],[-124.226287,47.26127],[-124.226004,47.260529],[-124.225746,47.260211],[-124.22569,47.259948],[-124.225568,47.259723],[-124.225464,47.259509],[-124.22527,47.259191],[-124.225173,47.258775],[-124.224866,47.257919],[-124.224447,47.256822],[-124.22418,47.256181],[-124.223785,47.255407],[-124.223374,47.254864],[-124.223229,47.254738],[-124.22314,47.254546],[-124.223059,47.254009],[-124.222954,47.253647],[-124.222647,47.252731],[-124.222212,47.2517],[-124.22205,47.251272],[-124.221994,47.250982],[-124.221881,47.250609],[-124.221534,47.249808],[-124.221069,47.248892],[-124.220488,47.247998],[-124.220174,47.247587],[-124.219723,47.247297],[-124.219287,47.24711],[-124.21903,47.246979],[-124.218578,47.246809],[-124.217934,47.24643],[-124.217257,47.245981],[-124.216902,47.245674],[-124.216757,47.245465],[-124.216709,47.245312],[-124.216789,47.244939],[-124.216974,47.24501],[-124.217176,47.245059],[-124.217498,47.245043],[-124.217796,47.244939],[-124.218241,47.244635],[-124.215717,47.244645],[-124.20986,47.244693],[-124.202211,47.244741],[-124.185749,47.244856],[-124.178164,47.2449299],[-124.172609,47.244629],[-124.164192,47.244279],[-124.1565,47.244447],[-124.146827,47.244689],[-124.126289,47.245176],[-124.114795,47.245201],[-124.113497,47.246327],[-124.1092,47.249807],[-124.094151,47.263905],[-124.087955,47.269669],[-124.082977,47.274289],[-124.064863,47.289197],[-124.045809,47.305594],[-124.03361,47.316435],[-124.019295,47.328941],[-124.012718,47.335181],[-124.009953,47.337359],[-124.001315,47.343822],[-124.000284,47.344469],[-123.9991665,47.3452931],[-123.9985986,47.3458678],[-123.9924402,47.3513851],[-123.9892239,47.3537115],[-123.9815022,47.3593184],[-123.971607,47.365236],[-123.970823,47.365968],[-123.967306,47.369203],[-123.96662837639266,47.3698119],[-123.966927,47.3698119],[-123.96281609717477,47.37323754336701],[-123.961173,47.374714],[-123.941143,47.392097],[-123.932097,47.400928],[-123.929333,47.403683],[-123.91488080173528,47.41540438524959],[-123.9124031,47.4176893],[-123.90344762549175,47.424818753719926],[-123.901911,47.426153],[-123.900089,47.427748],[-123.876952,47.448806],[-123.876165,47.449584],[-123.870296,47.4549],[-123.8694502,47.4557552],[-123.8691871,47.4557069],[-123.8690051,47.4556739],[-123.8686513,47.4557],[-123.86815,47.455609],[-123.8679034,47.4555883],[-123.866922,47.455654],[-123.866149,47.456155],[-123.865717,47.457013],[-123.8651718424044,47.45763760769434],[-123.865001,47.457891],[-123.864626,47.458263],[-123.864273,47.459237],[-123.864251,47.459777],[-123.864182,47.459895],[-123.86388998519072,47.46014578348238],[-123.863461,47.460584],[-123.862989,47.461505],[-123.862932,47.46192],[-123.862728,47.462128],[-123.862363,47.462203],[-123.860863,47.461971],[-123.860225,47.462102],[-123.858974,47.462912],[-123.85814589242457,47.463269657637355],[-123.8577,47.463498],[-123.857256,47.463654],[-123.8567822,47.4640798],[-123.856313,47.464309],[-123.855766,47.464448],[-123.855301,47.464748],[-123.854584,47.464997],[-123.854334,47.465205],[-123.853901,47.465272],[-123.853288,47.465654],[-123.853082,47.465647],[-123.852287,47.465464],[-123.851797,47.465512],[-123.851536,47.465712],[-123.851348,47.466073],[-123.851001,47.466211],[-123.850541,47.466727],[-123.8488634,47.4677422],[-123.84863719281455,47.468306088420526],[-123.8486306,47.4683576],[-123.8485913,47.4684622],[-123.8485233,47.46859],[-123.8482946,47.4687253],[-123.84821386332622,47.46873007562732],[-123.847622,47.468998],[-123.847509,47.469251],[-123.847509,47.469521],[-123.8476503,47.469673],[-123.8475409619469,47.46989772920353],[-123.8475278,47.4699464],[-123.8475001068892,47.46998170110827],[-123.8473071,47.4703784],[-123.8470183,47.4705419],[-123.8467644,47.4706013],[-123.8463813,47.4705173],[-123.8462236684574,47.47041663704998],[-123.8460739,47.4703581],[-123.84596796444193,47.47025334536291],[-123.84587422635302,47.47019348454824],[-123.8458135,47.4701757],[-123.8455833,47.4700077],[-123.8451774,47.4699831],[-123.8447287,47.4700217],[-123.8442555,47.4702024],[-123.8434526,47.4708687],[-123.8429915,47.4710818],[-123.8425393,47.4715438],[-123.8423959,47.4716286],[-123.8423296,47.4717217],[-123.8421413,47.4718322],[-123.8420778,47.4719704],[-123.8414971,47.4726379],[-123.840586,47.472978],[-123.83951,47.473305],[-123.839227,47.473528],[-123.839163,47.473785],[-123.839061,47.473844],[-123.838327,47.473867],[-123.8378255,47.4740971],[-123.83752,47.47368],[-123.837122,47.473521],[-123.836746,47.473154],[-123.836576,47.47312],[-123.8360313,47.4732584],[-123.835946,47.4734012],[-123.835632,47.473531],[-123.835142,47.473535],[-123.83491879402679,47.47351271266735],[-123.834267,47.473496],[-123.8334911,47.4740548],[-123.8334107,47.4741796],[-123.83335733330095,47.4742556874178],[-123.8331248,47.4746049],[-123.832981,47.474847],[-123.8329033,47.4754139],[-123.8329462,47.4759232],[-123.8328991,47.4760249],[-123.8327271,47.476244],[-123.8325733,47.4763056],[-123.8324785,47.476389],[-123.8324669,47.4764252],[-123.832366,47.476741],[-123.832217,47.476841],[-123.832183,47.476967],[-123.831888,47.477122],[-123.831876,47.477464],[-123.8321124,47.4781506],[-123.8321774,47.4783392],[-123.8319542,47.4787983],[-123.831659,47.479004],[-123.831124,47.479503],[-123.8310163,47.4798369],[-123.831135,47.480232],[-123.831284,47.480636],[-123.831944,47.481801],[-123.832444,47.482535],[-123.832785,47.482946],[-123.833081,47.483196],[-123.83324,47.483294],[-123.833672,47.483345],[-123.834026,47.483639],[-123.834252,47.483745],[-123.834799,47.484524],[-123.835026,47.484694],[-123.8354237,47.4848483],[-123.8356287,47.4849993],[-123.8361976,47.4851755],[-123.8366536,47.4852165],[-123.8373445,47.4853428],[-123.838611,47.485288],[-123.8390388,47.4852403],[-123.8392112,47.4853185],[-123.8395347,47.485908],[-123.8394479,47.4860787],[-123.840762,47.4875095],[-123.8408625,47.488006],[-123.8423538,47.488499],[-123.843966,47.4886878],[-123.8448679,47.4898982],[-123.845485,47.490484],[-123.845563,47.490816],[-123.8446605,47.4913626],[-123.8433623,47.4916889],[-123.8424718,47.4924645],[-123.8424692,47.4933919],[-123.8424952,47.494679],[-123.8426424,47.4946668],[-123.842821,47.4946519],[-123.8429253,47.494649],[-123.8435195,47.494775],[-123.8440456,47.4947536],[-123.8445131,47.4950836],[-123.84498533787504,47.495199642012984],[-123.8452828,47.495241],[-123.8454377,47.4953108],[-123.844857,47.4962838],[-123.844742,47.496743],[-123.845058,47.496943],[-123.845867,47.4969767],[-123.846725,47.497277],[-123.84718,47.497481],[-123.84793,47.497826],[-123.848352,47.497868],[-123.84860258423276,47.497958622243075],[-123.848853,47.498008],[-123.851619,47.497052],[-123.852564,47.496559],[-123.853668,47.496137],[-123.853929,47.496009],[-123.85461,47.495383],[-123.854999,47.495029],[-123.856342,47.494929],[-123.857094,47.494761],[-123.859471,47.493907],[-123.860086,47.493794],[-123.860382,47.493864],[-123.860826,47.493825],[-123.86127,47.493569],[-123.8616,47.493153],[-123.862151,47.492195],[-123.862704,47.491786],[-123.863205,47.49153],[-123.863488,47.491519],[-123.86366,47.491554],[-123.863789,47.491697],[-123.8638600931656,47.491865147318634],[-123.864069,47.49219],[-123.864888,47.492345],[-123.865321,47.49227],[-123.8668,47.491485],[-123.866982,47.491268],[-123.86762,47.490921],[-123.868541,47.490203],[-123.868916,47.48967],[-123.868916,47.48949],[-123.868517,47.48907],[-123.868518,47.488836],[-123.868654,47.488511],[-123.868847,47.488338],[-123.86879,47.487907],[-123.868904,47.487726],[-123.86944426345607,47.4873872124646],[-123.869575,47.487262],[-123.869746,47.487198],[-123.870133,47.487177],[-123.870771,47.487253],[-123.871111,47.487196],[-123.871475,47.486537],[-123.871827,47.486246],[-123.872306,47.486018],[-123.872999,47.485463],[-123.87309,47.485211],[-123.873329,47.485002],[-123.873501,47.4846899],[-123.873648,47.484604],[-123.874239,47.484608],[-123.87515,47.484412],[-123.876291,47.483576],[-123.877484,47.483045],[-123.87868,47.482838],[-123.879454,47.482571],[-123.88131,47.482233],[-123.882538,47.482133],[-123.8838,47.482177],[-123.88429,47.482084],[-123.884677,47.481919],[-123.885099,47.481807],[-123.885977,47.481333],[-123.886375,47.480898],[-123.886409,47.480628],[-123.88646605276418,47.480592549738766],[-123.886547,47.480321],[-123.886844,47.479886],[-123.887094,47.479866],[-123.887379,47.479918],[-123.888401,47.480234],[-123.889745,47.480161],[-123.89004,47.480024],[-123.89053,47.480011],[-123.891098,47.480321],[-123.891403,47.481012],[-123.89163,47.481199],[-123.891937,47.481251],[-123.892689,47.481092],[-123.892985,47.480748],[-123.892907,47.480154],[-123.89301,47.480073],[-123.893851,47.479814],[-123.894388,47.479495],[-123.894445,47.479252],[-123.894401,47.478919],[-123.89448,47.478819],[-123.895686,47.478576],[-123.895936,47.478682],[-123.896322,47.479093],[-123.896674,47.479252],[-123.89704,47.479348],[-123.897812,47.479333],[-123.89812,47.479241],[-123.898486,47.478113],[-123.899237,47.477711],[-123.89984,47.477617],[-123.899966,47.477418],[-123.899865,47.476717],[-123.90081,47.476691],[-123.901186,47.476544],[-123.901157,47.47641],[-123.90179,47.475784],[-123.902155,47.475565],[-123.902703,47.475039],[-123.90326,47.47471],[-123.90367,47.474572],[-123.90415464577839,47.474464679493714],[-123.90490920655036,47.47425777164809],[-123.904956,47.474229],[-123.90509152917586,47.47420777702466],[-123.90549102685654,47.474098230905234],[-123.905786,47.473971],[-123.906265,47.473886],[-123.90708874292224,47.473473312951825],[-123.907186,47.473411],[-123.90778,47.473127],[-123.908701,47.472823],[-123.909145,47.472441],[-123.909772,47.472184],[-123.910205,47.471839],[-123.911628,47.471009],[-123.9127864,47.4697688],[-123.9246644,47.4724649],[-123.9266447,47.472981],[-123.9299432,47.4737388],[-123.9433226,47.4765552],[-123.943422,47.4765748],[-123.946139,47.4771423],[-123.9587647,47.4802331],[-123.9587715,47.480414],[-123.9589795,47.4807786],[-123.959866,47.4819944],[-123.9606446,47.4826945],[-123.9614208,47.4830846],[-123.9623377,47.4833914],[-123.9647609,47.4838404],[-123.9649768,47.483999],[-123.9649784,47.4841609],[-123.9647446,47.4841783],[-123.9645513,47.484126],[-123.96451284426678,47.48412185024566],[-123.9625904,47.4839606],[-123.9613233,47.4840916],[-123.9607341,47.484256],[-123.9600127,47.4845777],[-123.9596151,47.4848328],[-123.9593455,47.4851284],[-123.958893,47.4849378],[-123.9586163,47.4849152],[-123.9577458,47.4850462],[-123.95747,47.4851718],[-123.9561077,47.4852669],[-123.9558048,47.485481],[-123.9556103,47.4860872],[-123.9550833,47.4860743],[-123.9544986,47.4859752],[-123.9539004,47.4857886],[-123.9529562,47.485905],[-123.9527045,47.4860272],[-123.9524183,47.4864522],[-123.9524973,47.4869603],[-123.9520943,47.4871936],[-123.95187434111627,47.48726607052973],[-123.9514552,47.4874718],[-123.9507089,47.4882579],[-123.9504916,47.4883488],[-123.9503257,47.488348],[-123.9501098,47.4882579],[-123.9496404,47.486704],[-123.9490858,47.4864312],[-123.9479742,47.4863218],[-123.9467245,47.4865427],[-123.9460108,47.4864525],[-123.9446291,47.4865645],[-123.9437991,47.4869686],[-123.9436593,47.4871343],[-123.943483,47.4877071],[-123.9426246,47.4877718],[-123.9421305,47.4879719],[-123.94174522669957,47.48807238803938],[-123.94044376045706,47.48851725620396],[-123.9402886,47.4885793],[-123.9390821,47.4889827],[-123.9384237,47.4893464],[-123.9379833,47.4896987],[-123.9371658,47.4905195],[-123.9371198,47.4910394],[-123.9372512,47.4914089],[-123.9379999,47.4924941],[-123.9385611,47.4929452],[-123.9385996,47.4930456],[-123.9384836,47.4930708],[-123.9370612,47.4928408],[-123.9364095,47.4929107],[-123.9352885,47.4931883],[-123.9350304,47.492932],[-123.93494057762365,47.49273254755634],[-123.9344412,47.4920784],[-123.9337195,47.4914478],[-123.933477,47.4911142],[-123.9333961,47.4909106],[-123.9333649,47.4904533],[-123.9336309,47.4897546],[-123.9335819,47.489542],[-123.92495464409464,47.48948229066741],[-123.9245504,47.4894981],[-123.9219651,47.4894616],[-123.9218419,47.4896794],[-123.9216213,47.490563],[-123.9211811,47.491012],[-123.9207524,47.4916723],[-123.9200063,47.4923036],[-123.9191469,47.4928639],[-123.91872206245782,47.493065221173616],[-123.9177146,47.4936627],[-123.9162483,47.4942818],[-123.9152997,47.4946043],[-123.9147489,47.4948562],[-123.9143188,47.495197],[-123.9135632,47.4962468],[-123.9135202,47.4964226],[-123.9136276,47.4966827],[-123.9140505,47.4971382],[-123.9144359,47.4977111],[-123.9145318,47.4983357],[-123.9144729,47.4986016],[-123.9142337,47.4989229],[-123.9134663,47.4996309],[-123.9130696,47.4998455],[-123.91199154067013,47.500272415732006],[-123.9107272,47.5008224],[-123.9100855,47.5013359],[-123.9090041,47.5024197],[-123.9078187,47.5048316],[-123.9071507,47.5058492],[-123.9072135,47.5058708],[-123.9063247,47.5066981],[-123.9061111,47.5071496],[-123.9061388,47.507366],[-123.90575,47.5080636],[-123.9050273,47.5088543],[-123.9048849,47.5094154],[-123.9045299,47.5100068],[-123.9046221,47.5106793],[-123.9043771,47.5113306],[-123.9044641,47.5115012],[-123.9052894,47.5121834],[-123.9059751493561,47.512375565380246],[-123.9062073,47.5124068],[-123.90653526831697,47.51253252575089],[-123.9069998,47.5126627],[-123.9074993,47.5126448],[-123.9078761,47.5127271],[-123.9080575,47.5129125],[-123.90818,47.5129213],[-123.90836583853061,47.51303488306299],[-123.9085561,47.5131104],[-123.9088123,47.5130884],[-123.908943,47.5131442],[-123.90899955277244,47.513211631763646],[-123.9091899,47.5133369],[-123.9098906,47.5132224],[-123.9105852,47.5132749],[-123.91096558962695,47.51317906402999],[-123.9110705,47.513132],[-123.911229,47.5131127],[-123.9118634,47.5131217],[-123.9120689,47.5132558],[-123.912501,47.513279],[-123.9126888,47.5133127],[-123.9129175,47.5133941],[-123.913196,47.513446],[-123.9134673,47.5136583],[-123.9138128,47.5137499],[-123.914307,47.5138828],[-123.9146022,47.5141604],[-123.9148252,47.5141058],[-123.9151666,47.514121],[-123.915454,47.514155],[-123.91593102653924,47.514310778616405],[-123.9161285,47.5143477],[-123.91627667434219,47.51442365396416],[-123.9185355,47.5151613],[-123.91932885338657,47.515150911808014],[-123.9195714,47.5151089],[-123.9203073,47.5151381],[-123.9206,47.5150553],[-123.9207741,47.5150339],[-123.9215404,47.515041],[-123.9230762,47.515194],[-123.9241431,47.5150195],[-123.92437926584294,47.515032089977566],[-123.92456719550484,47.515008739127005],[-123.9245793,47.5150045],[-123.9247164,47.5149902],[-123.9257247,47.5146472],[-123.9261244,47.5146939],[-123.9269211,47.5149466],[-123.9271393,47.5149379],[-123.9278941,47.5144866],[-123.9286418,47.5144608],[-123.9289624,47.5146083],[-123.9298304,47.5143597],[-123.9302321,47.5140305],[-123.9304216,47.5139485],[-123.9317072,47.5135705],[-123.9318532,47.5133717],[-123.9318193,47.5128019],[-123.9321407,47.5120085],[-123.9323814,47.5119689],[-123.9333301,47.5121241],[-123.93379934516088,47.5119578560481],[-123.9339277,47.5118911],[-123.9343454,47.5117644],[-123.935247,47.5117398],[-123.9357083,47.5118698],[-123.935933,47.5121079],[-123.9363845,47.512208],[-123.9365081,47.5123117],[-123.9366464,47.5125933],[-123.9370636,47.5129357],[-123.9377146,47.5132582],[-123.9386509,47.5138829],[-123.9392837,47.5140357],[-123.9395899,47.5140109],[-123.9394669,47.5135752],[-123.9392486,47.5133809],[-123.9389893,47.5129024],[-123.9385976,47.5124466],[-123.9389538,47.5126454],[-123.9393708,47.5131196],[-123.9396914,47.5133331],[-123.940168,47.513449],[-123.9403103,47.5134871],[-123.943303,47.5132534],[-123.9438608,47.5130323],[-123.9451438,47.5128161],[-123.94782381562938,47.51270249892395],[-123.9480955,47.5126693],[-123.9486259,47.5126685],[-123.9496933,47.5122331],[-123.9511753,47.5117562],[-123.9518811,47.5110316],[-123.9521383,47.5102563],[-123.9522259,47.5102292],[-123.9525399,47.5102673],[-123.9535362,47.510945],[-123.9547991,47.5116374],[-123.9549445,47.5117404],[-123.9552294,47.5121688],[-123.9557159,47.5123118],[-123.9561836,47.5126831],[-123.9563159,47.5130663],[-123.9564902,47.5132728],[-123.9571304,47.5134801],[-123.9576002,47.5137499],[-123.958279,47.5137915],[-123.9585019,47.5138622],[-123.9587046,47.5139993],[-123.9587742,47.5140797],[-123.9588659,47.5144613],[-123.9589365,47.5148957],[-123.9589203,47.5152336],[-123.9587714,47.5154517],[-123.9586424,47.5155292],[-123.9570452,47.5161796],[-123.9565935,47.5166832],[-123.9565607,47.5169474],[-123.9568364,47.5172225],[-123.9568972,47.5174266],[-123.9568372,47.5175737],[-123.9564701,47.5178692],[-123.9564034,47.5181728],[-123.9559851,47.5189663],[-123.955977,47.5192354],[-123.9558627,47.5194223],[-123.9556287,47.5195742],[-123.9551805,47.5196661],[-123.9540776,47.5195098],[-123.9537125,47.5196351],[-123.9534149,47.5199396],[-123.9535137,47.5203731],[-123.9533904,47.5208156],[-123.9531472,47.5212886],[-123.9527573,47.5218097],[-123.9525037,47.5219703],[-123.9509444,47.5222436],[-123.9505007,47.522478],[-123.9503707,47.5227022],[-123.950781,47.523036],[-123.9510677,47.5231357],[-123.9517548,47.5230833],[-123.9523652,47.5229043],[-123.9529747,47.5227821],[-123.9536254,47.5228048],[-123.9542546,47.5224515],[-123.9545606,47.5221511],[-123.9552151,47.5221561],[-123.95615089433542,47.521891076611105],[-123.9563773,47.5217926],[-123.956708521264,47.52173315283153],[-123.9574029,47.5215365],[-123.957671,47.5212109],[-123.9578534,47.5210769],[-123.9582688,47.5209119],[-123.9584938,47.520881],[-123.9588149,47.5209024],[-123.9590327,47.5208195],[-123.9600726,47.5203299],[-123.9606382,47.5199],[-123.9612114,47.5197992],[-123.9618017,47.519514],[-123.962107,47.5194699],[-123.9633654,47.519449],[-123.9638251,47.5190796],[-123.9646504,47.5189279],[-123.9650903,47.5187677],[-123.9653364,47.5188184],[-123.9655419,47.5189363],[-123.966056,47.5196053],[-123.966578,47.5199338],[-123.9671935,47.5199991],[-123.9682512,47.5197394],[-123.9687983,47.5197435],[-123.969145,47.5199179],[-123.9695643,47.5202904],[-123.9700769,47.52046],[-123.9703803,47.5204544],[-123.9716642,47.5201171],[-123.9719853,47.5200698],[-123.972845,47.5200872],[-123.9729935,47.5201983],[-123.9733222,47.5206118],[-123.9735807,47.5207336],[-123.974104,47.5206122],[-123.9748165,47.520672],[-123.9760548,47.5205197],[-123.9765265,47.5205506],[-123.9770874,47.5207162],[-123.9781133,47.520534],[-123.9792583,47.5207164],[-123.9796859,47.5206853],[-123.9799364,47.5205412],[-123.9800653,47.5205294],[-123.980589,47.520685],[-123.9815173,47.5206977],[-123.9822436,47.5208504],[-123.98254260863813,47.52074280565825],[-123.982851,47.5205811],[-123.9830284,47.520568],[-123.9835643,47.5208549],[-123.9839116,47.5208371],[-123.98421283157909,47.520882369535705],[-123.9850139,47.5209163],[-123.9854491,47.5208108],[-123.9862748,47.5208674],[-123.9871421,47.5207418],[-123.9877846,47.5209189],[-123.9887112,47.5209014],[-123.9893628,47.5210286],[-123.9899629,47.5210367],[-123.9903288,47.5209936],[-123.9908375,47.5206337],[-123.9913354,47.5206281],[-123.9915433,47.5206497],[-123.9933571,47.5215706],[-123.9942343,47.5216751],[-123.9949614,47.5215753],[-123.9958641,47.5215666],[-123.996254,47.5216491],[-123.9968796,47.522013],[-123.99722872654301,47.522053784211266],[-123.997461,47.522049],[-123.9976954,47.5221083],[-123.9982868,47.5223744],[-123.9991374,47.5225729],[-123.9995886,47.5227991],[-123.9999364,47.5227894],[-124.000483,47.5230512],[-124.0015248,47.5231319],[-124.0019164,47.5233103],[-124.002688,47.523876],[-124.0035902,47.5242569],[-124.0043631,47.5243094],[-124.0050678,47.5248385],[-124.0053366,47.5249298],[-124.0061963,47.5248124],[-124.0066559,47.5246432],[-124.0075418,47.5247556],[-124.0080719,47.5249466],[-124.0082536,47.525268],[-124.0085982,47.5254065],[-124.0092321,47.5259019],[-124.0097354,47.5261841],[-124.0101543,47.5263453],[-124.0109431,47.5263919],[-124.0111607,47.5264406],[-124.0113526,47.5265313],[-124.0120991,47.5272128],[-124.0126625,47.5273508],[-124.0133306,47.5276119],[-124.0143821,47.5275166],[-124.014711,47.5275951],[-124.0151352,47.5277726],[-124.0160558,47.5277248],[-124.0162836,47.5278062],[-124.01655367797832,47.52799859233483],[-124.0169152,47.5281974],[-124.0183474,47.5284975],[-124.0187325,47.5287007],[-124.0193372,47.5291145],[-124.0199037,47.52917],[-124.0204312,47.5294487],[-124.0206323,47.5294267],[-124.02223,47.5297824],[-124.0233924,47.5299089],[-124.0240088,47.5297214],[-124.0253177,47.52966],[-124.0256825,47.5297952],[-124.0266717,47.530467],[-124.0277664,47.5305459],[-124.0283825,47.5301555],[-124.0290172,47.5300032],[-124.029687,47.5301545],[-124.0314563,47.5301376],[-124.0323158,47.5302121],[-124.0324708,47.5301638],[-124.032566,47.5299993],[-124.0327573,47.5298814],[-124.03321156469347,47.52981920933516],[-124.0336187,47.5297254],[-124.0343723,47.5296603],[-124.0347492462698,47.52949289651887],[-124.0347968,47.529448],[-124.0350584,47.5293556],[-124.0357438,47.5293005],[-124.0365873,47.5283933],[-124.0370374,47.5282022],[-124.0373692,47.5279322],[-124.0377342,47.5278725],[-124.0381581,47.5274544],[-124.03826829002344,47.52740981389536],[-124.0386804,47.5270528],[-124.0392277,47.5267959],[-124.0394101,47.5265356],[-124.0394082,47.5263737],[-124.0391383,47.5255418],[-124.0391632,47.5253545],[-124.039713,47.5251386],[-124.0398262,47.524872],[-124.0403118,47.5245345],[-124.0406508,47.5243822],[-124.0409545,47.5244478],[-124.0413681,47.5247818],[-124.042309,47.5248649],[-124.043773,47.5251556],[-124.0450756,47.5255852],[-124.0460039,47.5257922],[-124.04689,47.5257754],[-124.0470804,47.5257096],[-124.0473348,47.5253677],[-124.0474904,47.5252645],[-124.0488437,47.5250066],[-124.0492681,47.5249892],[-124.0501703,47.5252984],[-124.0505542,47.5252847],[-124.05124493325879,47.525131145198884],[-124.0513684,47.525086],[-124.0519968,47.524964],[-124.0522274,47.5248284],[-124.0527682,47.5246649],[-124.0534806,47.5246557],[-124.053854,47.524733],[-124.0540625,47.5248944],[-124.0542618,47.5251686],[-124.0542267,47.5256498],[-124.0539409,47.5259405],[-124.0539574,47.5264696],[-124.0541312,47.5267254],[-124.0543557,47.5268178],[-124.054912,47.5267088],[-124.055339,47.5267351],[-124.0556924,47.5272079],[-124.0565112,47.5279365],[-124.0567331,47.5282485],[-124.0570893,47.5283756],[-124.0576014,47.5283364],[-124.0583565,47.5284274],[-124.0591128,47.5286666],[-124.0594887,47.5289138],[-124.0596006,47.5291521],[-124.0597192,47.5299555],[-124.0603483,47.5318693],[-124.0603704,47.5322253],[-124.0602429,47.5329808],[-124.0606056,47.5332751],[-124.060925,47.5339528],[-124.0747029,47.5338818],[-124.1799796,47.5335913],[-124.191534,47.535984],[-124.191664,47.53602],[-124.196462,47.536976],[-124.211557,47.540045],[-124.216385,47.540998],[-124.21735075719837,47.54117748923876],[-124.2173476,47.5407926],[-124.2251977,47.5424394],[-124.23025512978202,47.543625873697046],[-124.25137,47.547652],[-124.254107,47.54821],[-124.256821,47.548857],[-124.25711,47.548902],[-124.260044,47.549495],[-124.262787,47.550201],[-124.266687,47.551154],[-124.267652,47.551343],[-124.269078,47.551556],[-124.269457,47.551627],[-124.272174,47.552375],[-124.273099,47.552534],[-124.274191,47.55276],[-124.274741,47.552867],[-124.27686,47.553325],[-124.277259,47.553424],[-124.277777,47.553511],[-124.280397,47.554002],[-124.283544,47.554642],[-124.285159,47.554908],[-124.287311,47.555326],[-124.289358,47.555698],[-124.29148,47.556093],[-124.293459,47.556499],[-124.294283,47.556575],[-124.296154,47.556831],[-124.298262,47.557148],[-124.300343,47.557474],[-124.301181,47.557446],[-124.30436,47.557757],[-124.307917,47.558092],[-124.311292,47.55836],[-124.31438,47.55866],[-124.31457,47.558675],[-124.317134,47.558832],[-124.319277,47.559005],[-124.321408,47.559193],[-124.323682,47.559351],[-124.326571,47.559631],[-124.328465,47.559794],[-124.330383,47.559878],[-124.331197,47.559966],[-124.333656,47.560277],[-124.336293,47.560969],[-124.338628,47.56134],[-124.341379,47.561946],[-124.343583,47.562541],[-124.3445324950666,47.5627111106335],[-124.3444972,47.5609629],[-124.3532838,47.5620498],[-124.35824829736491,47.56245073648456],[-124.358768,47.562401],[-124.358989,47.562419],[-124.362095,47.562744]]]]},"properties":{"id":"quinault-reservation-exclusion","name":"Quinault Reservation","sourceUrl":"https://www.openstreetmap.org/relation/7684703","sourceSnapshotUrl":"https://download.geofabrik.de/north-america/us/washington-260801.osm.pbf","sourceSnapshot":"washington-260801","sourceSha256":"3bea264079e184675aac7d8ab104bff5339b9e3656a36c084f96f616271a0e4e","attribution":"OpenStreetMap contributors, ODbL 1.0","policySources":["data/regions/olympic-peninsula/charter.md","docs/rebuild/olympic-peninsula-pack.md"],"extractedAt":"2026-09-29T02:11:47Z","sourceGeometrySha256":"f32982031490e6450f4662a6caee43e8c5e4ba0dec1caf672c1abae0acaf7c9d","policy":"Preserve the historical Olympic coverage decision to exclude unreviewed tribal approaches: subtract the retained, previously reviewed Olympic footprint from this reservation polygon. This is a conservative product scope, not a claim that all tribal land is closed or that a permit cannot authorize recreation. The OSM polygon is mapping evidence, not a surveyed legal boundary.","derivation":"Pinned reservation polygon minus data/regions/olympic-peninsula/boundary.geojson; no smoothing or coordinate rounding.","retainedFootprintSha256":"c076ee9733b2f1169168101ff06e86f6cc19d05848bf72f656b1a0986ea21cd1"}}
