{"type":"Feature","properties":{"id":"washington-mainland-us-limit","sourceUrl":"https://www.internationalboundarycommission.org/uploads/shapefile/us-canada-boundary-v1-3.zip","sourceSha256":"eb327459528b87cbc27e55ccc6bfd6982562c75559823a00b6dc50c04abcaab1","retrievedAt":"2026-09-28T00:00:00Z","limitation":"IBC v1.3 mapping line, not a legal survey. This northern support mask is scoped to mainland Washington named areas whose routing extent lies between -123.0907 and -117.0252 longitude. Extensions outside those longitudes only close the polygon; no named region may use them."},"geometry":{"type":"Polygon","coordinates":[[[-180,0],[180,0],[180,48.99922550086723],[-117.02523197753003,48.99922550086723],[-117.02877073599996,48.99921328500005],[-117.03974927399997,48.99917490000007],[-117.05072779399995,48.999135471000045],[-117.06170629699994,48.99909499700004],[-117.07268478199995,48.999053479000054],[-117.08512736699998,48.99900625300006],[-117.09756992899997,48.99895768600004],[-117.11001246599994,48.998907777000056],[-117.12245497699996,48.998856526000054],[-117.13489746299996,48.99880393300003],[-117.14306448399998,48.998870640000064],[-117.15123152599995,48.99893676900007],[-117.16350533199994,48.99903011500004],[-117.17577918399996,48.999122155000066],[-117.18805307999997,48.99921289000008],[-117.20032702099996,48.99930231900004],[-117.21151915699994,48.999381836000055],[-117.22271132799995,48.999460268000064],[-117.23390353399998,48.999537614000076],[-117.24509577399999,48.99961387500008],[-117.25634911999998,48.99968952000006],[-117.26760249899996,48.99976406700006],[-117.27885591199998,48.99983751600007],[-117.29010935799994,48.99990986800003],[-117.29944597599996,48.99997358300004],[-117.30009105699997,48.99997558800004],[-117.31306901599999,49.00006310100008],[-117.32604701999998,49.00014915400004],[-117.33902506899994,49.00023374700004],[-117.35200316099997,49.00031688100006],[-117.35493854299995,49.00031679400007],[-117.36185503399997,49.000313504000076],[-117.36877152399995,49.00030980000008],[-117.37986083999999,49.000340547000064],[-117.39095016899995,49.000370228000065],[-117.40369666799995,49.000402456000074],[-117.41644318299996,49.00043327700007],[-117.42918971399996,49.000462689000074],[-117.44240154899995,49.00049107500007],[-117.45561339799997,49.00051794700005],[-117.46882526099995,49.000543307000044],[-117.48203713699996,49.000567154000066],[-117.49524902499996,49.00058948900005],[-117.50846092499995,49.00061031000007],[-117.52042682499996,49.00062869100003],[-117.532392733,49.00064583100004],[-117.54435864999999,49.00066173100004],[-117.55632457299998,49.000676389000034],[-117.56829050399995,49.00068980700007],[-117.58025643999997,49.000701983000056],[-117.59208876599996,49.00071244800006],[-117.60392109699995,49.00072170000004],[-117.61575343199996,49.000729739000064],[-117.62758577099999,49.00073656400008],[-117.63749452399998,49.00073641500006],[-117.64732970999995,49.00071812300007],[-117.65716488899994,49.00069899300007],[-117.67059837,49.000689083000054],[-117.68403184499999,49.000677610000025],[-117.69746531299995,49.00066457200006],[-117.71087043499995,49.00064338000004],[-117.72427554499995,49.00062063100006],[-117.73768064199999,49.00059632400007],[-117.74959786399995,49.000574363000055],[-117.76151507399999,49.00055117200003],[-117.77343227399996,49.00052674900007],[-117.78497986399998,49.00052145400008],[-117.79652745099997,49.00051500200004],[-117.80807503599999,49.000507396000046],[-117.81962261599995,49.00049863300006],[-117.83117019199995,49.000488715000074],[-117.83152864899995,49.000488708000034],[-117.83176634899996,49.00048870400008],[-117.84423964999996,49.00047605800006],[-117.85671294399998,49.00046206400003],[-117.86918622999997,49.00044672100006],[-117.88165950899997,49.000430030000075],[-117.89413277899996,49.00041199000003],[-117.90716202699997,49.000402121000036],[-117.92019126999998,49.00039078000003],[-117.93322050599994,49.000377968000066],[-117.94499911599996,49.00036397200006],[-117.95677771899994,49.00034877300004],[-117.96855631399995,49.00033237200006],[-117.98033490199998,49.00031476800007],[-117.99211348099999,49.00029596200005],[-118.00383592899999,49.000280779000036],[-118.01555836899996,49.00026440600004],[-118.02728080099996,49.000246841000035],[-118.03900322499999,49.00022808600005],[-118.05076455499994,49.000214123000035],[-118.06252587799997,49.00019896200007],[-118.07341868399999,49.00018614100003],[-118.08431148399995,49.00017229200006],[-118.09520427799998,49.00015741400006],[-118.10670183999997,49.00014605000007],[-118.11819939599997,49.000133540000036],[-118.12969694599997,49.00011988500006],[-118.14119448999998,49.00010508300005],[-118.15269202699994,49.00008913700003],[-118.16418955599994,49.000072044000035],[-118.17308365099996,49.00006879400007],[-118.18458582499994,49.00007032600007],[-118.19608799999997,49.00007071200008],[-118.20759017399996,49.00006995100006],[-118.21568178999996,49.000071829000035],[-118.22377340599996,49.00007313900005],[-118.22406420699997,49.00007313700007],[-118.22441469699999,49.00007313500004],[-118.23039591499997,49.00007309400007],[-118.23910157999995,49.00006937300003],[-118.24780724399994,49.00006499600005],[-118.26081256699996,49.000062694000064],[-118.27381788699995,49.000058926000065],[-118.28682320599995,49.00005369200005],[-118.29961616299994,49.00006089400006],[-118.31240912299995,49.00006667700006],[-118.32520208599999,49.00007104200006],[-118.33821794499994,49.00007234900005],[-118.35123380399995,49.000072189000036],[-118.36424966299995,49.00007055900005],[-118.37726552099997,49.00006746200006],[-118.38970838299997,49.000043436000055],[-118.40076031799998,49.00005350600003],[-118.41181225799994,49.00006251800005],[-118.42286420099998,49.00007047100007],[-118.43286699799995,49.00007881100004],[-118.44286979699996,49.00008628300003],[-118.45287259999998,49.00009288900003],[-118.45992591799995,49.00008812800007],[-118.46697923499994,49.00008293600007],[-118.48044388799997,49.00007967000005],[-118.49390853799997,49.00007483300004],[-118.50295187899997,49.00007457100003],[-118.50335359199994,49.00007478200007],[-118.50357671499995,49.000074779000045],[-118.50395633699998,49.000074776000076],[-118.50492031799996,49.00007476800005],[-118.51580220699998,49.00007518600006],[-118.52668409599994,49.00007457800007],[-118.53892485699998,49.00007182400003],[-118.55116561699998,49.00006777200008],[-118.56358966299996,49.00007120400005],[-118.57601370999998,49.000073298000075],[-118.58843775799994,49.00007405400004],[-118.60078184799994,49.00007596900008],[-118.61312593899999,49.00007656300005],[-118.62547002899998,49.000075837000054],[-118.63781411899998,49.000073790000044],[-118.64716469299998,49.00007496100005],[-118.65651526799996,49.00007537400006],[-118.66586584199996,49.00007502900007],[-118.67759867699999,49.00006983600008],[-118.68933150999999,49.00006345000003],[-118.69825517599998,49.00006931400003],[-118.70717884399994,49.00007448700006],[-118.71448999399996,49.000077917000056],[-118.72180114399998,49.00008088300007],[-118.73482376699997,49.00007880000004],[-118.74732727499998,49.000078632000054],[-118.75968123099995,49.00008183300008],[-118.76116819199996,49.00008182600004],[-118.76909906399999,49.00008206000007],[-118.77702993599996,49.00008174900006],[-118.78749211699994,49.000091585000064],[-118.79534994299996,49.000086175000035],[-118.80320776699995,49.00008022900005],[-118.81358839599994,49.00008221100006],[-118.82396902599999,49.000083258000075],[-118.83434965599997,49.00008337200006],[-118.84576725699998,49.00008371600006],[-118.857184857,49.000082930000076],[-118.86860245699995,49.000081014000045],[-118.88002005599998,49.000077969000074],[-118.88965896999997,49.00008949800008],[-118.89929788899997,49.00010022200007],[-118.91024652599998,49.000088772000026],[-118.92104379399996,49.00008967500003],[-118.93184106099994,49.00008956800008],[-118.94263832899998,49.00008845100007],[-118.94989401999999,49.000090269000054],[-118.95714971199999,49.00009163100003],[-118.96560294499994,49.000089529000036],[-118.97405617799996,49.00008680700006],[-118.98476306099997,49.000086217000046],[-118.99546994299999,49.000084634000075],[-119.00617682399997,49.00008205700004],[-119.01688370399995,49.00007848600006],[-119.02695993699996,49.00007818900008],[-119.03703617099995,49.000077013000066],[-119.04711240299997,49.00007495600005],[-119.06070448799994,49.00007964300005],[-119.074296576,49.00008272800005],[-119.08780481699995,49.00008838900004],[-119.10131305999994,49.00009246900004],[-119.11047740799995,49.00009206100003],[-119.11964175599996,49.00009092400006],[-119.12880610399998,49.00008906000005],[-119.13838283299998,49.00008825400005],[-119.147959561,49.00008665200005],[-119.15753628799996,49.00008425600004],[-119.17036656599998,49.000112122000075],[-119.18319685799997,49.00013856100003],[-119.19603697199994,49.00008067500005],[-119.20540074799999,49.00008135500008],[-119.21476452399997,49.00008127500007],[-119.22412829999996,49.00008043500003],[-119.23449321999999,49.00008257600007],[-119.24485813999996,49.00008378600006],[-119.25522306099998,49.00008406400008],[-119.26558798199994,49.00008341200004],[-119.27703710499998,49.000086913000075],[-119.28848622799995,49.000089278000075],[-119.29993535299997,49.00009050700004],[-119.31138447799998,49.00009060000008],[-119.32139375899999,49.00009187500007],[-119.33140303999994,49.000092282000026],[-119.34141232099995,49.00009182100007],[-119.35501877599995,49.00009539100006],[-119.36862523299999,49.00009735700007],[-119.38223168999997,49.00009771800006],[-119.39256562199995,49.00009484000003],[-119.40289955299994,49.00009103600007],[-119.41559949099997,49.00008992800008],[-119.42829942799995,49.000087422000036],[-119.42873850399997,49.00008891900006],[-119.43918977899995,49.000089726000056],[-119.44964105399998,49.00008958600006],[-119.46009232899996,49.00008849900007],[-119.47144280099997,49.00009072100005],[-119.48279327499995,49.00009182600007],[-119.49414374799994,49.000091815000076],[-119.50549422099999,49.00009068700007],[-119.51447715999996,49.000098937000075],[-119.52346010099996,49.00010648700004],[-119.53492130199999,49.00010800200005],[-119.54638250299996,49.00010837800005],[-119.55784370399999,49.00010761500005],[-119.56930490399998,49.00010571400003],[-119.58076610299997,49.00010267500005],[-119.59177238799998,49.00010440600005],[-119.60277867399998,49.000105088000055],[-119.61378496099996,49.000104719000035],[-119.62479124599997,49.00010330100008],[-119.63579753099998,49.00010083300003],[-119.64499019299996,49.00010346600004],[-119.65418285599998,49.00010536700006],[-119.66631897099995,49.00010762100004],[-119.67845508699997,49.00010859900004],[-119.69059120299994,49.00010830000008],[-119.70103586799996,49.00010957200004],[-119.71105081799999,49.00011033100003],[-119.72106576899995,49.00011022000007],[-119.73108071899998,49.00010924000003],[-119.744179326,49.00009457200008],[-119.75727792499998,49.000078417000054],[-119.76793902899999,49.00006378900008],[-119.77860012599996,49.00004817700005],[-119.78926121699999,49.00003157900005],[-119.80266285899995,49.00000867300008],[-119.816064488,48.99998421000004],[-119.82946610299996,48.999958191000076],[-119.84286770399996,48.99993061500004],[-119.85500843999995,48.99990463300003],[-119.86714916299997,48.99987737400005],[-119.87928987199996,48.99984883700006],[-119.89089579199998,48.99982052400003],[-119.90250169799998,48.99979104300007],[-119.91410759099995,48.99976039500007],[-119.92571346899996,48.99972857900008],[-119.93731933199996,48.99969559600004],[-119.94532108799996,48.999672962000034],[-119.95702397699995,48.99963708100006],[-119.96872684899995,48.99960001200003],[-119.98042970399996,48.99956175700004],[-119.99146731199994,48.99952600600005],[-120.00250490299999,48.99948919900004],[-120.01344090499998,48.99947274600004],[-120.02437689899995,48.99945525700008],[-120.03728723899997,48.99944721000003],[-120.04812103199998,48.99949346900007],[-120.05895484399997,48.99953871000008],[-120.07175950399994,48.99959314300003],[-120.08456419199996,48.99964615400006],[-120.09610225399996,48.99969104100006],[-120.10764033699996,48.999734774000046],[-120.11917843999998,48.99977735400006],[-120.13071656199998,48.999818779000066],[-120.14225470299999,48.999859051000044],[-120.15544981099998,48.99990383000005],[-120.16864494299995,48.99994710000004],[-120.18184009699996,48.99998886100008],[-120.19254830499995,49.00002258300003],[-120.20325652699995,49.00005531100004],[-120.21396476299998,49.00008704500004],[-120.22467301299997,49.00011778500004],[-120.23643756299998,49.00015001100007],[-120.24820212799995,49.00018103800005],[-120.25996670699999,49.00021086600003],[-120.27173129999994,49.00023949400003],[-120.28349590599998,49.00026692200004],[-120.29399818499996,49.00029038900004],[-120.30450047399995,49.00031290100003],[-120.31500277199996,49.000334456000076],[-120.32550507899998,49.000355056000046],[-120.33654797599996,49.00037477800004],[-120.34759088199996,49.000393443000064],[-120.358653275,49.00041287000005],[-120.36971567599994,49.000431236000054],[-120.38077808599996,49.00044854200007],[-120.39184050199998,49.000464787000055],[-120.40290292599997,49.00047997200005],[-120.41618221099998,49.00049423400003],[-120.42946150399996,49.00050696800008],[-120.44262215999998,49.00051903900004],[-120.45578282199995,49.00052960900007],[-120.46894348899997,49.000538678000055],[-120.48210415999995,49.000546246000056],[-120.49280434699995,49.00055161000006],[-120.50350453499999,49.00055598100005],[-120.51420472499996,49.00055936000007],[-120.52490491699996,49.00056174700006],[-120.53832009399997,49.000564042000065],[-120.55173527199997,49.00056477800007],[-120.55948085299997,49.00056799600003],[-120.57191919099995,49.000519885000074],[-120.58435750399997,49.00047043300003],[-120.59679579299996,49.000419640000075],[-120.60890337499995,49.00036916900007],[-120.62101093299998,49.00031742700003],[-120.63311846499994,49.00026441500006],[-120.64522597099995,49.00021013300005],[-120.65739600299997,49.000155232000054],[-120.66956600799995,49.00009904700005],[-120.67707593999995,49.000097581000034],[-120.68458587199996,49.000095626000075],[-120.69223264299995,49.00011260000008],[-120.69987941899996,49.000129068000035],[-120.71222516899996,49.00015026800003],[-120.72457092799999,49.00017014600007],[-120.73691669799996,49.00018870400004],[-120.74926247599996,49.00020594000006],[-120.76160826199998,49.00022185600005],[-120.77511234099995,49.000239504000035],[-120.78861642899994,49.00025557200007],[-120.80212052499996,49.00027006000005],[-120.81385298899994,49.00027941900004],[-120.82558545799998,49.00028758500008],[-120.83731792999998,49.000294557000075],[-120.84905040499996,49.000300337000056],[-120.86078288299996,49.000304924000034],[-120.87322551699998,49.00030966400004],[-120.88566815299998,49.00031306200003],[-120.89811078999998,49.00031511800006],[-120.91055342799996,49.00031583200007],[-120.921511367,49.00031574900004],[-120.93246930599997,49.000314625000044],[-120.94342724399996,49.00031246100008],[-120.95438518099996,49.00030925600004],[-120.96596839999995,49.000303735000045],[-120.97755161499998,49.000297052000064],[-120.98913482799998,49.00028920500006],[-121.00071803599997,49.00028019600006],[-121.01009034099997,49.00027253600007],[-121.01946264299994,49.00026411400006],[-121.02990808299995,49.000254220000045],[-121.04035351799996,49.000243381000075],[-121.05079894899995,49.00023159600005],[-121.06124437399995,49.00021886500008],[-121.06262408099997,49.000217328000076],[-121.07325289599999,49.00021869400007],[-121.08388171099995,49.00021908100007],[-121.09451052599997,49.000218489000076],[-121.09495096499995,49.00021890100004],[-121.10695582799997,49.00026622200005],[-121.11896071199999,49.000312293000036],[-121.130965619,49.00035711600003],[-121.14297054699995,49.00040068900006],[-121.15497549599996,49.00044301400004],[-121.16806773399998,49.00048931900005],[-121.18115999599996,49.000534138000035],[-121.19425228099999,49.00057747100004],[-121.20564284299996,49.00061983100005],[-121.21703342499995,49.00066106600008],[-121.22842402499998,49.00070117700005],[-121.23981464299999,49.000740163000046],[-121.25120527899998,49.000778025000045],[-121.26280131399994,49.00081015400008],[-121.27439736299999,49.00084111800004],[-121.285993427,49.00087091700004],[-121.29758950399997,49.00089955000004],[-121.30169741799995,49.00089468600004],[-121.31274704299994,49.000902788000076],[-121.32379667199996,49.00090983100006],[-121.33484630299995,49.00091581700008],[-121.34587275799998,49.000768622000066],[-121.35689914699998,49.00062037300006],[-121.36792547099998,49.00047107000006],[-121.37895172799995,49.000320714000054],[-121.39203026799998,49.000136428000076],[-121.40510871099997,48.99995066000008],[-121.41576434599995,48.99994500400004],[-121.42551917299994,48.99991115900008],[-121.43527398599997,48.99987649000008],[-121.44502878599997,48.999840996000046],[-121.454977913,48.99980325900003],[-121.46492702499995,48.999764663000065],[-121.47487612199996,48.999725210000065],[-121.48608293699999,48.99967986200005],[-121.49728973099997,48.99963342500007],[-121.51038587499994,48.99957699300006],[-121.52348199,48.999519074000034],[-121.52699238299999,48.99951245600005],[-121.54030538199999,48.99943356500006],[-121.55361833799998,48.99935313900005],[-121.56693125099997,48.999271176000036],[-121.57844281999996,48.999200176000045],[-121.58995435699995,48.99912802800003],[-121.60146585899997,48.99905473100006],[-121.61297732799994,48.99898028600006],[-121.62156395799997,48.99887842000004],[-121.63015055299996,48.99877591500007],[-121.64269300099994,48.99860910600006],[-121.65523536399996,48.99844093300004],[-121.66777764299997,48.99827139700005],[-121.67999055399997,48.99811331800004],[-121.69220338699995,48.99795394700004],[-121.70441614199996,48.99779328300008],[-121.71662881799995,48.99763132600003],[-121.72884141499998,48.997468077000065],[-121.74105393099995,48.99730353500007],[-121.75071264399998,48.997302139000055],[-121.75956015399998,48.99730349600003],[-121.77220213799995,48.99751247200004],[-121.78484422699995,48.99772006300003],[-121.79748641999998,48.99792626900006],[-121.81012871799999,48.998131089000026],[-121.82362883999997,48.998348546000045],[-121.83712907799998,48.99856442300006],[-121.850629433,48.998778721000065],[-121.86274646399994,48.998969558000056],[-121.87486358599995,48.99915912300003],[-121.88698080099999,48.999347415000045],[-121.89909810599994,48.999534434000054],[-121.91121550199995,48.99972018100004],[-121.92333298799997,48.99990465500008],[-121.93545056299996,49.00008785700004],[-121.94749047699997,49.000268058000074],[-121.95953047799998,49.000447002000044],[-121.97157056399999,49.00062469000005],[-121.98356206199998,49.00080010700003],[-121.99555364399998,49.00097427700007],[-122.00754530999995,49.00114720100004],[-122.01953705799997,49.00131887900005],[-122.02847077099995,49.00144569200006],[-122.03890997199994,49.00159507500007],[-122.04934923599995,49.001743514000054],[-122.05978856099995,49.00189100800003],[-122.07254229499995,49.00206810900005],[-122.08529611899996,49.00224380100008],[-122.09805003299999,49.002418083000066],[-122.10983410299997,49.00242938200006],[-122.11849839399997,49.002429722000045],[-122.12716268499997,49.00242941100004],[-122.14081227599996,49.002430824000044],[-122.14817129,49.00243083600003],[-122.16148497799998,49.00243086000006],[-122.17364960799995,49.002433128000064],[-122.18581423899997,49.00243411400004],[-122.19351270099997,49.00243598800006],[-122.20121116399997,49.00243734900005],[-122.20847880099996,49.00243825000007],[-122.21574643899999,49.002438694000034],[-122.22326426299998,49.00243492800007],[-122.23078208599998,49.00243067200006],[-122.23330295399995,49.002430504000074],[-122.24255558899995,49.00242528700005],[-122.25180822199997,49.00241932800003],[-122.26480861499999,49.00241119000003],[-122.26531317099995,49.00241118500003],[-122.26956300799998,49.002407840000046],[-122.27008049999995,49.00239910000005],[-122.28179328099998,49.00239496800003],[-122.29350605999997,49.00238964700003],[-122.30636109999995,49.00238057900003],[-122.31921613499998,49.00237007800007],[-122.32882903399997,49.00236635700003],[-122.33844193199997,49.002361835000045],[-122.35117407399997,49.00235042200006],[-122.36085531799995,49.002343747000054],[-122.37187552099999,49.00233621000007],[-122.38289572099995,49.00232762100006],[-122.39217478999996,49.002320944000076],[-122.40490695799997,49.00231615400003],[-122.41573810199998,49.00231488000003],[-122.42656924599999,49.00231258900004],[-122.43816512799998,49.00230575000006],[-122.45086481599998,49.00229671800008],[-122.46356449799998,49.00228628900004],[-122.47626417499998,49.00227446200006],[-122.48503228599998,49.002269589000036],[-122.49696419299994,49.002258039000026],[-122.50604023899996,49.00225269200007],[-122.51511628299994,49.00224663200004],[-122.52376582099998,49.00224017800008],[-122.53180739399994,49.00223330700004],[-122.53984896499998,49.00222587600007],[-122.54947644499998,49.00221842000008],[-122.55910392099997,49.00221016000006],[-122.56954463999995,49.002203490000056],[-122.57998535599995,49.00219587500004],[-122.59106407399997,49.00218445300004],[-122.60214278699999,49.00217196800003],[-122.61369276799996,49.00216689300004],[-122.62524274599997,49.00216066200005],[-122.63268166499995,49.00215594700006],[-122.64012058199995,49.00215075300008],[-122.64719584,49.00214605100007],[-122.65813580099996,49.00213760100007],[-122.66907575799996,49.00212811400007],[-122.68009997299998,49.002123002000076],[-122.69112418599997,49.002116837000074],[-122.70255736599995,49.00211107200005],[-122.71399054299997,49.002104175000056],[-122.72224535699996,49.00209930300008],[-122.73050016899998,49.00209384000004],[-122.735093485,49.00209341100003],[-122.73607493199995,49.00209330800004],[-122.74568926799998,49.00209034800008],[-122.75530360299996,49.002086586000075],[-122.75589010999994,49.002086201000054],[-122.75694812899997,49.002086192000036],[-122.75713932899998,49.00208619000006],[-122.75726147599994,49.00208618900007],[-122.77054622099996,49.00210124100005],[-122.78383097399995,49.002114764000055],[-122.79711573299994,49.00212675800003],[-122.81040049899997,49.002137221000055],[-122.82368526899995,49.00214615600004],[-122.83697004399994,49.00215356000007],[-122.85025482199995,49.002159436000056],[-122.86353960399998,49.002163781000036],[-122.87682438699994,49.00216659700004],[-122.89010917099995,49.00216788400007],[-122.90339395499996,49.00216764100003],[-122.91667873899996,49.00216586800008],[-122.92996352199998,49.00216256600004],[-122.94324830199997,49.002157735000026],[-122.95653307999999,49.00215137300006],[-122.969817853,49.002143483000054],[-122.98310262199999,49.00213406200004],[-122.99638738599998,49.00212311300004],[-123.00967214299999,49.00211063300003],[-123.02295689399995,49.002096624000046],[-123.03624163599994,49.00208108600003],[-123.03791180299999,49.00207968600006],[-123.03815748899996,49.00207968500007],[-123.04973863599997,49.00207525900004],[-123.06131978099995,49.00206967100007],[-123.06804174399997,49.00206824700007],[-123.07530538599997,49.00206490700003],[-123.08232804499994,49.002061782000055],[-123.08935070399997,49.002058229000056],[-123.09069954599994,49.00205821900005],[-180,49.00205821900005],[-180,0]]]}}
