{"type":"Feature","geometry":{"type":"MultiPolygon","coordinates":[[[[-121.519388,46.349593],[-121.517982,46.348308],[-121.514928,46.34631],[-121.510372,46.34313],[-121.50732,46.340726],[-121.508398,46.336013],[-121.507676,46.333282],[-121.505597,46.329875],[-121.503858,46.325331],[-121.50118,46.321061],[-121.500381,46.319923],[-121.498696,46.317987],[-121.497263,46.315581],[-121.494467,46.312657],[-121.491191,46.309359],[-121.487775,46.305386],[-121.484744,46.302021],[-121.482529,46.299283],[-121.479828,46.296367],[-121.478964,46.295046],[-121.478681,46.294634],[-121.476744,46.292376],[-121.476522,46.292059],[-121.474602,46.288651],[-121.474286,46.286707],[-121.473781,46.284641],[-121.473702,46.280879],[-121.473713,46.280524],[-121.474855,46.276881],[-121.476378,46.2736],[-121.476831,46.272974],[-121.47747,46.269958],[-121.477538,46.269799],[-121.477772,46.26632],[-121.478548,46.262521],[-121.477192,46.258376],[-121.472729,46.252407],[-121.469716,46.249758],[-121.468561,46.247445],[-121.46601,46.244569],[-121.464364,46.24234],[-121.462458,46.239648],[-121.46294,46.236673],[-121.4634925,46.2326991],[-121.4646292,46.2306669],[-121.4650414,46.2301215],[-121.4656076,46.229373],[-121.4645381,46.2275545],[-121.4631928,46.2251832],[-121.4652023,46.2241317],[-121.4679128,46.2228214],[-121.468792,46.2202792],[-121.4710772,46.2187129],[-121.4722252,46.217874],[-121.4754599,46.2162594],[-121.4760822,46.2159513],[-121.4765704,46.2158177],[-121.4772093,46.2156193],[-121.4779705,46.2154242],[-121.4787054,46.2152312],[-121.4795959,46.2149899],[-121.4801431,46.2148303],[-121.4815486,46.2144666],[-121.4820689,46.2141696],[-121.482439,46.2139246],[-121.4829969,46.2135794],[-121.4835066,46.2132527],[-121.4852178,46.2121948],[-121.486221,46.2113855],[-121.4868325,46.2109141],[-121.488356,46.2097076],[-121.4895469,46.2081447],[-121.490432,46.2070198],[-121.4907539,46.2055423],[-121.4910007,46.204332],[-121.4908826,46.2030028],[-121.4908505,46.202431],[-121.4908397,46.2020746],[-121.490196,46.2010165],[-121.4895737,46.2000325],[-121.4892894,46.1996018],[-121.4889407,46.1991451],[-121.4879912,46.1983543],[-121.4867896,46.1973963],[-121.486119,46.1968802],[-121.4861888,46.1965311],[-121.4863443,46.1956845],[-121.486339,46.1954617],[-121.4874494,46.1944034],[-121.4875035,46.1941033],[-121.4875567,46.1931669],[-121.4876747,46.1925876],[-121.4877498,46.1921977],[-121.4875031,46.1918412],[-121.4866018,46.1911059],[-121.4854324,46.1907123],[-121.4850301,46.1903],[-121.4848799,46.1900104],[-121.484617,46.1895833],[-121.4843335,46.1890888],[-121.4839464,46.1884024],[-121.4837748,46.188109],[-121.4835924,46.1877005],[-121.4833747,46.1872252],[-121.4833134,46.1870914],[-121.4827448,46.1859215],[-121.4825624,46.1848408],[-121.4824647,46.1841569],[-121.482321,46.1831509],[-121.4820957,46.1815427],[-121.4815325,46.180889],[-121.4812803,46.1801238],[-121.4809156,46.1793698],[-121.4802718,46.1785973],[-121.4792097,46.1782555],[-121.4788288,46.1778618],[-121.478641,46.1773046],[-121.4774072,46.1759748],[-121.4773643,46.1748159],[-121.4764524,46.1732557],[-121.4761841,46.172223],[-121.4762056,46.1710788],[-121.4759481,46.169942],[-121.475755,46.1696448],[-121.475122,46.1692882],[-121.4741993,46.1683817],[-121.4734483,46.167869],[-121.4717853,46.1674009],[-121.4701116,46.1664796],[-121.469028,46.1658257],[-121.4686954,46.1655508],[-121.4686418,46.1652535],[-121.4690602,46.1645253],[-121.4692319,46.1638863],[-121.4690709,46.1631729],[-121.4694035,46.1616644],[-121.4692533,46.1600147],[-121.4696181,46.1596209],[-121.4694893,46.1591898],[-121.4679337,46.1580157],[-121.4674731,46.1573634],[-121.4672148,46.1569975],[-121.4669573,46.1559051],[-121.4660722,46.1554183],[-121.4657986,46.1551767],[-121.4651227,46.1549909],[-121.4644897,46.1545153],[-121.4642859,46.1539728],[-121.4644575,46.1530735],[-121.4638782,46.1522113],[-121.4634123,46.1516915],[-121.4633524,46.1513529],[-121.4635026,46.1510314],[-121.4631593,46.1505093],[-121.4618182,46.1501377],[-121.4597667,46.1481429],[-121.4592759,46.1476946],[-121.4587424,46.1472033],[-121.4585778,46.1460345],[-121.4572389,46.1451862],[-121.4577407,46.1435883],[-121.4570546,46.1411434],[-121.4560086,46.1401213],[-121.4547372,46.1395972],[-121.4521945,46.1346979],[-121.4507568,46.133486],[-121.4500243,46.1319308],[-121.4497483,46.1313448],[-121.4481068,46.1290547],[-121.4467871,46.1279394],[-121.4461005,46.1248535],[-121.4451349,46.1235596],[-121.4442015,46.1231655],[-121.443665,46.121998],[-121.442281,46.120466],[-121.4415407,46.1182053],[-121.440602,46.1170637],[-121.4397919,46.1167848],[-121.4387727,46.1168592],[-121.4380163,46.1167588],[-121.437496,46.1165208],[-121.4371848,46.1151449],[-121.436879,46.1142078],[-121.4357686,46.1124711],[-121.4337033,46.1110765],[-121.4339715,46.1106153],[-121.4343041,46.1099608],[-121.4345992,46.1094848],[-121.4352429,46.1082723],[-121.4353073,46.1069557],[-121.4342558,46.1064388],[-121.4337087,46.1052002],[-121.4330542,46.1045196],[-121.4320564,46.1042369],[-121.4315371,46.1034769],[-121.4312462,46.1030285],[-121.4315937,46.1029779],[-121.4329053,46.1030439],[-121.4337878,46.1032494],[-121.4342196,46.1032531],[-121.4342277,46.1031415],[-121.4339621,46.1028598],[-121.4316233,46.1012139],[-121.4316313,46.1008968],[-121.431414,46.1007396],[-121.431579,46.0992862],[-121.4323684,46.0976848],[-121.4321074,46.0954138],[-121.430887,46.0947553],[-121.4292294,46.0934942],[-121.4283067,46.0925456],[-121.4280354,46.0915561],[-121.429,46.090108],[-121.429591,46.088873],[-121.430051,46.088553],[-121.430117,46.088416],[-121.429953,46.087913],[-121.429195,46.087434],[-121.429265,46.087422],[-121.430207,46.086941],[-121.431552,46.086135],[-121.433444,46.084136],[-121.43459,46.082555],[-121.434255,46.081645],[-121.432598,46.079334],[-121.431406,46.078237],[-121.431801,46.077531],[-121.432415,46.07652],[-121.433538,46.076244],[-121.434773,46.076572],[-121.436719,46.076213],[-121.436567,46.075474],[-121.436138,46.074495],[-121.436035,46.072853],[-121.436066,46.071416],[-121.434946,46.070756],[-121.432711,46.071108],[-121.430299,46.070286],[-121.428757,46.068546],[-121.427111,46.065164],[-121.425245,46.063183],[-121.425656,46.062724],[-121.426114,46.061396],[-121.426716,46.060071],[-121.4273078,46.0581111],[-121.4268208,46.0561835],[-121.425426,46.0540616],[-121.4232588,46.0538754],[-121.4232695,46.0523118],[-121.4246581,46.0504597],[-121.4255655,46.0440985],[-121.4254153,46.0437559],[-121.4248252,46.0411122],[-121.4247286,46.0379172],[-121.4240849,46.036085],[-121.4234519,46.0333292],[-121.4229691,46.0317799],[-121.423409,46.0306551],[-121.4227224,46.0289493],[-121.4219499,46.0276904],[-121.4211238,46.025992],[-121.4194608,46.0252173],[-121.4189673,46.0246213],[-121.4180338,46.0231463],[-121.4174759,46.0219245],[-121.4173687,46.0214552],[-121.4173901,46.0196522],[-121.4165104,46.018706],[-121.4164031,46.0148541],[-121.4162529,46.0141239],[-121.4164138,46.0128125],[-121.417197,46.011583],[-121.4192355,46.0090495],[-121.421628,46.0067469],[-121.4234412,46.0046976],[-121.4276576,46.0003453],[-121.4302406,45.9980982],[-121.4304391,45.997433],[-121.4336014,45.9948989],[-121.4361602,45.9919677],[-121.4390355,45.9877896],[-121.4407977,45.9850071],[-121.4420289,45.9826308],[-121.4439493,45.9745413],[-121.4444777,45.9694671],[-121.4447755,45.9672784],[-121.4451456,45.9646534],[-121.4456123,45.9614913],[-121.4462614,45.9598579],[-121.4463741,45.9592687],[-121.4474148,45.9576689],[-121.4492655,45.9556438],[-121.4509177,45.9539879],[-121.4524627,45.9521418],[-121.452409,45.9485537],[-121.4513227,45.9464034],[-121.4515936,45.9461964],[-121.4514005,45.9452695],[-121.4521059,45.9451576],[-121.4541525,45.9449729],[-121.4557645,45.9437047],[-121.4547372,45.9428915],[-121.452983,45.9416679],[-121.4508694,45.9395453],[-121.4496893,45.9375644],[-121.4492494,45.9354379],[-121.4507246,45.9347178],[-121.4512557,45.9333598],[-121.4500111,45.9304011],[-121.4485145,45.9285579],[-121.4495552,45.9255243],[-121.4508587,45.9236884],[-121.4529616,45.9235428],[-121.452806,45.9206471],[-121.4524144,45.9192514],[-121.4535677,45.9166091],[-121.453321,45.9149558],[-121.4526558,45.9132241],[-121.4522481,45.9114437],[-121.4506549,45.911175],[-121.452055,45.9103203],[-121.4476776,45.9085249],[-121.4332259,45.9015147],[-121.4317131,45.9009248],[-121.4294486,45.8999691],[-121.422953,45.8967361],[-121.4177603,45.8943691],[-121.414673,45.892969],[-121.4140105,45.892871],[-121.4133668,45.8926741],[-121.4115322,45.8916361],[-121.4101857,45.8906541],[-121.4025521,45.8867372],[-121.4017475,45.8863788],[-121.4009857,45.8861696],[-121.3983089,45.8859941],[-121.3947147,45.8864609],[-121.3925099,45.8870285],[-121.3916677,45.8873869],[-121.3907182,45.8880143],[-121.3835407,45.8917556],[-121.3825536,45.8920244],[-121.348157,45.9100777],[-121.3432861,45.9127799],[-121.3358188,45.9171092],[-121.3348747,45.9173182],[-121.3285876,45.9230503],[-121.3270426,45.9252743],[-121.3251329,45.9253788],[-121.3226223,45.9249758],[-121.3144899,45.9228562],[-121.3123656,45.9229159],[-121.3115072,45.9248265],[-121.3091898,45.9252444],[-121.305778,45.9267445],[-121.3027954,45.9282743],[-121.2996948,45.9304384],[-121.2939119,45.9388104],[-121.292721,45.9406458],[-121.2872386,45.9469126],[-121.2843418,45.9479122],[-121.28196,45.9497622],[-121.2775612,45.9469872],[-121.2728834,45.9450774],[-121.2694502,45.9446447],[-121.2679911,45.94645],[-121.264751,45.9486582],[-121.2605667,45.9494788],[-121.2577343,45.9519404],[-121.2577129,45.9529623],[-121.2570477,45.9538872],[-121.2555671,45.9548047],[-121.2543655,45.9559385],[-121.2535072,45.9572512],[-121.2511897,45.9590562],[-121.2511897,45.958191],[-121.2494731,45.9597423],[-121.2465763,45.9617709],[-121.2446451,45.9628598],[-121.2409759,45.9642171],[-121.238637,45.9660368],[-121.2353754,45.9671106],[-121.2330151,45.967215],[-121.2304831,45.9679906],[-121.2288094,45.9688407],[-121.2267924,45.9703619],[-121.2265241,45.9706937],[-121.2245822,45.9715177],[-121.2245929,45.9729345],[-121.2244535,45.9734788],[-121.2231714,45.9737547],[-121.2214279,45.9742468],[-121.2208217,45.9744071],[-121.2203175,45.9746122],[-121.2199956,45.9746979],[-121.2182736,45.9749104],[-121.217528,45.9759245],[-121.2165034,45.9770988],[-121.2146795,45.9779748],[-121.2109244,45.978959],[-121.2064827,45.9802414],[-121.2014079,45.9822133],[-121.1985862,45.9845021],[-121.1973792,45.986664],[-121.194579,45.9875585],[-121.1921221,45.987115],[-121.189912,45.9874765],[-121.1868006,45.987443],[-121.183303,45.9861831],[-121.1795425,45.9861048],[-121.1748701,45.9863397],[-121.1708254,45.9860415],[-121.1684543,45.9863844],[-121.1651874,45.9872268],[-121.1608315,45.9858477],[-121.1571461,45.9839802],[-121.1387515,45.9858514],[-121.126172,45.9879909],[-121.1261988,45.9870069],[-121.1259359,45.9869957],[-121.1196649,45.9871671],[-121.1079705,45.9882331],[-121.0905361,45.9900893],[-121.0863304,45.9905812],[-121.0847104,45.9908794],[-121.0830367,45.990857],[-121.0804081,45.9903651],[-121.0744643,45.9898806],[-121.0707951,45.9898656],[-121.0678554,45.9902234],[-121.0659886,45.9906632],[-121.063242,45.9910881],[-121.0601091,45.991923],[-121.0568583,45.9932945],[-121.0534036,45.9941219],[-121.0472667,45.9946212],[-121.0423529,45.9963505],[-121.0393059,45.9968349],[-121.0375142,45.9967306],[-121.0351217,45.9963132],[-121.0336304,45.9968573],[-121.0321283,45.9970809],[-121.0296393,45.9936597],[-121.0270751,45.9922882],[-121.0248971,45.9922211],[-121.022172,45.9926684],[-121.0208845,45.9936672],[-121.0180307,45.9934585],[-121.0159707,45.9936374],[-121.0093939,45.9955977],[-121.0078168,45.9945094],[-121.0052419,45.9945914],[-121.0039008,45.9959107],[-121.0011703,45.9971293],[-120.9942287,45.9982212],[-120.9864986,45.9992945],[-120.9790313,46.0033189],[-120.9761989,46.0018582],[-120.9666503,46.0017613],[-120.959301,46.0048392],[-120.9578204,46.004094],[-120.9537006,46.0044964],[-120.951426,46.003386],[-120.9483898,46.0034829],[-120.9462118,46.0033785],[-120.9422422,46.0034754],[-120.9386051,46.0033934],[-120.9306014,46.0033785],[-120.9267283,46.0059421],[-120.9204948,46.0064377],[-120.9154791,46.00801],[-120.9092456,46.0073692],[-120.9087521,46.0054279],[-120.9030873,46.0043324],[-120.9007967,46.0088409],[-120.8874608,46.0118066],[-120.8847571,46.0140419],[-120.8805085,46.0189892],[-120.8542014,46.0141015],[-120.8428717,46.0031624],[-120.8403826,45.9975877],[-120.8235598,45.9942188],[-120.8218432,45.9947554],[-120.8215428,46.0001218],[-120.8201266,46.0052789],[-120.8178521,46.0088558],[-120.8106423,46.0108528],[-120.804205,46.0092433],[-120.7933474,46.0076337],[-120.7876826,46.0048616],[-120.7650662,46.0016421],[-120.7452929,46.0040194],[-120.7439625,46.0043399],[-120.7391775,46.0045485],[-120.7269574,46.0031028],[-120.7141257,46.001344],[-120.7038689,45.999764],[-120.6971312,45.9971107],[-120.6882906,45.996902],[-120.6767786,45.9950312],[-120.6747079,45.9949716],[-120.6718648,45.9940995],[-120.6701052,45.9930038],[-120.6664145,45.9917068],[-120.6627238,45.9911478],[-120.6597412,45.9895898],[-120.6571877,45.9886133],[-120.6558359,45.9869882],[-120.6525421,45.9845952],[-120.6479502,45.98423],[-120.6460083,45.9837081],[-120.6420493,45.9834024],[-120.6393027,45.9827837],[-120.6360412,45.9832012],[-120.6329513,45.9854376],[-120.6297433,45.9858328],[-120.6264389,45.9862577],[-120.6247544,45.9865782],[-120.6223619,45.9872268],[-120.6208706,45.9879275],[-120.6160641,45.9904545],[-120.6143689,45.9930112],[-120.6107855,45.9950312],[-120.5935765,45.9935032],[-120.5858517,45.9920124],[-120.5801272,45.9910963],[-120.5782128,45.99079],[-120.5405975,45.9895377],[-120.5291449,45.9880247],[-120.5162215,45.9863173],[-120.5011153,45.987197],[-120.4835201,45.9921168],[-120.4770398,45.9923404],[-120.4697871,45.9925342],[-120.4619336,45.9937715],[-120.4623842,45.9962014],[-120.4624486,45.9996895],[-120.4636418,46.0060721],[-120.4646158,46.0101077],[-120.4557753,46.0189892],[-120.4467631,46.0179014],[-120.4406047,46.0170818],[-120.4203272,46.020509],[-120.408504,46.0224013],[-120.3881622,46.02629],[-120.3765106,46.0286588],[-120.360589,46.0327109],[-120.3537655,46.0349752],[-120.3382945,46.0423186],[-120.3310847,46.0413505],[-120.2997995,46.0500036],[-120.2870965,46.0482463],[-120.2767539,46.0535329],[-120.2669049,46.0585362],[-120.2568627,46.0637177],[-120.2510262,46.0666506],[-120.2377868,46.0750765],[-120.2265859,46.0791103],[-120.2134109,46.0840071],[-120.2054286,46.0791401],[-120.2018237,46.0769818],[-120.178628,46.0863139],[-120.1685,46.08618],[-120.1532006,46.1021763],[-120.1413131,46.1008373],[-120.1261425,46.1052858],[-120.1212287,46.1071901],[-120.0975335,46.1285374],[-120.0908002,46.1350945],[-120.087369,46.1379773],[-120.086033,46.139135],[-120.082326,46.142354],[-120.082175,46.142481],[-120.080876,46.14358],[-120.080824,46.143623],[-120.080671,46.143753],[-120.08062,46.143797],[-120.079952,46.144361],[-120.077952,46.146056],[-120.077285,46.146621],[-120.075088,46.148481],[-120.068498,46.154062],[-120.066302,46.155923],[-120.065264,46.156838],[-120.062152,46.159585],[-120.061115,46.160501],[-120.059872,46.161597],[-120.056147,46.164885],[-120.054905,46.165982],[-120.054398,46.166429],[-120.052878,46.167771],[-120.052372,46.168219],[-120.052321,46.168266],[-120.049531,46.17074],[-120.041008,46.178303],[-120.038167,46.180825],[-120.037778,46.181174],[-120.036614,46.182225],[-120.036226,46.182575],[-120.036133,46.182798],[-120.03613,46.182807],[-120.03566,46.183348],[-120.035502,46.183531],[-120.035486,46.183541],[-120.034087,46.184705],[-120.033384,46.185329],[-120.033241,46.185457],[-120.031294,46.187155],[-120.030055,46.188261],[-120.029123,46.189076],[-120.028794,46.189356],[-120.027784,46.190243],[-120.027529,46.190451],[-120.027109,46.19082],[-120.025661,46.192098],[-120.025072,46.192634],[-120.025033,46.192668],[-120.023955,46.193598],[-120.023598,46.193912],[-120.022582,46.194807],[-120.021317,46.1959],[-120.02004,46.196995],[-120.019364,46.197621],[-120.019313,46.197665],[-120.018826,46.198086],[-120.017887,46.198919],[-120.017594,46.199178],[-120.017512,46.199249],[-120.016655,46.199994],[-120.0164471,46.2001648],[-120.016375,46.200224],[-120.01599,46.200542],[-120.015687,46.200793],[-120.0155475,46.200909],[-120.01523,46.201173],[-120.014784,46.201555],[-120.014486,46.201812],[-120.014481,46.201816],[-120.014466,46.201828],[-120.014462,46.201833],[-120.014224,46.202037],[-120.0141746,46.2020801],[-120.0138081,46.2024001],[-120.013138,46.202985],[-120.012462,46.203577],[-120.0123891,46.2036456],[-120.0114139,46.2045015],[-120.011222,46.204677],[-120.00919,46.206467],[-120.008719,46.206883],[-120.00787,46.207624],[-120.007693,46.207778],[-120.007162,46.208241],[-120.006986,46.208396],[-120.006785,46.20857],[-120.006202,46.209076],[-120.006183,46.209092],[-120.005985,46.20927],[-120.00579,46.209444],[-120.005205,46.209966],[-120.00501,46.21014],[-120.004818,46.210313],[-120.0045354,46.2105809],[-120.004242,46.210835],[-120.004051,46.211009],[-120.004008,46.211047],[-120.00388,46.211163],[-120.003838,46.211202],[-120.003762,46.211271],[-120.003683,46.211337],[-120.003211,46.211736],[-120.003055,46.211869],[-120.002982,46.21193],[-120.002766,46.212112],[-120.002694,46.212174],[-120.002571,46.212281],[-120.002201,46.212604],[-120.002079,46.212712],[-120.001984,46.212794],[-120.001701,46.213042],[-120.001607,46.213125],[-120.001497,46.213221],[-120.001168,46.213508],[-120.001059,46.213605],[-120.000864,46.213774],[-120.0005615,46.2140375],[-120.000282,46.214281],[-120.000088,46.214451],[-119.999996,46.214531],[-119.999964,46.214559],[-119.999769,46.214761],[-119.999745,46.214795],[-119.9997,46.214863],[-119.999681,46.214899],[-119.999639,46.215015],[-119.999623,46.215102],[-119.999623,46.215136],[-119.999623,46.215874],[-119.999623,46.216121],[-119.999622,46.216371],[-119.999619,46.217124],[-119.999619,46.217375],[-119.999618,46.217615],[-119.999614,46.218338],[-119.999614,46.218579],[-119.999611,46.219007],[-119.999604,46.220294],[-119.999603,46.220723],[-119.99959,46.222674],[-119.999584,46.223735],[-119.9995896,46.2245335],[-119.999553,46.227158],[-119.999552,46.228527],[-119.999552,46.229146],[-119.999526,46.230479],[-119.999525,46.230508],[-119.999522,46.230569],[-119.999511,46.230839],[-119.999508,46.23093],[-120.001132,46.231046],[-120.004288,46.231369],[-120.006766,46.231624],[-120.008931,46.232676],[-120.013009,46.234632],[-120.017079,46.237183],[-120.017176,46.237334],[-120.018086,46.23875],[-120.018245,46.239308],[-120.01891,46.239317],[-120.020026,46.239091],[-120.020677,46.238749],[-120.022396,46.237845],[-120.035755,46.236371],[-120.040538,46.235844],[-120.041458,46.235511],[-120.045584,46.233604],[-120.047763,46.233699],[-120.048987,46.234577],[-120.049877,46.236014],[-120.051789,46.23769],[-120.053367,46.237961],[-120.055685,46.237704],[-120.058606,46.23793],[-120.060418,46.238623],[-120.061018,46.23925],[-120.060911,46.240133],[-120.060555,46.241143],[-120.060038,46.241643],[-120.058779,46.245609],[-120.059391,46.246237],[-120.060629,46.246977],[-120.061956,46.247167],[-120.063378,46.247245],[-120.066795,46.246974],[-120.069512,46.24605],[-120.070182,46.245823],[-120.071562,46.244554],[-120.072358,46.243713],[-120.074184,46.243254],[-120.075254,46.243549],[-120.075633,46.244922],[-120.075946,46.250567],[-120.0761247,46.2521338],[-120.0758296,46.2523082],[-120.0762588,46.2526939],[-120.0775731,46.2534432],[-120.0785923,46.2539403],[-120.0797778,46.2546895],[-120.0804645,46.2553795],[-120.0809473,46.255743],[-120.081194,46.2558468],[-120.0823581,46.2560026],[-120.0836778,46.2558802],[-120.0844234,46.2556317],[-120.0847989,46.2553609],[-120.0852013,46.2547155],[-120.0851852,46.2539848],[-120.085094,46.2537734],[-120.0846219,46.2533468],[-120.081811,46.2525419],[-120.0813228,46.2522785],[-120.0806415,46.2517332],[-120.079869,46.2507613],[-120.0799066,46.2505944],[-120.0797188,46.2503273],[-120.0796437,46.2498599],[-120.07929,46.249852],[-120.079463,46.248517],[-120.080275,46.246482],[-120.080336,46.24633],[-120.080688,46.244025],[-120.081768,46.242692],[-120.08322,46.242682],[-120.08376,46.243681],[-120.082827,46.245075],[-120.082878,46.247208],[-120.08289,46.247697],[-120.084028,46.249478],[-120.084885,46.249852],[-120.0839809,46.2498488],[-120.0841686,46.2501975],[-120.0847346,46.2503143],[-120.0863841,46.250778],[-120.0871941,46.2512825],[-120.0890395,46.2524677],[-120.0904799,46.2529313],[-120.0932506,46.2533783],[-120.0944871,46.2532689],[-120.0957423,46.2528275],[-120.0963995,46.2521394],[-120.0971022,46.251646],[-120.0980169,46.250305],[-120.0984406,46.2498562],[-120.098011,46.249852],[-120.099027,46.249005],[-120.099153,46.248901],[-120.101351,46.248097],[-120.102629,46.248204],[-120.102769,46.24832],[-120.103787,46.249166],[-120.104194,46.249504],[-120.105382,46.250625],[-120.105251,46.251283],[-120.104345,46.252202],[-120.102745,46.254022],[-120.102522,46.255064],[-120.103739,46.256508],[-120.104638,46.256943],[-120.106674,46.258998],[-120.108012,46.259744],[-120.110314,46.26037],[-120.111084,46.26102],[-120.111494,46.263894],[-120.111418,46.264002],[-120.110743,46.26497],[-120.108937,46.265913],[-120.108081,46.266149],[-120.106797,46.26613],[-120.105614,46.265752],[-120.104229,46.264795],[-120.103776,46.263726],[-120.104057,46.261234],[-120.102369,46.258415],[-120.102026,46.257446],[-120.100685,46.256764],[-120.099021,46.256421],[-120.09742,46.257007],[-120.096332,46.258075],[-120.096188,46.259369],[-120.096752,46.260368],[-120.100482,46.262606],[-120.101417,46.263477],[-120.101874,46.264296],[-120.101992,46.265299],[-120.101226,46.265827],[-120.100012,46.26619],[-120.099051,46.26622],[-120.097676,46.265748],[-120.096007,46.265267],[-120.0939629,46.2651356],[-120.093642,46.265115],[-120.091875,46.265551],[-120.091117,46.266361],[-120.091252,46.267478],[-120.091426,46.267934],[-120.092967,46.269193],[-120.093966,46.270148],[-120.093964,46.270986],[-120.093782,46.271739],[-120.092354,46.276314],[-120.091927,46.276843],[-120.091108,46.277062],[-120.088963,46.27736],[-120.088117,46.277643],[-120.087996,46.27835],[-120.088352,46.278666],[-120.090624,46.279671],[-120.091865,46.28022],[-120.092507,46.28085],[-120.09288,46.281481],[-120.092499,46.283688],[-120.09276,46.285679],[-120.092884,46.286578],[-120.092356,46.288692],[-120.092207,46.289043],[-120.092571,46.289424],[-120.093293,46.289709],[-120.095264,46.290004],[-120.096456,46.290214],[-120.097643,46.290923],[-120.098081,46.291257],[-120.098088,46.291943],[-120.097974,46.292319],[-120.095928,46.292941],[-120.0958267,46.2929791],[-120.095,46.29329],[-120.094796,46.293314],[-120.094699,46.293578],[-120.094606,46.293994],[-120.094496,46.294693],[-120.0948597,46.2951781],[-120.094996,46.29536],[-120.0951344,46.2955037],[-120.095769,46.296163],[-120.096918,46.29671],[-120.097701,46.29694],[-120.098616,46.297078],[-120.099183,46.29698],[-120.100441,46.296434],[-120.101484,46.295738],[-120.101523,46.295713],[-120.101904,46.294352],[-120.101923,46.293191],[-120.103015,46.292495],[-120.104725,46.292428],[-120.105824,46.293054],[-120.106053,46.293544],[-120.105971,46.294582],[-120.106002,46.295688],[-120.105746,46.297544],[-120.109157,46.300047],[-120.111606,46.301419],[-120.113347,46.301643],[-120.113822,46.301116],[-120.113751,46.300485],[-120.113432,46.299501],[-120.111806,46.297884],[-120.111451,46.296714],[-120.112122,46.295998],[-120.113761,46.295752],[-120.114224,46.296083],[-120.114897,46.296564],[-120.11846,46.297854],[-120.12202,46.297546],[-120.123546,46.298008],[-120.124618,46.299025],[-120.124701,46.299104],[-120.125395,46.300314],[-120.125495,46.301457],[-120.125133,46.302599],[-120.125112,46.30318],[-120.125101,46.30349],[-120.1253,46.303878],[-120.125759,46.304449],[-120.1258153,46.304925],[-120.1257774,46.3061643],[-120.1248416,46.3074903],[-120.1245476,46.3086777],[-120.1245684,46.309036],[-120.1245798,46.30925],[-120.1248148,46.3096145],[-120.1256838,46.3102037],[-120.1261613,46.3102797],[-120.126158,46.304585],[-120.127906,46.305155],[-120.128664,46.305658],[-120.128677,46.305673],[-120.12919,46.306252],[-120.129783,46.307098],[-120.130703,46.309155],[-120.131789,46.311051],[-120.133195,46.31256],[-120.133535,46.312926],[-120.13544,46.314161],[-120.135503,46.314202],[-120.135545,46.314229],[-120.135568,46.314404],[-120.135578,46.31448],[-120.136303,46.31512],[-120.137126,46.315646],[-120.138116,46.315578],[-120.138577,46.315395],[-120.139072,46.314984],[-120.139733,46.313934],[-120.140129,46.312997],[-120.140492,46.312495],[-120.140738,46.312361],[-120.140954,46.312244],[-120.141779,46.312084],[-120.142537,46.312085],[-120.143888,46.312405],[-120.144679,46.313022],[-120.144975,46.313434],[-120.145041,46.313845],[-120.144908,46.31501],[-120.144677,46.315627],[-120.144709,46.316632],[-120.145235,46.317683],[-120.146059,46.318414],[-120.147147,46.319146],[-120.148333,46.319443],[-120.1492175,46.3194685],[-120.1498291,46.3192962],[-120.1502502,46.319085],[-120.1505533,46.3184219],[-120.1505184,46.3179865],[-120.1498479,46.3169399],[-120.1497138,46.3164304],[-120.1497808,46.3158598],[-120.1503038,46.3154819],[-120.1508403,46.3153282],[-120.1519239,46.3152392],[-120.1530102,46.3155041],[-120.1537666,46.3157042],[-120.1549172,46.3161952],[-120.1558721,46.3168861],[-120.1581319,46.3175077],[-120.1596755,46.3181658],[-120.1604667,46.3191276],[-120.1605096,46.3193073],[-120.160765,46.319653],[-120.160831,46.319859],[-120.161069,46.32018],[-120.161438,46.320679],[-120.161457,46.320704],[-120.162347,46.321573],[-120.162649,46.321737],[-120.164028,46.322487],[-120.166863,46.323561],[-120.16709,46.323678],[-120.168281,46.324293],[-120.168545,46.324384],[-120.168578,46.324498],[-120.170094,46.325824],[-120.170166,46.325901],[-120.171577,46.3274],[-120.174314,46.329731],[-120.175311,46.330096],[-120.176557,46.330553],[-120.177388,46.33093],[-120.178217,46.331306],[-120.17847,46.331421],[-120.180152,46.331856],[-120.180866,46.331941],[-120.18091,46.331947],[-120.181207,46.331879],[-120.1817715,46.3319256],[-120.1828272,46.3315375],[-120.1839039,46.3309987],[-120.1844108,46.3308783],[-120.1848185,46.3304079],[-120.1857761,46.3295022],[-120.1867577,46.3285854],[-120.1879004,46.3274945],[-120.1883349,46.3273574],[-120.1895633,46.327476],[-120.1902875,46.3278112],[-120.1918164,46.3288317],[-120.1925164,46.3294133],[-120.1938066,46.3304838],[-120.1943055,46.3311431],[-120.1943269,46.3313265],[-120.1944315,46.3313802],[-120.1944396,46.3315172],[-120.1945093,46.3315543],[-120.1947051,46.332108],[-120.194799,46.3321803],[-120.194858,46.3326321],[-120.1950029,46.3327562],[-120.195113,46.333021],[-120.195264,46.333356],[-120.19572,46.334362],[-120.195872,46.334698],[-120.195898,46.33476],[-120.195978,46.334946],[-120.196005,46.335009],[-120.196058,46.335128],[-120.196125,46.335278],[-120.196163,46.335505],[-120.196186,46.335635],[-120.196506,46.336016],[-120.19652,46.336033],[-120.196563,46.336291],[-120.197293,46.337259],[-120.197594,46.337657],[-120.197741,46.337852],[-120.198158,46.338201],[-120.199134,46.33902],[-120.199868,46.339829],[-120.200399,46.340413],[-120.200782,46.341789],[-120.201295,46.343628],[-120.20245,46.344562],[-120.20327,46.344914],[-120.204198,46.345313],[-120.20456,46.345526],[-120.205045,46.345812],[-120.206442,46.346637],[-120.206511,46.346647],[-120.2070328,46.3467239],[-120.207069,46.346729],[-120.207102,46.346843],[-120.207487,46.346952],[-120.207663,46.347003],[-120.208685,46.346866],[-120.209015,46.346771],[-120.2095176,46.3466277],[-120.2107474,46.3462722],[-120.2124399,46.3460333],[-120.2132687,46.3462722],[-120.2140117,46.3466573],[-120.2144355,46.3470646],[-120.214693,46.3474331],[-120.2149639,46.3482996],[-120.2153072,46.348855],[-120.2162647,46.3495604],[-120.2176246,46.3500436],[-120.2199045,46.3506157],[-120.2207521,46.3509323],[-120.2210592,46.3512053],[-120.2211852,46.3513914],[-120.2215004,46.3518931],[-120.2221522,46.3528206],[-120.2222782,46.3534019],[-120.2221924,46.3534445],[-120.2222836,46.3540888],[-120.2224875,46.3542146],[-120.2228952,46.3547552],[-120.2238822,46.3552847],[-120.2246225,46.355255],[-120.2253842,46.3550181],[-120.2254808,46.3549551],[-120.2260441,46.3548515],[-120.2265751,46.3548959],[-120.2272403,46.3550958],[-120.2275944,46.3553106],[-120.2275461,46.3557993],[-120.227074,46.3565731],[-120.2266342,46.3568545],[-120.2264357,46.3569989],[-120.2255827,46.357806],[-120.2250624,46.3578467],[-120.2241075,46.3577578],[-120.2241182,46.3576134],[-120.2237266,46.3573432],[-120.2234155,46.357184],[-120.2226859,46.3572913],[-120.22201,46.3576282],[-120.221436,46.3584909],[-120.2213556,46.3602827],[-120.2216774,46.3606937],[-120.2230132,46.3611971],[-120.224601,46.3626742],[-120.2248746,46.3632406],[-120.224821,46.3637552],[-120.2242631,46.3650175],[-120.2242577,46.3659392],[-120.2246654,46.3667425],[-120.2246708,46.3675643],[-120.2245152,46.3679899],[-120.2232103,46.3699194],[-120.2227858,46.3702368],[-120.22236,46.3703732],[-120.2223594,46.3704644],[-120.2222286,46.3705093],[-120.2222595,46.3707568],[-120.2229461,46.3714971],[-120.2233779,46.3722003],[-120.2235872,46.3728592],[-120.2235308,46.3738141],[-120.2230266,46.3753556],[-120.2230963,46.3761162],[-120.2234464,46.376763],[-120.2243328,46.3783793],[-120.2248166,46.3787282],[-120.2250624,46.3789048],[-120.2264249,46.3792157],[-120.227015,46.3794266],[-120.2276862,46.3800863],[-120.2280497,46.3809134],[-120.2288751,46.3819894],[-120.2294022,46.3823021],[-120.2296369,46.3826009],[-120.2301304,46.3828738],[-120.2301666,46.3831495],[-120.2316754,46.3842874],[-120.2322145,46.3844983],[-120.2328394,46.3845418],[-120.2329427,46.3846325],[-120.2350321,46.3848573],[-120.2358449,46.3850775],[-120.2364457,46.3850775],[-120.2374595,46.3848295],[-120.2377439,46.384626],[-120.2381462,46.384082],[-120.2382267,46.383564],[-120.2378458,46.3827017],[-120.2378136,46.3821688],[-120.2383339,46.381784],[-120.2393854,46.3815064],[-120.2405602,46.3815471],[-120.2418101,46.3820467],[-120.2424538,46.382439],[-120.2435482,46.3834122],[-120.2438754,46.3844151],[-120.2437842,46.3858767],[-120.2441222,46.3871311],[-120.2455652,46.3893957],[-120.2469224,46.3909756],[-120.2479255,46.3918007],[-120.2487516,46.3921004],[-120.2502711,46.392537],[-120.2510275,46.392857],[-120.2516001,46.3930716],[-120.2517195,46.3941917],[-120.2521205,46.3947236],[-120.2524182,46.3948327],[-120.2539464,46.3950413],[-120.255421,46.3953877],[-120.2559453,46.3953895],[-120.2566695,46.3956189],[-120.2573186,46.3952527],[-120.2575386,46.3949937],[-120.258252,46.3949197],[-120.2586758,46.3951121],[-120.260033,46.3960259],[-120.2601349,46.3966918],[-120.2611703,46.3974022],[-120.2617818,46.3975538],[-120.2630425,46.3975168],[-120.2640992,46.3972579],[-120.2647805,46.3969138],[-120.2652767,46.396529],[-120.2657877,46.3959861],[-120.2658695,46.3957003],[-120.2655557,46.395101],[-120.2655208,46.3946847],[-120.2657917,46.3940946],[-120.2662048,46.393843],[-120.2667788,46.3936913],[-120.2674198,46.393351],[-120.2679858,46.3933565],[-120.2686805,46.3935101],[-120.2691552,46.3937172],[-120.2697426,46.3941113],[-120.2701208,46.3945849],[-120.2703756,46.3953137],[-120.2710944,46.3959149],[-120.2715853,46.3960925],[-120.2721486,46.3961887],[-120.2734665,46.396192],[-120.2736238,46.3961924],[-120.2742407,46.3963681],[-120.2750695,46.3970636],[-120.2756998,46.3973115],[-120.2778751,46.3977721],[-120.2793986,46.3978313],[-120.2802247,46.3980644],[-120.2810347,46.3988857],[-120.2816087,46.399115],[-120.2815175,46.3992371],[-120.2817911,46.3994517],[-120.2818769,46.3996108],[-120.2824348,46.3997883],[-120.2833253,46.4002027],[-120.2839959,46.4007983],[-120.2840388,46.4011497],[-120.2844304,46.4015159],[-120.2853209,46.4020412],[-120.2882123,46.403003],[-120.2893013,46.403791],[-120.2898055,46.4049229],[-120.2899209,46.4055832],[-120.2901623,46.4056609],[-120.2905431,46.4059753],[-120.2913237,46.4061584],[-120.2930054,46.406826],[-120.2942982,46.4070924],[-120.2950439,46.4071127],[-120.295693,46.4069684],[-120.2962348,46.406617],[-120.2970582,46.4056424],[-120.297879,46.4051004],[-120.2980185,46.4046196],[-120.2980372,46.403926],[-120.2984315,46.4035302],[-120.2991343,46.4033841],[-120.300301,46.4035172],[-120.3017789,46.4036892],[-120.3046462,46.4037105],[-120.3052597,46.4037221],[-120.3058686,46.4037313],[-120.3088599,46.4037096],[-120.3098685,46.4038502],[-120.310311,46.4042866],[-120.3099959,46.4045012],[-120.3097974,46.404491],[-120.3094044,46.4043801],[-120.3088117,46.4041646],[-120.3082725,46.404036],[-120.3079011,46.4040776],[-120.3076677,46.4043384],[-120.3077978,46.4043791],[-120.3086816,46.4048128],[-120.3091818,46.4051504],[-120.3091764,46.4052863],[-120.3095144,46.4054741],[-120.3095908,46.4055545],[-120.3112257,46.4064062],[-120.3113651,46.4067058],[-120.3111559,46.406802],[-120.3106624,46.4068982],[-120.3106946,46.4074049],[-120.3110004,46.4077415],[-120.3113289,46.4086015],[-120.3120571,46.4091082],[-120.3120866,46.4092913],[-120.3138328,46.4098424],[-120.3151765,46.4100958],[-120.3161368,46.4104046],[-120.3171775,46.4115512],[-120.3173733,46.4116381],[-120.3192616,46.4128513],[-120.3198154,46.4133335],[-120.3198141,46.4134283],[-120.3198624,46.4136261],[-120.3197524,46.4137241],[-120.3198275,46.4140551],[-120.3202647,46.4144231],[-120.3217211,46.4151832],[-120.3224024,46.415394],[-120.3228128,46.4153755],[-120.3233868,46.4150519],[-120.3237784,46.414216],[-120.3243068,46.4137204],[-120.3246052,46.4136081],[-120.3251946,46.4135387],[-120.3252965,46.4134005],[-120.3260744,46.4134005],[-120.3271365,46.4137778],[-120.3274101,46.4142807],[-120.327335,46.414854],[-120.327453,46.4151388],[-120.3279305,46.4155863],[-120.328719,46.4158378],[-120.3294379,46.4159117],[-120.3315193,46.4159672],[-120.3331232,46.4164258],[-120.3358913,46.4190108],[-120.3367683,46.4202294],[-120.3375247,46.420503],[-120.3388041,46.4205012],[-120.3397161,46.4210596],[-120.341084,46.4221616],[-120.3413951,46.4228235],[-120.3413576,46.423356],[-120.3411967,46.4238478],[-120.3411967,46.4245725],[-120.3413576,46.4249312],[-120.3423232,46.42634],[-120.3423286,46.4270648],[-120.3421515,46.4275602],[-120.3421515,46.4279041],[-120.3423661,46.4281925],[-120.3429562,46.4286029],[-120.3434926,46.4288248],[-120.3445119,46.4290059],[-120.3460246,46.4290022],[-120.3467274,46.4287989],[-120.3475428,46.428418],[-120.3491253,46.4272774],[-120.3496644,46.4271516],[-120.3513944,46.4272145],[-120.3519309,46.4275547],[-120.3524298,46.4283626],[-120.3526658,46.4290078],[-120.3522795,46.4312059],[-120.3516626,46.4320045],[-120.3509451,46.4326533],[-120.3501137,46.4330942],[-120.3499889,46.4335018],[-120.3496885,46.4335906],[-120.3494901,46.434049],[-120.3494646,46.4347718],[-120.3494592,46.4350075],[-120.3501552,46.4361378],[-120.3503805,46.4373541],[-120.3503859,46.4383153],[-120.3502572,46.4387035],[-120.349592,46.4389918],[-120.3482026,46.4399604],[-120.3476447,46.4407293],[-120.3476769,46.4411581],[-120.3480738,46.4420563],[-120.3481704,46.4427809],[-120.3483045,46.4434278],[-120.3484708,46.4436237],[-120.3490931,46.4439933],[-120.3523976,46.4448361],[-120.3536904,46.4453684],[-120.3545809,46.4454386],[-120.3550047,46.4455495],[-120.3557074,46.4461852],[-120.3561419,46.446359],[-120.3567159,46.4464588],[-120.3584755,46.4461889],[-120.3592372,46.4462296],[-120.3600258,46.4463553],[-120.3615975,46.446943],[-120.3619033,46.4470058],[-120.361914,46.4476748],[-120.3625041,46.4482514],[-120.3640437,46.4493233],[-120.3649664,46.4501142],[-120.3650791,46.4503212],[-120.3656209,46.4504801],[-120.3665865,46.4509828],[-120.3672141,46.45143],[-120.367493,46.4519363],[-120.3674394,46.4522875],[-120.3669566,46.4531079],[-120.3671336,46.4537362],[-120.3673321,46.4540097],[-120.3678739,46.454383],[-120.3685713,46.4545493],[-120.36973,46.4545677],[-120.3704113,46.4543645],[-120.3713822,46.4541538],[-120.3725088,46.4542499],[-120.3737962,46.454516],[-120.3746438,46.4549447],[-120.3751078,46.4557291],[-120.3753895,46.4564304],[-120.3755236,46.4570253],[-120.3757117,46.4575265],[-120.3761686,46.458037],[-120.3769451,46.459008],[-120.3777364,46.4594976],[-120.3780345,46.4596255],[-120.3781085,46.4596373],[-120.379622,46.4605803],[-120.3804588,46.4618478],[-120.3807539,46.4626053],[-120.381462,46.463215],[-120.3819099,46.4633199],[-120.3823055,46.4633956],[-120.3825409,46.4635018],[-120.3826026,46.4637111],[-120.3829251,46.4639235],[-120.3833549,46.4641531],[-120.3838116,46.4643254],[-120.3843058,46.4642866],[-120.3847852,46.4641683],[-120.3852828,46.463985],[-120.3860405,46.4634349],[-120.3865562,46.4630991],[-120.3869075,46.4628584],[-120.3872093,46.4627411],[-120.3877142,46.4628159],[-120.3886664,46.4631596],[-120.3892162,46.4635125],[-120.3898439,46.4637711],[-120.3905379,46.4641037],[-120.391193,46.4642256],[-120.3918086,46.4642718],[-120.3926642,46.4641887],[-120.3932543,46.4641489],[-120.3947349,46.4641083],[-120.3958011,46.4641443],[-120.3975526,46.4645231],[-120.3987622,46.4648575],[-120.4002401,46.4653674],[-120.4007685,46.465639],[-120.402512,46.4662338],[-120.403389,46.4667714],[-120.4035178,46.4668694],[-120.4036197,46.4683732],[-120.4038879,46.4688054],[-120.404875,46.4696719],[-120.4061008,46.4710795],[-120.4064226,46.4717187],[-120.4069054,46.4721269],[-120.4078469,46.4727891],[-120.4088634,46.4734514],[-120.4093382,46.4740406],[-120.4095393,46.4745357],[-120.4094026,46.4749107],[-120.4090324,46.4749901],[-120.4086059,46.4748294],[-120.4083779,46.4747703],[-120.4080507,46.4748903],[-120.4080427,46.4751342],[-120.408209,46.475764],[-120.4088339,46.4765324],[-120.4097191,46.4772085],[-120.4106337,46.4778827],[-120.4112184,46.4782188],[-120.4114142,46.478313],[-120.4119721,46.4789022],[-120.4134634,46.4794416],[-120.4157192,46.4801563],[-120.4180393,46.4805368],[-120.4188573,46.4807044],[-120.4196727,46.4806569],[-120.4202387,46.4805922],[-120.4203272,46.4806236],[-120.4208046,46.4808933],[-120.4217756,46.4816191],[-120.422194,46.4821418],[-120.4223328,46.4831738],[-120.4224093,46.4834092],[-120.4225011,46.4836544],[-120.4236521,46.4845684],[-120.4245463,46.4846212],[-120.4259089,46.4847625],[-120.427714,46.4847939],[-120.4292214,46.484877],[-120.4303157,46.4851707],[-120.4312277,46.4863083],[-120.4311901,46.4869491],[-120.4310533,46.4871449],[-120.4308817,46.4877192],[-120.4307342,46.4882326],[-120.4307945,46.4895733],[-120.4309273,46.4896379],[-120.4309246,46.4898688],[-120.4313242,46.4904819],[-120.4319626,46.4911171],[-120.4327351,46.4915677],[-120.4349345,46.4927199],[-120.436163,46.4935287],[-120.4365331,46.493573],[-120.4397652,46.4953918],[-120.4397625,46.4955155],[-120.4400468,46.4955839],[-120.4413477,46.4963095],[-120.4430857,46.4971146],[-120.4447621,46.4977331],[-120.44624,46.4980895],[-120.4477313,46.498564],[-120.449228,46.4991474],[-120.4496732,46.4998472],[-120.450891,46.5001869],[-120.4508427,46.5005783],[-120.4510734,46.5007796],[-120.4513335,46.5009642],[-120.4515401,46.501531],[-120.4515427,46.5016048],[-120.4516152,46.5019815],[-120.4518941,46.50248],[-120.4519987,46.5028778],[-120.4523192,46.5041554],[-120.4525164,46.5047314],[-120.4527095,46.5053028],[-120.4529107,46.5057163],[-120.4529831,46.5060486],[-120.453321,46.5065083],[-120.4535222,46.5067187],[-120.4537609,46.5070344],[-120.4540908,46.5071987],[-120.4544288,46.507507],[-120.4546836,46.5079297],[-120.4550028,46.5090411],[-120.4551557,46.5097499],[-120.4552281,46.5101376],[-120.4553461,46.5109904],[-120.4552227,46.5116494],[-120.4551972,46.5120675],[-120.4555097,46.5130643],[-120.4557444,46.5135377],[-120.4560274,46.5139586],[-120.4560757,46.5141589],[-120.4563291,46.5146249],[-120.4568481,46.5155201],[-120.4569286,46.5156863],[-120.4569608,46.5158136],[-120.4570761,46.5159797],[-120.4571861,46.5160923],[-120.4574195,46.5165021],[-120.457913,46.5172884],[-120.4581785,46.5175745],[-120.458605,46.5178587],[-120.4591066,46.5180765],[-120.4599166,46.5181854],[-120.46085,46.518166],[-120.4617512,46.518106],[-120.4618668,46.5180389],[-120.4621656,46.5178661],[-120.4624888,46.517544],[-120.4631567,46.5172072],[-120.4642115,46.5169538],[-120.4651818,46.516779],[-120.4660776,46.5166664],[-120.4671291,46.516683],[-120.4682596,46.5167623],[-120.4686613,46.5168094],[-120.4687732,46.5168408],[-120.4695551,46.5169349],[-120.47034,46.5168731],[-120.4718672,46.5165556],[-120.4724894,46.5164882],[-120.4729253,46.5164596],[-120.4730755,46.5164098],[-120.4735583,46.5163314],[-120.4740492,46.5163932],[-120.4744542,46.5163434],[-120.4751864,46.5166645],[-120.4762348,46.5170447],[-120.4766536,46.5172256],[-120.4769325,46.5173807],[-120.4769808,46.5175837],[-120.4771096,46.517927],[-120.4775816,46.5184807],[-120.4776688,46.5193906],[-120.4777466,46.5196259],[-120.4777908,46.5199978],[-120.4781127,46.5208025],[-120.4784802,46.5209465],[-120.4782468,46.5220298],[-120.4780128,46.5228251],[-120.4774234,46.5240415],[-120.4771605,46.5243626],[-120.4761831,46.5257758],[-120.4759942,46.5259943],[-120.475952,46.526262],[-120.4743141,46.5290603],[-120.4732667,46.5308509],[-120.4726678,46.5330596],[-120.4715587,46.5341607],[-120.4715198,46.5349159],[-120.4728609,46.5352664],[-120.4732686,46.535451],[-120.474878,46.5373256],[-120.475383,46.5372308],[-120.4839814,46.540462],[-120.4894729,46.5412454],[-120.490593,46.5417516],[-120.490917,46.542044],[-120.494275,46.544949],[-120.494775,46.547049],[-120.499975,46.549149],[-120.502178,46.548552],[-120.504276,46.54855],[-120.506975,46.551048],[-120.520176,46.550848],[-120.526376,46.551448],[-120.528275,46.551447],[-120.53119,46.551397],[-120.5352718,46.5513275],[-120.539935,46.551248],[-120.542851,46.551199],[-120.543706,46.551175],[-120.544161,46.551163],[-120.546272,46.551237],[-120.547128,46.551268],[-120.55131,46.551413],[-120.555154,46.551548],[-120.556747,46.550448],[-120.557543,46.551247],[-120.55866,46.551054],[-120.563107,46.550287],[-120.563924,46.550147],[-120.56521,46.553247],[-120.570523,46.553347],[-120.57068,46.553307],[-120.580047,46.550948],[-120.586698,46.549676],[-120.592078,46.548648],[-120.592148,46.548526],[-120.592358,46.548163],[-120.592429,46.548042],[-120.596929,46.547004],[-120.602849,46.545641],[-120.604021,46.543141],[-120.608773,46.541526],[-120.613147,46.540041],[-120.6203482,46.5403449],[-120.6222492,46.5383477],[-120.622842,46.5390433],[-120.6252399,46.5377481],[-120.6276512,46.5376577],[-120.6309396,46.5387462],[-120.6352419,46.5369602],[-120.6416845,46.5350598],[-120.6500477,46.5336575],[-120.6519628,46.5336298],[-120.6567344,46.5335781],[-120.6603286,46.5312845],[-120.668807,46.5319045],[-120.6707463,46.5322367],[-120.6736028,46.5327275],[-120.6751934,46.5324157],[-120.6786159,46.5317403],[-120.6803513,46.5307882],[-120.6805256,46.5305538],[-120.6807348,46.5301755],[-120.6809749,46.5299329],[-120.6812713,46.5296861],[-120.681514,46.5295486],[-120.6822342,46.5298005],[-120.6827988,46.5298821],[-120.6840178,46.529896],[-120.6852101,46.5298628],[-120.6857117,46.5298019],[-120.6862561,46.5297013],[-120.687152,46.5296515],[-120.6877568,46.5296505],[-120.6884368,46.5296782],[-120.6884877,46.5297474],[-120.6884824,46.5298581],[-120.6884998,46.5299532],[-120.6886339,46.5300796],[-120.6889598,46.5300473],[-120.6899723,46.5301211],[-120.6904927,46.5301174],[-120.6909688,46.53017],[-120.69153,46.5302669],[-120.6917084,46.5303292],[-120.6920785,46.5305201],[-120.6924943,46.5306447],[-120.6926961,46.5307416],[-120.6930904,46.5307909],[-120.6936242,46.530808],[-120.6944282,46.5308062],[-120.6952677,46.5305192],[-120.6956164,46.5302918],[-120.6958947,46.5301622],[-120.6965364,46.5301622],[-120.6969494,46.5302263],[-120.6972056,46.530104],[-120.697557,46.5298752],[-120.6976887,46.5298415],[-120.6980773,46.52989],[-120.6985973,46.5299036],[-120.6993249,46.5299523],[-120.6994714,46.5300298],[-120.699572,46.5300971],[-120.6996994,46.5302087],[-120.699871,46.5302217],[-120.7001339,46.5301635],[-120.7003807,46.5300777],[-120.7007052,46.5300897],[-120.7012939,46.5302899],[-120.7017016,46.5305381],[-120.7020181,46.5305999],[-120.7023105,46.5306138],[-120.7025921,46.5306055],[-120.7026686,46.5305418],[-120.7028429,46.5302798],[-120.7031326,46.5301848],[-120.7036892,46.5301497],[-120.7039936,46.5302152],[-120.7054145,46.5307227],[-120.7060227,46.5308011],[-120.7064089,46.5307845],[-120.7071036,46.5307863],[-120.7076937,46.5306941],[-120.7083361,46.5305409],[-120.7087706,46.530528],[-120.7090066,46.5304486],[-120.7093781,46.5302401],[-120.7096276,46.529943],[-120.7099883,46.5292916],[-120.7101345,46.5289069],[-120.7101506,46.5286854],[-120.710215,46.5283773],[-120.7103705,46.5282924],[-120.7107139,46.5281374],[-120.7115091,46.5278301],[-120.7129374,46.5274463],[-120.713899,46.5273789],[-120.7143201,46.5273153],[-120.714536,46.5272553],[-120.7147707,46.5271067],[-120.714823,46.52702],[-120.714933,46.5269296],[-120.7150202,46.5268105],[-120.7151221,46.5267044],[-120.7155378,46.5266389],[-120.7167891,46.5265596],[-120.7169621,46.5266685],[-120.7171364,46.5267603],[-120.7173825,46.5268728],[-120.7174636,46.5268442],[-120.7176722,46.5267307],[-120.717872,46.5266818],[-120.7181483,46.5266823],[-120.7185687,46.5267298],[-120.7186338,46.5267455],[-120.7188108,46.5268544],[-120.7189583,46.5269056],[-120.7190529,46.5270002],[-120.7193747,46.5275275],[-120.7194693,46.52785],[-120.7196295,46.5280363],[-120.7196946,46.5281337],[-120.7197717,46.5283519],[-120.7198408,46.5284866],[-120.7199842,46.5287228],[-120.7200158,46.5289009],[-120.7201137,46.5290116],[-120.7204617,46.5289318],[-120.7206193,46.5287579],[-120.7211175,46.5287242],[-120.7213502,46.5285923],[-120.7215694,46.5285461],[-120.7218732,46.5285295],[-120.7223781,46.5285134],[-120.7229347,46.5285078],[-120.7232519,46.5285406],[-120.7237058,46.528542],[-120.7239264,46.5285434],[-120.7242302,46.5285097],[-120.7243274,46.5284626],[-120.7244743,46.5283653],[-120.7245232,46.5282541],[-120.7248082,46.5281189],[-120.7248981,46.528064],[-120.7251388,46.5280626],[-120.7254848,46.5280437],[-120.7255807,46.5279648],[-120.7256893,46.5279007],[-120.7259797,46.5278375],[-120.7261057,46.5278218],[-120.7263498,46.5278052],[-120.7265081,46.5278195],[-120.7267132,46.5278523],[-120.7269225,46.5279021],[-120.7271062,46.5279136],[-120.7273516,46.5278979],[-120.7275461,46.5279455],[-120.7278083,46.5279588],[-120.7283822,46.5279602],[-120.7285566,46.5279127],[-120.7287504,46.527879],[-120.7294595,46.5278299],[-120.7298092,46.5277752],[-120.7301532,46.5277351],[-120.7303376,46.5277964],[-120.7305327,46.5278449],[-120.7306273,46.5278938],[-120.7307868,46.5279542],[-120.7309987,46.5279874],[-120.7313662,46.5281328],[-120.7315298,46.5281627],[-120.7316331,46.5281295],[-120.7317518,46.5280816],[-120.7319207,46.5279879],[-120.7319918,46.5279367],[-120.732246,46.5278573],[-120.7323801,46.5277738],[-120.7324706,46.5277323],[-120.7326503,46.5276627],[-120.7328589,46.5276304],[-120.7330205,46.5276659],[-120.7332961,46.5276313],[-120.7335254,46.5276456],[-120.7338821,46.5277415],[-120.7342033,46.5277568],[-120.734845,46.5276733],[-120.7350348,46.527694],[-120.7351991,46.5276751],[-120.7356624,46.527742],[-120.7358418,46.5277888],[-120.7365093,46.5277851],[-120.7368148,46.5278193],[-120.7372054,46.5277526],[-120.7373643,46.5277856],[-120.7376375,46.5277861],[-120.7378246,46.5278952],[-120.7378742,46.5279925],[-120.7379034,46.5281872],[-120.7379101,46.5283302],[-120.7379705,46.5284234],[-120.7380644,46.5284409],[-120.7383004,46.528535],[-120.7395188,46.5285489],[-120.7398292,46.5285184],[-120.7400948,46.5285166],[-120.7402544,46.5284455],[-120.7403348,46.5283893],[-120.7404301,46.5282315],[-120.7404435,46.5278154],[-120.740426,46.5275247],[-120.7404636,46.5274002],[-120.740642,46.5273365],[-120.7408163,46.5273393],[-120.741161,46.5273937],[-120.7414547,46.5275173],[-120.7418543,46.5277508],[-120.7421199,46.5278735],[-120.7423103,46.5279796],[-120.7425275,46.5281328],[-120.7427502,46.5283219],[-120.7429031,46.5284059],[-120.7431552,46.5283948],[-120.7432719,46.5283228],[-120.7434583,46.5281521],[-120.7435964,46.5278975],[-120.7436742,46.527688],[-120.7438311,46.5276511],[-120.743988,46.5276751],[-120.7440926,46.5276696],[-120.7441999,46.5277065],[-120.7443421,46.5277821],[-120.7444091,46.5277803],[-120.7446156,46.5276419],[-120.7446773,46.5275109],[-120.7448973,46.5274149],[-120.7460037,46.5274288],[-120.746575,46.5275432],[-120.7468439,46.5276571],[-120.7469056,46.5277346],[-120.7474333,46.5280995],[-120.7480368,46.5284169],[-120.7485035,46.5285037],[-120.7491955,46.5285221],[-120.7496381,46.5285074],[-120.7499197,46.5285314],[-120.7500592,46.5285941],[-120.750263,46.5287214],[-120.750652,46.5289152],[-120.75077,46.5290148],[-120.7511508,46.5289853],[-120.7519656,46.5290084],[-120.752154,46.5291735],[-120.7529774,46.5287325],[-120.7532805,46.5287879],[-120.7546136,46.5292584],[-120.7554665,46.5290573],[-120.7561424,46.5289964],[-120.7578751,46.5296035],[-120.7581648,46.529884],[-120.7589293,46.5301312],[-120.7595488,46.5300556],[-120.7602462,46.5295813],[-120.7607693,46.5295168],[-120.7613915,46.5298102],[-120.7620084,46.5297253],[-120.7630947,46.5291274],[-120.7643205,46.5292234],[-120.765439,46.5291994],[-120.766764,46.5293415],[-120.7673299,46.5295408],[-120.76803,46.5299449],[-120.7683116,46.5299541],[-120.7688373,46.5298711],[-120.7690546,46.5296773],[-120.7694891,46.5295131],[-120.7705781,46.5293285],[-120.7714364,46.529323],[-120.7722276,46.5295924],[-120.7726997,46.5295924],[-120.773263,46.5294485],[-120.7738048,46.5294116],[-120.7749876,46.5297105],[-120.7759801,46.5298674],[-120.7767311,46.5297253],[-120.7771629,46.5297733],[-120.7774338,46.5294725],[-120.778268,46.5294577],[-120.7788178,46.5289964],[-120.7808617,46.5287436],[-120.7814625,46.5286126],[-120.7817093,46.5284206],[-120.7817227,46.5282546],[-120.7825542,46.5275607],[-120.783096,46.5273005],[-120.7848153,46.526937],[-120.7883289,46.526721],[-120.78978,46.5265088],[-120.7909709,46.5268262],[-120.7917863,46.5269167],[-120.7926607,46.5271658],[-120.7930684,46.527354],[-120.7931837,46.5276548],[-120.7938221,46.5280165],[-120.7947662,46.5280663],[-120.7960108,46.5275828],[-120.7969603,46.5275422],[-120.7976577,46.5273393],[-120.7980171,46.5270588],[-120.7984248,46.5270624],[-120.7987037,46.5272451],[-120.798811,46.5275183],[-120.7993475,46.527843],[-120.7997873,46.5279519],[-120.8013752,46.527939],[-120.8021182,46.5283468],[-120.8039072,46.5284797],[-120.8052135,46.528297],[-120.8059028,46.5286144],[-120.8066618,46.5286089],[-120.8083302,46.5287288],[-120.8096954,46.5282988],[-120.8107013,46.528046],[-120.8110768,46.5277452],[-120.8118358,46.5276567],[-120.812096,46.527354],[-120.8126593,46.5270975],[-120.8134532,46.5269277],[-120.8150303,46.526053],[-120.8157197,46.5258482],[-120.8187881,46.5257171],[-120.8201936,46.5255068],[-120.8213013,46.525647],[-120.8219585,46.5255252],[-120.8224547,46.5257337],[-120.8250377,46.5260512],[-120.8258021,46.5260807],[-120.8275348,46.5255935],[-120.8292192,46.524656],[-120.8293051,46.5245194],[-120.8314025,46.5243644],[-120.8323145,46.5246615],[-120.8334571,46.5248904],[-120.8340392,46.5252207],[-120.8345836,46.5252779],[-120.8352542,46.5249107],[-120.8358362,46.5249107],[-120.8367723,46.5251838],[-120.8394519,46.5257319],[-120.839999,46.5257559],[-120.8413723,46.5255769],[-120.8427268,46.5252779],[-120.8444649,46.5248479],[-120.8460635,46.5245674],[-120.8469433,46.5247298],[-120.8484024,46.5242685],[-120.8508056,46.5230726],[-120.8518195,46.5229914],[-120.8520877,46.523032],[-120.8536005,46.5229138],[-120.8545393,46.5231169],[-120.8551884,46.5229138],[-120.8558375,46.5229471],[-120.8582676,46.5236004],[-120.8587557,46.5239326],[-120.8597052,46.5240765],[-120.859437,46.5248516],[-120.859673,46.5250325],[-120.8600271,46.5250325],[-120.8603972,46.5248848],[-120.8617759,46.525169],[-120.8620548,46.5252908],[-120.8627468,46.525372],[-120.8638734,46.5253536],[-120.8656275,46.5255344],[-120.8665878,46.525372],[-120.867269,46.5253757],[-120.8682883,46.5256784],[-120.8692914,46.5264295],[-120.8700103,46.5264258],[-120.8709544,46.5266122],[-120.8715284,46.5265402],[-120.8731511,46.526721],[-120.8734703,46.526638],[-120.8738914,46.5263557],[-120.8753157,46.5260881],[-120.8761418,46.5252982],[-120.8781695,46.5250251],[-120.8795858,46.5243164],[-120.8806265,46.5240507],[-120.8808732,46.5238218],[-120.88112,46.5232313],[-120.8818495,46.5229065],[-120.8822572,46.5223971],[-120.8830619,46.5222347],[-120.8839953,46.5218287],[-120.8848,46.5216958],[-120.8859479,46.5214928],[-120.8866185,46.5214817],[-120.8871979,46.5213304],[-120.8887482,46.5212898],[-120.889172,46.521179],[-120.8894831,46.5206475],[-120.8904433,46.5205146],[-120.8911192,46.5202415],[-120.8922243,46.5201787],[-120.8930022,46.5199019],[-120.8930397,46.519828],[-120.8944023,46.5197616],[-120.8946759,46.519769],[-120.8954752,46.5192263],[-120.8976531,46.5183958],[-120.8989513,46.5183109],[-120.9001476,46.5178015],[-120.9003729,46.5174028],[-120.9007537,46.5171296],[-120.9011132,46.5170226],[-120.9029478,46.5168639],[-120.9052545,46.5165427],[-120.9057212,46.5163064],[-120.9062308,46.5155755],[-120.9062791,46.5152617],[-120.9067941,46.5145234],[-120.907529,46.5141395],[-120.9082049,46.51363],[-120.9091705,46.513379],[-120.9117669,46.5123342],[-120.9148836,46.5113596],[-120.9155542,46.5109719],[-120.9165359,46.5106729],[-120.9182578,46.5096687],[-120.9184644,46.5091657],[-120.9188747,46.5087309],[-120.9196848,46.5080147],[-120.9208649,46.5073058],[-120.9217179,46.5069255],[-120.9227854,46.5062018],[-120.9239227,46.5060357],[-120.9250224,46.5056886],[-120.9251511,46.5055298],[-120.9258324,46.5052566],[-120.9276402,46.5042818],[-120.9282035,46.5035545],[-120.9289116,46.5032591],[-120.9301078,46.5023803],[-120.9309983,46.5019889],[-120.9313256,46.5015236],[-120.9321678,46.500966],[-120.9358585,46.4998435],[-120.9363627,46.4998472],[-120.9364539,46.4997253],[-120.9368938,46.4993634],[-120.9387231,46.4983073],[-120.9393936,46.4976537],[-120.941475,46.4963391],[-120.9427303,46.4954712],[-120.9451819,46.4942858],[-120.9473008,46.4936395],[-120.9488028,46.492816],[-120.9504014,46.4922952],[-120.9520215,46.4920699],[-120.9545159,46.4918114],[-120.9565651,46.4922287],[-120.9574771,46.4922066],[-120.9590811,46.491793],[-120.9607762,46.4914938],[-120.9618598,46.4913904],[-120.9631902,46.4913387],[-120.9645367,46.4911393],[-120.9661782,46.4906037],[-120.9676319,46.4903711],[-120.9686619,46.4904966],[-120.9705716,46.4900239],[-120.9713817,46.4896102],[-120.9727067,46.4892631],[-120.9781033,46.4873277],[-120.9806755,46.486493],[-120.9821534,46.4862714],[-120.982942,46.4859445],[-120.9842616,46.485673],[-120.9848222,46.4854459],[-120.9857315,46.4848863],[-120.9864074,46.4843618],[-120.9869894,46.4841789],[-120.988867,46.4839259],[-120.9908277,46.4829157],[-120.9916431,46.4826737],[-120.9934777,46.4819904],[-120.9963423,46.4805534],[-120.998826,46.4795321],[-121.0016799,46.4785273],[-121.0026938,46.477951],[-121.0035226,46.4772731],[-121.0051534,46.4763847],[-121.0059902,46.4757677],[-121.0075191,46.4750751],[-121.0087127,46.4743251],[-121.0094905,46.4740185],[-121.0120171,46.4733221],[-121.0128915,46.4730025],[-121.0144258,46.4725998],[-121.015673,46.4721066],[-121.0172743,46.471316],[-121.018441,46.4705179],[-121.0205546,46.4693892],[-121.0205868,46.4693061],[-121.0217321,46.4686613],[-121.0230196,46.4679483],[-121.0237652,46.4673201],[-121.0245431,46.4671982],[-121.0254872,46.4671871],[-121.0256964,46.4673017],[-121.0265976,46.4673903],[-121.0276544,46.467346],[-121.0302723,46.466825],[-121.0316831,46.4667179],[-121.0330564,46.4662412],[-121.0342078,46.4661978],[-121.037724,46.466219],[-121.042123,46.465283],[-121.044041,46.465306],[-121.045595,46.465672],[-121.046124,46.465718],[-121.048109,46.465878],[-121.05092,46.465764],[-121.051813,46.465879],[-121.054921,46.465856],[-121.057303,46.465628],[-121.060246,46.465788],[-121.061734,46.466063],[-121.062858,46.466383],[-121.068646,46.467434],[-121.069837,46.467388],[-121.070862,46.467114],[-121.072053,46.46668],[-121.073574,46.465925],[-121.074963,46.465468],[-121.075823,46.465354],[-121.076649,46.465491],[-121.078072,46.465948],[-121.079064,46.466016],[-121.080718,46.466267],[-121.082736,46.466679],[-121.084059,46.466633],[-121.085051,46.466472],[-121.086539,46.465947],[-121.087333,46.465512],[-121.087861,46.464964],[-121.08849,46.464644],[-121.088986,46.464552],[-121.090937,46.464757],[-121.091863,46.464734],[-121.092425,46.464597],[-121.093086,46.464186],[-121.093946,46.463979],[-121.09517,46.46391],[-121.096294,46.464092],[-121.099104,46.462812],[-121.099997,46.461418],[-121.100095,46.460755],[-121.100294,46.460412],[-121.10231,46.458766],[-121.103037,46.458034],[-121.103665,46.457623],[-121.104954,46.456982],[-121.106541,46.456433],[-121.108094,46.45609],[-121.111863,46.45474],[-121.113549,46.454488],[-121.114309,46.454237],[-121.11507,46.454145],[-121.116657,46.454373],[-121.117517,46.454349],[-121.118508,46.454075],[-121.119467,46.453663],[-121.120312,46.45262],[-121.120275,46.451074],[-121.119517,46.44931],[-121.117549,46.447352],[-121.118953,46.445063],[-121.120128,46.444887],[-121.121107,46.445984],[-121.121585,46.447439],[-121.12204,46.448255],[-121.12298,46.449116],[-121.123666,46.45024],[-121.124025,46.452264],[-121.124562,46.454729],[-121.123605,46.456792],[-121.124189,46.458048],[-121.125771,46.458653],[-121.125572,46.460027],[-121.125722,46.461173],[-121.124672,46.461889],[-121.125041,46.463645],[-121.125403,46.464359],[-121.124896,46.464885],[-121.125153,46.465765],[-121.12549,46.467116],[-121.125743,46.468857],[-121.125757,46.469004],[-121.126187,46.471028],[-121.128251,46.470768],[-121.130554,46.470444],[-121.132265,46.470276],[-121.133745,46.469801],[-121.135119,46.470802],[-121.137882,46.471159],[-121.139924,46.472509],[-121.141517,46.474119],[-121.142323,46.474771],[-121.14358,46.476172],[-121.144039,46.476889],[-121.143879,46.478498],[-121.144646,46.480058],[-121.145761,46.481457],[-121.145241,46.482287],[-121.14526,46.483026],[-121.146193,46.484085],[-121.147837,46.485663],[-121.149752,46.487782],[-121.15019,46.489033],[-121.152865,46.490986],[-121.153552,46.491551],[-121.155101,46.491675],[-121.155939,46.491718],[-121.15603,46.491693],[-121.158771,46.492507],[-121.160659,46.492636],[-121.16261,46.49297],[-121.16394,46.493869],[-121.165445,46.494549],[-121.166525,46.495061],[-121.168668,46.496345],[-121.170881,46.497094],[-121.172507,46.497898],[-121.176435,46.498444],[-121.178426,46.49984],[-121.178915,46.49984],[-121.180603,46.499062],[-121.181772,46.499084],[-121.18261,46.498832],[-121.18695,46.498781],[-121.18756,46.498967],[-121.187925,46.499245],[-121.188786,46.499509],[-121.188525,46.49984],[-121.188691,46.500211],[-121.189187,46.500336],[-121.190147,46.500607],[-121.191768,46.500767],[-121.192463,46.501018],[-121.193191,46.501453],[-121.194615,46.502687],[-121.195674,46.504264],[-121.19643,46.504908],[-121.195205,46.507142],[-121.201599,46.509702],[-121.201732,46.509839],[-121.207525,46.511323],[-121.208617,46.511688],[-121.209048,46.512123],[-121.2093151,46.5125594],[-121.2096427,46.5124738],[-121.2096021,46.51205],[-121.209771,46.5112451],[-121.2105462,46.5106249],[-121.2110692,46.5105271],[-121.2119007,46.5103997],[-121.2126812,46.5102742],[-121.2133652,46.5099604],[-121.2140304,46.5096318],[-121.2152052,46.5092423],[-121.216498,46.5092312],[-121.2179706,46.5090374],[-121.2189496,46.5086792],[-121.2194216,46.5080627],[-121.2200171,46.507051],[-121.2210233,46.5063943],[-121.2250616,46.5061295],[-121.2253323,46.5061254],[-121.2296087,46.5047323],[-121.2321299,46.5042791],[-121.23261,46.5046169],[-121.2335723,46.5050637],[-121.234104,46.5050683],[-121.234501,46.5048578],[-121.2351286,46.5044665],[-121.236856,46.5031594],[-121.2381595,46.5019556],[-121.2394255,46.5005488],[-121.2399969,46.4998472],[-121.2424269,46.4998361],[-121.2446156,46.4988668],[-121.2465227,46.4985658],[-121.2483466,46.4975799],[-121.2499817,46.4966753],[-121.2511924,46.4956836],[-121.2523779,46.4953844],[-121.2542045,46.4958368],[-121.2558997,46.4922251],[-121.259752,46.4913013],[-121.259636,46.4913008],[-121.2601241,46.4909047],[-121.2605238,46.4906037],[-121.2609905,46.4901753],[-121.2613446,46.4898097],[-121.2618542,46.4892594],[-121.2621224,46.4888199],[-121.2640053,46.4860645],[-121.2647134,46.4862751],[-121.2662745,46.4852889],[-121.2679052,46.4842251],[-121.2686911,46.4834531],[-121.2699741,46.4821697],[-121.2710555,46.4799252],[-121.2720037,46.4783075],[-121.2721539,46.4778716],[-121.2724623,46.4770958],[-121.2707362,46.475877],[-121.269815,46.4752265],[-121.2667573,46.4738411],[-121.2657541,46.4716134],[-121.2652981,46.4701392],[-121.2689459,46.4692636],[-121.2707065,46.4683985],[-121.2723899,46.4675714],[-121.2736237,46.4670615],[-121.2773413,46.4660934],[-121.2803503,46.4651764],[-121.2811821,46.4648002],[-121.2820673,46.4641277],[-121.2831617,46.4633296],[-121.2840943,46.4625903],[-121.2853986,46.4620991],[-121.2861496,46.4618256],[-121.2869972,46.4615189],[-121.2874371,46.4613674],[-121.2881452,46.4611753],[-121.2889874,46.4609277],[-121.2914658,46.4601628],[-121.2939763,46.458559],[-121.2992361,46.4564729],[-121.3012183,46.4565893],[-121.3021732,46.4564489],[-121.3034821,46.4561865],[-121.3044906,46.456482],[-121.3052469,46.4566225],[-121.3059749,46.4566888],[-121.3068724,46.4571732],[-121.3072693,46.4570179],[-121.307956,46.4567445],[-121.3085836,46.4565043],[-121.3095331,46.456131],[-121.3122743,46.4561199],[-121.3128752,46.4560349],[-121.3133365,46.4559758],[-121.3139105,46.4558834],[-121.3159221,46.4555693],[-121.3181827,46.455142],[-121.318477,46.4549745],[-121.3186069,46.4549854],[-121.3187362,46.4550143],[-121.3199749,46.4558065],[-121.3206202,46.455996],[-121.3215408,46.4565495],[-121.322673,46.4578441],[-121.3229281,46.4580188],[-121.3234291,46.4582421],[-121.3240905,46.4583328],[-121.3249092,46.4588128],[-121.325154,46.4588974],[-121.3261295,46.4589387],[-121.3267294,46.4589115],[-121.327801,46.4592151],[-121.3284133,46.4592061],[-121.3289697,46.4593222],[-121.3293176,46.4594443],[-121.3297389,46.4597205],[-121.3301649,46.4598437],[-121.3304632,46.459884],[-121.331558,46.459855],[-121.3321212,46.4601782],[-121.3328937,46.4604685],[-121.333372,46.4605835],[-121.3335601,46.4608489],[-121.3337647,46.4610731],[-121.333898,46.4612851],[-121.3340349,46.4613794],[-121.3347863,46.4616508],[-121.3360615,46.461684],[-121.336638,46.4618156],[-121.3384214,46.4622228],[-121.3385964,46.4622627],[-121.3392933,46.4623274],[-121.3395004,46.4623136],[-121.3402302,46.4620953],[-121.3410664,46.4621789],[-121.3428257,46.4620805],[-121.3435919,46.4618648],[-121.3444444,46.4618121],[-121.3460043,46.4614756],[-121.3463857,46.4615231],[-121.3474188,46.4619265],[-121.3476496,46.4619298],[-121.3490552,46.461673],[-121.349099,46.4616685],[-121.3495368,46.4616232],[-121.350336,46.461723],[-121.3519225,46.4625165],[-121.3525271,46.463025],[-121.3529398,46.4634446],[-121.353085,46.4640724],[-121.353174,46.4641451],[-121.3542479,46.4646078],[-121.3552617,46.4654518],[-121.3567331,46.4662394],[-121.3576303,46.4669243],[-121.3584657,46.4674381],[-121.35937,46.4674847],[-121.3605074,46.4674569],[-121.3608347,46.4674868],[-121.3616261,46.4676473],[-121.3627955,46.4679706],[-121.3630753,46.467962],[-121.3634261,46.4678179],[-121.3638525,46.4677862],[-121.3649371,46.4678983],[-121.3665658,46.4679069],[-121.3670975,46.4680132],[-121.3691699,46.4674087],[-121.3704198,46.4672774],[-121.3713311,46.4670867],[-121.3715469,46.4669848],[-121.3719189,46.4665365],[-121.372092,46.4664382],[-121.372591,46.4664159],[-121.373371,46.466553],[-121.3735869,46.4666485],[-121.3741159,46.4672693],[-121.3742503,46.46777],[-121.3744819,46.4679367],[-121.3749977,46.4681589],[-121.3761111,46.4676463],[-121.3763104,46.4676551],[-121.3777719,46.4680513],[-121.3778366,46.4680474],[-121.3801585,46.4679083],[-121.3802832,46.4679317],[-121.3804514,46.4680439],[-121.380576,46.4682752],[-121.381094,46.4687548],[-121.3815685,46.4693361],[-121.3829417,46.4698934],[-121.3834874,46.4701682],[-121.3843417,46.47096],[-121.3854998,46.4717043],[-121.3864519,46.4721577],[-121.3888172,46.4729725],[-121.389936,46.4736596],[-121.3907079,46.4740604],[-121.3929063,46.4749901],[-121.3934872,46.4751355],[-121.3943426,46.4757792],[-121.3950845,46.4767636],[-121.3963369,46.4776073],[-121.3995471,46.4795118],[-121.400815,46.4815905],[-121.4025443,46.481964],[-121.4039265,46.4821906],[-121.4046018,46.4822593],[-121.4048944,46.482515],[-121.4062022,46.4829419],[-121.406919,46.4836418],[-121.4070528,46.4849317],[-121.4082829,46.4862606],[-121.408453,46.4871898],[-121.4078578,46.4883407],[-121.4079502,46.4884042],[-121.4091482,46.4888203],[-121.4108524,46.4892583],[-121.4144823,46.4911757],[-121.4151046,46.4908422],[-121.4157692,46.4905803],[-121.4176209,46.4906595],[-121.4178557,46.4907511],[-121.4184167,46.4912446],[-121.4199305,46.4919562],[-121.420995,46.4920971],[-121.421838,46.4923169],[-121.4226111,46.4924285],[-121.4230009,46.4925285],[-121.423202,46.492686],[-121.423372,46.49214],[-121.423471,46.491633],[-121.423393,46.491423],[-121.424818,46.490901],[-121.424939,46.490858],[-121.428512,46.489563],[-121.428989,46.488745],[-121.429875,46.487679],[-121.430777,46.487226],[-121.431796,46.48666],[-121.431793,46.486016],[-121.43198,46.485011],[-121.432864,46.484139],[-121.4343136,46.4829489],[-121.435076,46.482221],[-121.435206,46.481119],[-121.435138,46.4804],[-121.436116,46.479112],[-121.43657,46.478213],[-121.4363395,46.4773463],[-121.4360169,46.475907],[-121.434733,46.474644],[-121.434425,46.474351],[-121.433688,46.473649],[-121.433537,46.473531],[-121.433384,46.473441],[-121.43332,46.473403],[-121.432186,46.472859],[-121.43063,46.471763],[-121.429745,46.470985],[-121.429276,46.470362],[-121.42817,46.468705],[-121.427726,46.46801],[-121.427091,46.467669],[-121.4265234,46.4671525],[-121.425998,46.4659],[-121.425666,46.46461],[-121.4256607,46.4641072],[-121.423111,46.463541],[-121.420733,46.463092],[-121.419797,46.462651],[-121.419147,46.462575],[-121.419292,46.462157],[-121.418902,46.461744],[-121.418313,46.461435],[-121.417313,46.461445],[-121.41558,46.4598],[-121.414109,46.460146],[-121.413373,46.45959],[-121.412381,46.459805],[-121.411978,46.459529],[-121.412592,46.458824],[-121.412914,46.458239],[-121.413203,46.457524],[-121.413293,46.456889],[-121.413768,46.456079],[-121.414348,46.455342],[-121.414816,46.455079],[-121.414711,46.454297],[-121.414868,46.452994],[-121.4145796,46.4512909],[-121.414059,46.450889],[-121.413613,46.450669],[-121.413597,46.450658],[-121.413396,46.449194],[-121.412778,46.44845],[-121.412611,46.447918],[-121.412321,46.44699],[-121.411769,46.446568],[-121.410705,46.446119],[-121.410746,46.445669],[-121.410494,46.445385],[-121.410573,46.444818],[-121.410672,46.444308],[-121.410263,46.443589],[-121.410154,46.443033],[-121.410163,46.442373],[-121.410054,46.441857],[-121.409491,46.441331],[-121.409232,46.440709],[-121.40894,46.439999],[-121.40853,46.439336],[-121.40805,46.438778],[-121.408161,46.43828],[-121.408297,46.437645],[-121.40824,46.436735],[-121.408131,46.436071],[-121.407837,46.435565],[-121.40767,46.435073],[-121.407676,46.434598],[-121.407944,46.433868],[-121.408216,46.433314],[-121.408069,46.432138],[-121.40776,46.430928],[-121.407298,46.429903],[-121.406562,46.429351],[-121.405659,46.42908],[-121.404714,46.429105],[-121.404623,46.429058],[-121.404281,46.428734],[-121.403595,46.427876],[-121.403187,46.427149],[-121.402888,46.426069],[-121.402366,46.425172],[-121.402034,46.424768],[-121.401297,46.424328],[-121.400211,46.423872],[-121.39837,46.42341],[-121.396778,46.422538],[-121.396298,46.421988],[-121.3959432,46.4216623],[-121.395774,46.42118],[-121.395527,46.420567],[-121.394813,46.419274],[-121.393993,46.418054],[-121.393192,46.417187],[-121.3924569,46.4168026],[-121.392086,46.41648],[-121.391344,46.416387],[-121.390871,46.41615],[-121.390511,46.415335],[-121.390321,46.414795],[-121.389818,46.414148],[-121.388871,46.412958],[-121.388357,46.412311],[-121.387413,46.41171],[-121.38707,46.411329],[-121.386557,46.410601],[-121.386647,46.409942],[-121.387352,46.40853],[-121.38879,46.40705],[-121.390339,46.405892],[-121.390893,46.405292],[-121.390874,46.404994],[-121.38985,46.40432],[-121.38929,46.40364],[-121.389171,46.402995],[-121.388755,46.402808],[-121.388558,46.401996],[-121.388574,46.401935],[-121.389936,46.401439],[-121.39034,46.400757],[-121.391725,46.39716],[-121.391521,46.395975],[-121.391507,46.395275],[-121.392337,46.394894],[-121.392984,46.394238],[-121.392983,46.393513],[-121.392958,46.392805],[-121.393333,46.391664],[-121.393857,46.390766],[-121.3940035,46.39065],[-121.3942078,46.3899451],[-121.3949829,46.3893069],[-121.4071812,46.3893507],[-121.410374,46.390299],[-121.4131526,46.3900337],[-121.4137122,46.3899475],[-121.4149996,46.3898789],[-121.4185309,46.3902589],[-121.4202923,46.3907943],[-121.4210594,46.3909238],[-121.4214347,46.3908501],[-121.4215797,46.3908572],[-121.4222556,46.3905908],[-121.4225829,46.390317],[-121.423513,46.389486],[-121.427207,46.389527],[-121.427304,46.389803],[-121.428042,46.389818],[-121.428135,46.389537],[-121.430382,46.389568],[-121.431134,46.389793],[-121.431699,46.389983],[-121.431984,46.390175],[-121.432181,46.390757],[-121.432773,46.390882],[-121.433213,46.390878],[-121.43399,46.390637],[-121.434046,46.390288],[-121.434511,46.390025],[-121.434888,46.39015],[-121.43545,46.390082],[-121.436063,46.389634],[-121.43705,46.389863],[-121.438146,46.390198],[-121.438902,46.390133],[-121.439216,46.389978],[-121.439625,46.389897],[-121.440092,46.389983],[-121.440531,46.390405],[-121.440545,46.390972],[-121.440922,46.39123],[-121.441672,46.391048],[-121.442551,46.391231],[-121.443173,46.390971],[-121.443802,46.391138],[-121.444429,46.390975],[-121.444785,46.390846],[-121.445045,46.39062],[-121.445255,46.390384],[-121.44549,46.389784],[-121.45666,46.389938],[-121.4589772,46.3899338],[-121.4589939,46.3913123],[-121.4601499,46.392463],[-121.4607227,46.3926252],[-121.4629689,46.3938745],[-121.4637145,46.3938042],[-121.4651656,46.3956134],[-121.4660119,46.3957928],[-121.4705837,46.3950381],[-121.4725471,46.3950196],[-121.474039,46.3941062],[-121.4767554,46.3942038],[-121.4773227,46.3937394],[-121.4783406,46.3929421],[-121.4810067,46.3918932],[-121.4818389,46.3918187],[-121.4826925,46.3911023],[-121.484675,46.390871],[-121.486715,46.388119],[-121.486866,46.387897],[-121.48689,46.386698],[-121.490505,46.38587],[-121.492369,46.384537],[-121.493998,46.384559],[-121.495365,46.384965],[-121.496364,46.383734],[-121.497773,46.381555],[-121.499119,46.379003],[-121.49988,46.376957],[-121.501194,46.37484],[-121.503436,46.371498],[-121.503889,46.368467],[-121.505895,46.365843],[-121.508287,46.363893],[-121.50985,46.362211],[-121.512855,46.35968],[-121.512925,46.359622],[-121.515461,46.357908],[-121.516659,46.356599],[-121.518215,46.354982],[-121.51878,46.353461],[-121.519055,46.351905],[-121.51905,46.351447],[-121.519187,46.350699],[-121.519273,46.350298],[-121.519388,46.349593]]]]},"properties":{"id":"yakama-reservation-exclusion","name":"Yakama Indian Reservation","sourceUrl":"https://www.openstreetmap.org/relation/7320420","sourceSnapshotUrl":"https://download.geofabrik.de/north-america/us/washington-260801.osm.pbf","sourceSnapshot":"washington-260801","sourceSha256":"3bea264079e184675aac7d8ab104bff5339b9e3656a36c084f96f616271a0e4e","attribution":"OpenStreetMap contributors, ODbL 1.0","policy":"Preserve the existing reviewed Yakama Reservation exclusion; designated recreation areas require separate authority-backed review. This polygon is mapping evidence, not a surveyed legal boundary.","policySources":["https://yakama.com/about/","data/regions/southwest-cascades/charter.md"],"extractedAt":"2026-09-24T16:42:19Z"}}
