{
  "type": "Feature",
  "properties": {
    "id": "santa-cruz-mountains",
    "name": "Santa Cruz Mountains build boundary"
  },
  "geometry": {
    "type": "Polygon",
    "coordinates": [[
      [-122.5700, 37.4200],
      [-122.4000, 37.4400],
      [-122.1900, 37.4100],
      [-122.0000, 37.3400],
      [-121.8500, 37.2300],
      [-121.8200, 37.0800],
      [-121.8800, 36.9300],
      [-122.0200, 36.8400],
      [-122.2100, 36.8500],
      [-122.3900, 36.9800],
      [-122.5100, 37.1700],
      [-122.5700, 37.4200]
    ]]
  }
}
