{
  "type": "Feature",
  "properties": {
    "id": "rainier-goat-rocks",
    "name": "Rainier–Goat Rocks build boundary",
    "boundaryVersion": "rainier-goat-rocks-boundary-v1",
    "sourceNamedAreaIds": [
      "osm:relation/1399219",
      "osm:relation/6109986",
      "osm:relation/6109916",
      "osm:relation/6109176"
    ],
    "northSeamEvidence": "2026-08-01 OSM Pacific Crest Trail ways between Norse Peak and Central Cascades"
  },
  "geometry": {
    "type": "Polygon",
    "coordinates": [
      [
        [
          -121.7085105,
          46.5657376
        ],
        [
          -121.700039,
          46.5748703
        ],
        [
          -121.6906329,
          46.6416891
        ],
        [
          -121.6772797,
          46.6501098
        ],
        [
          -121.6751184,
          46.6587106
        ],
        [
          -121.682574,
          46.6632729
        ],
        [
          -121.8063866,
          46.6633783
        ],
        [
          -121.8274089,
          46.6568382
        ],
        [
          -121.8712287,
          46.6570023
        ],
        [
          -121.9581836,
          46.6709252
        ],
        [
          -122.0056629,
          46.6975001
        ],
        [
          -122.011839,
          46.7114499
        ],
        [
          -122.0222739,
          46.7202225
        ],
        [
          -122.0262994,
          46.8443906
        ],
        [
          -122.0215202,
          46.9268549
        ],
        [
          -122.0540355,
          46.9361017
        ],
        [
          -122.0849067,
          46.9868337
        ],
        [
          -122.0849597,
          46.9969433
        ],
        [
          -122.0525157,
          47.0492461
        ],
        [
          -121.9748047,
          47.0691962
        ],
        [
          -121.9477373,
          47.0658497
        ],
        [
          -121.88912,
          47.0720603
        ],
        [
          -121.8418718,
          47.0684388
        ],
        [
          -121.592918,
          47.0673774
        ],
        [
          -121.5666668,
          47.0844817
        ],
        [
          -121.5705788,
          47.0859677
        ],
        [
          -121.5625049,
          47.0959325
        ],
        [
          -121.5495847,
          47.1010547
        ],
        [
          -121.5367595,
          47.131197
        ],
        [
          -121.4936652,
          47.1445475
        ],
        [
          -121.4888554,
          47.150669
        ],
        [
          -121.4952186,
          47.1527694
        ],
        [
          -121.4913776,
          47.1582243
        ],
        [
          -121.4617491,
          47.1830632
        ],
        [
          -121.444256,
          47.1909019
        ],
        [
          -121.4641845,
          47.2072229
        ],
        [
          -121.4652428,
          47.2383381
        ],
        [
          -121.4976436,
          47.2567446
        ],
        [
          -121.529603,
          47.2911999
        ],
        [
          -121.5402294,
          47.3195815
        ],
        [
          -121.55503,
          47.3318589
        ],
        [
          -121.5448026,
          47.4157652
        ],
        [
          -121.4857187,
          47.456977
        ],
        [
          -121.4051572,
          47.4564692
        ],
        [
          -121.3487161,
          47.4171066
        ],
        [
          -121.3426062,
          47.3704784
        ],
        [
          -121.3337466,
          47.3591617
        ],
        [
          -121.3137008,
          47.3475326
        ],
        [
          -121.2811224,
          47.3387437
        ],
        [
          -121.2659728,
          47.3225373
        ],
        [
          -121.2521076,
          47.3159056
        ],
        [
          -121.2499768,
          47.3076846
        ],
        [
          -121.2417724,
          47.3015073
        ],
        [
          -121.2304337,
          47.2768447
        ],
        [
          -121.231884,
          47.2497991
        ],
        [
          -121.2103823,
          47.2259801
        ],
        [
          -121.2032617,
          47.1971699
        ],
        [
          -121.2058044,
          47.186123
        ],
        [
          -121.1998075,
          47.1738535
        ],
        [
          -121.2040407,
          47.1581223
        ],
        [
          -121.1956866,
          47.1391204
        ],
        [
          -121.2097884,
          47.1078237
        ],
        [
          -121.2260679,
          47.0948166
        ],
        [
          -121.2041147,
          47.0925193
        ],
        [
          -121.2080758,
          47.0870968
        ],
        [
          -121.164248,
          47.0729053
        ],
        [
          -121.1566635,
          47.0663597
        ],
        [
          -121.1518283,
          47.0459019
        ],
        [
          -121.0919072,
          47.0170863
        ],
        [
          -121.0812444,
          46.9857207
        ],
        [
          -121.0703516,
          46.9744421
        ],
        [
          -121.0625036,
          46.8984422
        ],
        [
          -121.0435678,
          46.8920659
        ],
        [
          -121.0468119,
          46.888225
        ],
        [
          -120.9997674,
          46.8645606
        ],
        [
          -120.9891357,
          46.8055766
        ],
        [
          -121.0210914,
          46.7643455
        ],
        [
          -121.0355467,
          46.7370822
        ],
        [
          -121.0544481,
          46.6604056
        ],
        [
          -121.0593713,
          46.6529379
        ],
        [
          -121.0726857,
          46.6467718
        ],
        [
          -121.0841979,
          46.6292587
        ],
        [
          -121.1400109,
          46.6118383
        ],
        [
          -121.1795193,
          46.6076337
        ],
        [
          -121.1949485,
          46.597665
        ],
        [
          -121.2115363,
          46.5974559
        ],
        [
          -121.200121,
          46.5918749
        ],
        [
          -121.1586626,
          46.5492458
        ],
        [
          -121.1690284,
          46.4985246
        ],
        [
          -121.1953375,
          46.4836384
        ],
        [
          -121.2026908,
          46.4661795
        ],
        [
          -121.2257539,
          46.4573474
        ],
        [
          -121.2383117,
          46.4478067
        ],
        [
          -121.2736286,
          46.4015987
        ],
        [
          -121.2898815,
          46.4002259
        ],
        [
          -121.2878026,
          46.3811059
        ],
        [
          -121.2931566,
          46.3689629
        ],
        [
          -121.3304434,
          46.3322595
        ],
        [
          -121.3923231,
          46.3163758
        ],
        [
          -121.4758184,
          46.3207573
        ],
        [
          -121.4934289,
          46.3169532
        ],
        [
          -121.5627188,
          46.3391986
        ],
        [
          -121.5704674,
          46.3521694
        ],
        [
          -121.6005683,
          46.3718035
        ],
        [
          -121.6221029,
          46.4330189
        ],
        [
          -121.6491277,
          46.4455358
        ],
        [
          -121.6818011,
          46.4862826
        ],
        [
          -121.6799573,
          46.4943826
        ],
        [
          -121.6909317,
          46.5119464
        ],
        [
          -121.703939,
          46.5224337
        ],
        [
          -121.7057073,
          46.5292946
        ],
        [
          -121.7012526,
          46.5298329
        ],
        [
          -121.7112882,
          46.5394903
        ],
        [
          -121.7085105,
          46.5657376
        ]
      ]
    ]
  }
}
